{
  "type": "FeatureCollection",
  "features": [
    {
      "type": "Feature",
      "properties": {
        "id": "01",
        "name": "01_32_KecTulung_3 Bulan",
        "source_file": "01_32_KecTulung_3 Bulan_FEATURE_POINTS.csv"
      },
      "geometry": {
        "type": "Polygon",
        "coordinates": [
          [
            [
              110.628611667,
              -7.590603333
            ],
            [
              110.62867,
              -7.590623333
            ],
            [
              110.628673333,
              -7.590626667
            ],
            [
              110.628675,
              -7.590628333
            ],
            [
              110.628678333,
              -7.59063
            ],
            [
              110.628685,
              -7.590635
            ],
            [
              110.628688333,
              -7.590638333
            ],
            [
              110.628693333,
              -7.59064
            ],
            [
              110.628695,
              -7.59064
            ],
            [
              110.6287,
              -7.59064
            ],
            [
              110.628705,
              -7.590641667
            ],
            [
              110.628708333,
              -7.590643333
            ],
            [
              110.62871,
              -7.590645
            ],
            [
              110.628711667,
              -7.590648333
            ],
            [
              110.628715,
              -7.59065
            ],
            [
              110.628718333,
              -7.590651667
            ],
            [
              110.628721667,
              -7.590651667
            ],
            [
              110.628726667,
              -7.590653333
            ],
            [
              110.62873,
              -7.590656667
            ],
            [
              110.628733333,
              -7.590656667
            ],
            [
              110.62874,
              -7.590658333
            ],
            [
              110.628743333,
              -7.59066
            ],
            [
              110.628748333,
              -7.590658333
            ],
            [
              110.628753333,
              -7.590656667
            ],
            [
              110.628756667,
              -7.590656667
            ],
            [
              110.628761667,
              -7.590658333
            ],
            [
              110.628763333,
              -7.59066
            ],
            [
              110.628768333,
              -7.590663333
            ],
            [
              110.628768333,
              -7.590668333
            ],
            [
              110.62877,
              -7.590671667
            ],
            [
              110.62877,
              -7.590678333
            ],
            [
              110.628771667,
              -7.590683333
            ],
            [
              110.628771667,
              -7.590688333
            ],
            [
              110.62877,
              -7.590693333
            ],
            [
              110.62877,
              -7.590695
            ],
            [
              110.628773333,
              -7.590736667
            ],
            [
              110.628771667,
              -7.590741667
            ],
            [
              110.62877,
              -7.590746667
            ],
            [
              110.62877,
              -7.59075
            ],
            [
              110.628768333,
              -7.590753333
            ],
            [
              110.62877,
              -7.59076
            ],
            [
              110.62877,
              -7.590763333
            ],
            [
              110.62877,
              -7.590768333
            ],
            [
              110.628768333,
              -7.590773333
            ],
            [
              110.628766667,
              -7.590781667
            ],
            [
              110.628765,
              -7.590788333
            ],
            [
              110.628763333,
              -7.590791667
            ],
            [
              110.628761667,
              -7.590796667
            ],
            [
              110.628761667,
              -7.590801667
            ],
            [
              110.628763333,
              -7.590808333
            ],
            [
              110.628761667,
              -7.590815
            ],
            [
              110.62876,
              -7.590818333
            ],
            [
              110.628756667,
              -7.59082
            ],
            [
              110.628755,
              -7.590821667
            ],
            [
              110.628751667,
              -7.590823333
            ],
            [
              110.62875,
              -7.590825
            ],
            [
              110.628748333,
              -7.590826667
            ],
            [
              110.628746667,
              -7.59083
            ],
            [
              110.628743333,
              -7.590833333
            ],
            [
              110.628743333,
              -7.590838333
            ],
            [
              110.628741667,
              -7.590843333
            ],
            [
              110.628741667,
              -7.590848333
            ],
            [
              110.62874,
              -7.590853333
            ],
            [
              110.62874,
              -7.590855
            ],
            [
              110.628738333,
              -7.590858333
            ],
            [
              110.628738333,
              -7.590861667
            ],
            [
              110.628736667,
              -7.590865
            ],
            [
              110.628735,
              -7.590868333
            ],
            [
              110.628735,
              -7.590871667
            ],
            [
              110.628733333,
              -7.590875
            ],
            [
              110.628733333,
              -7.59088
            ],
            [
              110.62873,
              -7.590885
            ],
            [
              110.628728333,
              -7.59089
            ],
            [
              110.628726667,
              -7.590896667
            ],
            [
              110.628723333,
              -7.590903333
            ],
            [
              110.628721667,
              -7.59091
            ],
            [
              110.628718333,
              -7.590916667
            ],
            [
              110.628716667,
              -7.590921667
            ],
            [
              110.628711667,
              -7.590926667
            ],
            [
              110.628711667,
              -7.590928333
            ],
            [
              110.628711667,
              -7.590933333
            ],
            [
              110.628713333,
              -7.590938333
            ],
            [
              110.628711667,
              -7.590941667
            ],
            [
              110.62871,
              -7.590946667
            ],
            [
              110.628708333,
              -7.590951667
            ],
            [
              110.628708333,
              -7.590955
            ],
            [
              110.628706667,
              -7.59096
            ],
            [
              110.628706667,
              -7.590965
            ],
            [
              110.628705,
              -7.590971667
            ],
            [
              110.628703333,
              -7.590978333
            ],
            [
              110.628703333,
              -7.590986667
            ],
            [
              110.628701667,
              -7.59099
            ],
            [
              110.628701667,
              -7.590996667
            ],
            [
              110.628701667,
              -7.591001667
            ],
            [
              110.628701667,
              -7.591005
            ],
            [
              110.628701667,
              -7.591011667
            ],
            [
              110.628698333,
              -7.591015
            ],
            [
              110.628695,
              -7.591018333
            ],
            [
              110.628693333,
              -7.591025
            ],
            [
              110.628695,
              -7.59103
            ],
            [
              110.628696667,
              -7.591033333
            ],
            [
              110.628695,
              -7.591036667
            ],
            [
              110.628695,
              -7.591041667
            ],
            [
              110.628693333,
              -7.591046667
            ],
            [
              110.628693333,
              -7.591051667
            ],
            [
              110.628691667,
              -7.591056667
            ],
            [
              110.62869,
              -7.591061667
            ],
            [
              110.628688333,
              -7.591065
            ],
            [
              110.628686667,
              -7.591071667
            ],
            [
              110.628685,
              -7.591075
            ],
            [
              110.628686667,
              -7.59108
            ],
            [
              110.628686667,
              -7.591083333
            ],
            [
              110.628683333,
              -7.591086667
            ],
            [
              110.628681667,
              -7.591091667
            ],
            [
              110.62868,
              -7.591096667
            ],
            [
              110.628678333,
              -7.591101667
            ],
            [
              110.628676667,
              -7.591106667
            ],
            [
              110.628675,
              -7.591113333
            ],
            [
              110.628673333,
              -7.59112
            ],
            [
              110.628675,
              -7.591125
            ],
            [
              110.628675,
              -7.591131667
            ],
            [
              110.628671667,
              -7.591136667
            ],
            [
              110.62867,
              -7.59114
            ],
            [
              110.628666667,
              -7.591145
            ],
            [
              110.628663333,
              -7.591151667
            ],
            [
              110.628663333,
              -7.591155
            ],
            [
              110.628663333,
              -7.591158333
            ],
            [
              110.628663333,
              -7.591163333
            ],
            [
              110.628661667,
              -7.591168333
            ],
            [
              110.62866,
              -7.591173333
            ],
            [
              110.62866,
              -7.591176667
            ],
            [
              110.62866,
              -7.591181667
            ],
            [
              110.628658333,
              -7.591185
            ],
            [
              110.628656667,
              -7.59119
            ],
            [
              110.628658333,
              -7.591193333
            ],
            [
              110.628656667,
              -7.5912
            ],
            [
              110.628655,
              -7.591206667
            ],
            [
              110.628656667,
              -7.59121
            ],
            [
              110.628655,
              -7.591216667
            ],
            [
              110.628655,
              -7.591218333
            ],
            [
              110.62865,
              -7.591223333
            ],
            [
              110.628646667,
              -7.59123
            ],
            [
              110.628643333,
              -7.591236667
            ],
            [
              110.628643333,
              -7.59124
            ],
            [
              110.628638333,
              -7.591246667
            ],
            [
              110.628635,
              -7.591253333
            ],
            [
              110.628633333,
              -7.591261667
            ],
            [
              110.628635,
              -7.591268333
            ],
            [
              110.628633333,
              -7.591275
            ],
            [
              110.628631667,
              -7.59128
            ],
            [
              110.628633333,
              -7.591286667
            ],
            [
              110.62863,
              -7.591291667
            ],
            [
              110.628628333,
              -7.591296667
            ],
            [
              110.628623333,
              -7.591305
            ],
            [
              110.628621667,
              -7.591311667
            ],
            [
              110.62862,
              -7.591316667
            ],
            [
              110.628618333,
              -7.591323333
            ],
            [
              110.628616667,
              -7.59133
            ],
            [
              110.628616667,
              -7.591336667
            ],
            [
              110.628616667,
              -7.591343333
            ],
            [
              110.628616667,
              -7.59135
            ],
            [
              110.628616667,
              -7.591353333
            ],
            [
              110.628615,
              -7.591358333
            ],
            [
              110.628615,
              -7.591363333
            ],
            [
              110.628611667,
              -7.59137
            ],
            [
              110.628608333,
              -7.591375
            ],
            [
              110.628606667,
              -7.591378333
            ],
            [
              110.628606667,
              -7.591381667
            ],
            [
              110.628605,
              -7.591385
            ],
            [
              110.628603333,
              -7.59139
            ],
            [
              110.628601667,
              -7.591393333
            ],
            [
              110.628601667,
              -7.591398333
            ],
            [
              110.6286,
              -7.5914
            ],
            [
              110.6286,
              -7.591405
            ],
            [
              110.628598333,
              -7.591411667
            ],
            [
              110.628595,
              -7.591416667
            ],
            [
              110.628595,
              -7.591421667
            ],
            [
              110.628593333,
              -7.591425
            ],
            [
              110.628593333,
              -7.59143
            ],
            [
              110.628593333,
              -7.591433333
            ],
            [
              110.628593333,
              -7.591436667
            ],
            [
              110.628591667,
              -7.591441667
            ],
            [
              110.628591667,
              -7.591446667
            ],
            [
              110.62859,
              -7.591451667
            ],
            [
              110.628588333,
              -7.59146
            ],
            [
              110.628586667,
              -7.591466667
            ],
            [
              110.628583333,
              -7.591471667
            ],
            [
              110.628581667,
              -7.591476667
            ],
            [
              110.628581667,
              -7.591481667
            ],
            [
              110.628578333,
              -7.591485
            ],
            [
              110.628576667,
              -7.591488333
            ],
            [
              110.628576667,
              -7.591495
            ],
            [
              110.628573333,
              -7.591501667
            ],
            [
              110.628571667,
              -7.59151
            ],
            [
              110.628566667,
              -7.591515
            ],
            [
              110.628563333,
              -7.591518333
            ],
            [
              110.628561667,
              -7.591525
            ],
            [
              110.62856,
              -7.59153
            ],
            [
              110.628556667,
              -7.591535
            ],
            [
              110.628556667,
              -7.591538333
            ],
            [
              110.628555,
              -7.591541667
            ],
            [
              110.628553333,
              -7.591545
            ],
            [
              110.628553333,
              -7.591546667
            ],
            [
              110.62855,
              -7.591551667
            ],
            [
              110.628548333,
              -7.591556667
            ],
            [
              110.628545,
              -7.591561667
            ],
            [
              110.628545,
              -7.591566667
            ],
            [
              110.628545,
              -7.591571667
            ],
            [
              110.628545,
              -7.591578333
            ],
            [
              110.628543333,
              -7.591583333
            ],
            [
              110.628541667,
              -7.591588333
            ],
            [
              110.62854,
              -7.591595
            ],
            [
              110.628538333,
              -7.591603333
            ],
            [
              110.628536667,
              -7.591608333
            ],
            [
              110.628533333,
              -7.591613333
            ],
            [
              110.628533333,
              -7.591616667
            ],
            [
              110.628533333,
              -7.59162
            ],
            [
              110.628533333,
              -7.591628333
            ],
            [
              110.628531667,
              -7.591633333
            ],
            [
              110.628531667,
              -7.591641667
            ],
            [
              110.628531667,
              -7.591646667
            ],
            [
              110.628531667,
              -7.591653333
            ],
            [
              110.628531667,
              -7.591658333
            ],
            [
              110.62853,
              -7.591663333
            ],
            [
              110.62853,
              -7.59167
            ],
            [
              110.62853,
              -7.591675
            ],
            [
              110.62853,
              -7.591678333
            ],
            [
              110.628528333,
              -7.591681667
            ],
            [
              110.628526667,
              -7.591686667
            ],
            [
              110.628523333,
              -7.591693333
            ],
            [
              110.628523333,
              -7.591701667
            ],
            [
              110.628521667,
              -7.591706667
            ],
            [
              110.628521667,
              -7.591711667
            ],
            [
              110.62852,
              -7.591716667
            ],
            [
              110.628518333,
              -7.591721667
            ],
            [
              110.628518333,
              -7.591726667
            ],
            [
              110.628518333,
              -7.591733333
            ],
            [
              110.628516667,
              -7.59174
            ],
            [
              110.628515,
              -7.591743333
            ],
            [
              110.628515,
              -7.591746667
            ],
            [
              110.628515,
              -7.59175
            ],
            [
              110.628513333,
              -7.591756667
            ],
            [
              110.628513333,
              -7.591765
            ],
            [
              110.628511667,
              -7.59177
            ],
            [
              110.628511667,
              -7.591778333
            ],
            [
              110.628508333,
              -7.591781667
            ],
            [
              110.628506667,
              -7.591785
            ],
            [
              110.628505,
              -7.591791667
            ],
            [
              110.628503333,
              -7.591795
            ],
            [
              110.628501667,
              -7.591801667
            ],
            [
              110.6285,
              -7.591808333
            ],
            [
              110.6285,
              -7.591811667
            ],
            [
              110.6285,
              -7.591816667
            ],
            [
              110.628498333,
              -7.59182
            ],
            [
              110.628498333,
              -7.591826667
            ],
            [
              110.628496667,
              -7.591831667
            ],
            [
              110.628493333,
              -7.591841667
            ],
            [
              110.628493333,
              -7.591848333
            ],
            [
              110.628493333,
              -7.591855
            ],
            [
              110.628493333,
              -7.59186
            ],
            [
              110.628493333,
              -7.591866667
            ],
            [
              110.628493333,
              -7.591871667
            ],
            [
              110.628491667,
              -7.59188
            ],
            [
              110.628488333,
              -7.591888333
            ],
            [
              110.628488333,
              -7.591893333
            ],
            [
              110.628486667,
              -7.591898333
            ],
            [
              110.628486667,
              -7.591903333
            ],
            [
              110.628485,
              -7.591908333
            ],
            [
              110.62848,
              -7.591915
            ],
            [
              110.62848,
              -7.59192
            ],
            [
              110.62848,
              -7.591923333
            ],
            [
              110.628478333,
              -7.591931667
            ],
            [
              110.628478333,
              -7.591938333
            ],
            [
              110.628478333,
              -7.591941667
            ],
            [
              110.628476667,
              -7.591945
            ],
            [
              110.628476667,
              -7.591946667
            ],
            [
              110.628475,
              -7.591946667
            ],
            [
              110.628475,
              -7.59195
            ],
            [
              110.628473333,
              -7.591951667
            ],
            [
              110.628471667,
              -7.591951667
            ],
            [
              110.62847,
              -7.591956667
            ],
            [
              110.628468333,
              -7.591971667
            ],
            [
              110.628468333,
              -7.591975
            ],
            [
              110.628466667,
              -7.59198
            ],
            [
              110.628465,
              -7.591985
            ],
            [
              110.628466667,
              -7.591988333
            ],
            [
              110.628466667,
              -7.591991667
            ],
            [
              110.628468333,
              -7.591995
            ],
            [
              110.628455,
              -7.592005
            ],
            [
              110.628455,
              -7.592006667
            ],
            [
              110.628453333,
              -7.592008333
            ],
            [
              110.62845,
              -7.592011667
            ],
            [
              110.628445,
              -7.592013333
            ],
            [
              110.628443333,
              -7.592011667
            ],
            [
              110.628355,
              -7.591983333
            ],
            [
              110.628355,
              -7.591985
            ],
            [
              110.62835,
              -7.591981667
            ],
            [
              110.628348333,
              -7.591978333
            ],
            [
              110.628303333,
              -7.59193
            ],
            [
              110.628305,
              -7.591925
            ],
            [
              110.628305,
              -7.591921667
            ],
            [
              110.628303333,
              -7.591918333
            ],
            [
              110.628303333,
              -7.591913333
            ],
            [
              110.628303333,
              -7.59191
            ],
            [
              110.628305,
              -7.591905
            ],
            [
              110.628308333,
              -7.5919
            ],
            [
              110.628311667,
              -7.591896667
            ],
            [
              110.62831,
              -7.591891667
            ],
            [
              110.628311667,
              -7.591886667
            ],
            [
              110.628311667,
              -7.591885
            ],
            [
              110.628313333,
              -7.59188
            ],
            [
              110.628313333,
              -7.591875
            ],
            [
              110.628313333,
              -7.59187
            ],
            [
              110.628313333,
              -7.591865
            ],
            [
              110.628315,
              -7.59186
            ],
            [
              110.628316667,
              -7.591855
            ],
            [
              110.628318333,
              -7.591851667
            ],
            [
              110.62832,
              -7.591845
            ],
            [
              110.628321667,
              -7.59184
            ],
            [
              110.628323333,
              -7.591835
            ],
            [
              110.628323333,
              -7.591831667
            ],
            [
              110.628325,
              -7.591828333
            ],
            [
              110.628325,
              -7.591823333
            ],
            [
              110.628325,
              -7.591818333
            ],
            [
              110.628326667,
              -7.591813333
            ],
            [
              110.628326667,
              -7.591808333
            ],
            [
              110.628328333,
              -7.591803333
            ],
            [
              110.62833,
              -7.591796667
            ],
            [
              110.628331667,
              -7.59179
            ],
            [
              110.628333333,
              -7.591783333
            ],
            [
              110.628335,
              -7.591776667
            ],
            [
              110.628335,
              -7.59177
            ],
            [
              110.628336667,
              -7.591765
            ],
            [
              110.628338333,
              -7.591758333
            ],
            [
              110.62834,
              -7.591751667
            ],
            [
              110.62834,
              -7.591746667
            ],
            [
              110.628341667,
              -7.591741667
            ],
            [
              110.628343333,
              -7.591736667
            ],
            [
              110.628343333,
              -7.591731667
            ],
            [
              110.628343333,
              -7.591726667
            ],
            [
              110.628345,
              -7.591721667
            ],
            [
              110.628348333,
              -7.591715
            ],
            [
              110.628351667,
              -7.59171
            ],
            [
              110.628355,
              -7.591703333
            ],
            [
              110.628358333,
              -7.591698333
            ],
            [
              110.628361667,
              -7.591693333
            ],
            [
              110.628363333,
              -7.591688333
            ],
            [
              110.628363333,
              -7.591685
            ],
            [
              110.628365,
              -7.591678333
            ],
            [
              110.628365,
              -7.591673333
            ],
            [
              110.628365,
              -7.591666667
            ],
            [
              110.628366667,
              -7.591661667
            ],
            [
              110.628368333,
              -7.591656667
            ],
            [
              110.628368333,
              -7.591651667
            ],
            [
              110.628368333,
              -7.591646667
            ],
            [
              110.62837,
              -7.591638333
            ],
            [
              110.628371667,
              -7.591631667
            ],
            [
              110.628373333,
              -7.591625
            ],
            [
              110.628375,
              -7.59162
            ],
            [
              110.628376667,
              -7.591615
            ],
            [
              110.628375,
              -7.59161
            ],
            [
              110.628373333,
              -7.591605
            ],
            [
              110.628373333,
              -7.5916
            ],
            [
              110.628373333,
              -7.591595
            ],
            [
              110.628375,
              -7.591588333
            ],
            [
              110.628375,
              -7.591583333
            ],
            [
              110.628375,
              -7.59158
            ],
            [
              110.628375,
              -7.591575
            ],
            [
              110.628376667,
              -7.59157
            ],
            [
              110.628378333,
              -7.591566667
            ],
            [
              110.62838,
              -7.59156
            ],
            [
              110.62838,
              -7.591555
            ],
            [
              110.628383333,
              -7.591545
            ],
            [
              110.628385,
              -7.591538333
            ],
            [
              110.628386667,
              -7.591531667
            ],
            [
              110.628386667,
              -7.591526667
            ],
            [
              110.628388333,
              -7.591521667
            ],
            [
              110.62839,
              -7.591515
            ],
            [
              110.62839,
              -7.59151
            ],
            [
              110.628391667,
              -7.591505
            ],
            [
              110.628393333,
              -7.591503333
            ],
            [
              110.628395,
              -7.591503333
            ],
            [
              110.628396667,
              -7.5915
            ],
            [
              110.628398333,
              -7.591496667
            ],
            [
              110.6284,
              -7.591495
            ],
            [
              110.6284,
              -7.591491667
            ],
            [
              110.6284,
              -7.591488333
            ],
            [
              110.628401667,
              -7.591485
            ],
            [
              110.6284,
              -7.591483333
            ],
            [
              110.628401667,
              -7.59148
            ],
            [
              110.628401667,
              -7.591473333
            ],
            [
              110.628403333,
              -7.591468333
            ],
            [
              110.628403333,
              -7.591463333
            ],
            [
              110.628403333,
              -7.591458333
            ],
            [
              110.628408333,
              -7.591453333
            ],
            [
              110.62841,
              -7.591446667
            ],
            [
              110.62841,
              -7.591443333
            ],
            [
              110.628413333,
              -7.591438333
            ],
            [
              110.628415,
              -7.591431667
            ],
            [
              110.628415,
              -7.591426667
            ],
            [
              110.628416667,
              -7.591421667
            ],
            [
              110.628415,
              -7.591416667
            ],
            [
              110.628415,
              -7.591415
            ],
            [
              110.628416667,
              -7.59141
            ],
            [
              110.628416667,
              -7.591403333
            ],
            [
              110.628418333,
              -7.5914
            ],
            [
              110.62842,
              -7.591395
            ],
            [
              110.62842,
              -7.59139
            ],
            [
              110.62842,
              -7.591383333
            ],
            [
              110.62842,
              -7.59138
            ],
            [
              110.628421667,
              -7.591373333
            ],
            [
              110.628423333,
              -7.59137
            ],
            [
              110.628423333,
              -7.591363333
            ],
            [
              110.628423333,
              -7.591356667
            ],
            [
              110.628425,
              -7.591353333
            ],
            [
              110.628428333,
              -7.591346667
            ],
            [
              110.628428333,
              -7.591338333
            ],
            [
              110.62843,
              -7.591331667
            ],
            [
              110.628431667,
              -7.591326667
            ],
            [
              110.628433333,
              -7.59132
            ],
            [
              110.628436667,
              -7.591313333
            ],
            [
              110.628436667,
              -7.591308333
            ],
            [
              110.628438333,
              -7.591303333
            ],
            [
              110.628438333,
              -7.591298333
            ],
            [
              110.628441667,
              -7.591291667
            ],
            [
              110.628443333,
              -7.591285
            ],
            [
              110.628443333,
              -7.591278333
            ],
            [
              110.628445,
              -7.591273333
            ],
            [
              110.628445,
              -7.591268333
            ],
            [
              110.628446667,
              -7.59126
            ],
            [
              110.628446667,
              -7.591255
            ],
            [
              110.628446667,
              -7.591248333
            ],
            [
              110.628445,
              -7.591241667
            ],
            [
              110.628445,
              -7.591233333
            ],
            [
              110.628446667,
              -7.59123
            ],
            [
              110.628448333,
              -7.591223333
            ],
            [
              110.62845,
              -7.591218333
            ],
            [
              110.628451667,
              -7.591213333
            ],
            [
              110.628453333,
              -7.591208333
            ],
            [
              110.628455,
              -7.591203333
            ],
            [
              110.628456667,
              -7.5912
            ],
            [
              110.628456667,
              -7.591196667
            ],
            [
              110.628456667,
              -7.591191667
            ],
            [
              110.62846,
              -7.591183333
            ],
            [
              110.628463333,
              -7.591178333
            ],
            [
              110.628465,
              -7.59117
            ],
            [
              110.628468333,
              -7.591161667
            ],
            [
              110.628471667,
              -7.591153333
            ],
            [
              110.628475,
              -7.591145
            ],
            [
              110.628478333,
              -7.591136667
            ],
            [
              110.62848,
              -7.591128333
            ],
            [
              110.628478333,
              -7.591121667
            ],
            [
              110.628481667,
              -7.591113333
            ],
            [
              110.628483333,
              -7.591106667
            ],
            [
              110.628485,
              -7.5911
            ],
            [
              110.628485,
              -7.591093333
            ],
            [
              110.628486667,
              -7.591086667
            ],
            [
              110.62849,
              -7.591078333
            ],
            [
              110.62849,
              -7.591071667
            ],
            [
              110.628491667,
              -7.591066667
            ],
            [
              110.628493333,
              -7.591061667
            ],
            [
              110.628493333,
              -7.591056667
            ],
            [
              110.628493333,
              -7.591051667
            ],
            [
              110.628496667,
              -7.591051667
            ],
            [
              110.628496667,
              -7.59105
            ],
            [
              110.6285,
              -7.591051667
            ],
            [
              110.628503333,
              -7.59105
            ],
            [
              110.628501667,
              -7.59105
            ],
            [
              110.6285,
              -7.591028333
            ],
            [
              110.628501667,
              -7.59102
            ],
            [
              110.628503333,
              -7.591015
            ],
            [
              110.628505,
              -7.591006667
            ],
            [
              110.628505,
              -7.590996667
            ],
            [
              110.628505,
              -7.590985
            ],
            [
              110.628506667,
              -7.590976667
            ],
            [
              110.628506667,
              -7.590968333
            ],
            [
              110.628508333,
              -7.59096
            ],
            [
              110.62851,
              -7.590953333
            ],
            [
              110.628511667,
              -7.590943333
            ],
            [
              110.628513333,
              -7.590933333
            ],
            [
              110.628516667,
              -7.590925
            ],
            [
              110.62852,
              -7.590916667
            ],
            [
              110.628525,
              -7.590908333
            ],
            [
              110.628526667,
              -7.5909
            ],
            [
              110.62853,
              -7.590891667
            ],
            [
              110.62853,
              -7.590885
            ],
            [
              110.628531667,
              -7.59088
            ],
            [
              110.628533333,
              -7.590873333
            ],
            [
              110.628535,
              -7.590865
            ],
            [
              110.628535,
              -7.590856667
            ],
            [
              110.628536667,
              -7.590848333
            ],
            [
              110.628538333,
              -7.590838333
            ],
            [
              110.628541667,
              -7.590831667
            ],
            [
              110.628541667,
              -7.590821667
            ],
            [
              110.628545,
              -7.590813333
            ],
            [
              110.628546667,
              -7.590805
            ],
            [
              110.62855,
              -7.590798333
            ],
            [
              110.628553333,
              -7.590791667
            ],
            [
              110.628556667,
              -7.590783333
            ],
            [
              110.628558333,
              -7.590773333
            ],
            [
              110.628561667,
              -7.590765
            ],
            [
              110.628561667,
              -7.590756667
            ],
            [
              110.628565,
              -7.590746667
            ],
            [
              110.628566667,
              -7.59074
            ],
            [
              110.628568333,
              -7.590731667
            ],
            [
              110.628568333,
              -7.590723333
            ],
            [
              110.628571667,
              -7.590713333
            ],
            [
              110.628573333,
              -7.590708333
            ],
            [
              110.628573333,
              -7.590696667
            ],
            [
              110.628571667,
              -7.590688333
            ],
            [
              110.628573333,
              -7.59068
            ],
            [
              110.628573333,
              -7.590671667
            ],
            [
              110.628575,
              -7.590666667
            ],
            [
              110.628576667,
              -7.59066
            ],
            [
              110.628578333,
              -7.590656667
            ],
            [
              110.62858,
              -7.590653333
            ],
            [
              110.628583333,
              -7.59065
            ],
            [
              110.628585,
              -7.590646667
            ],
            [
              110.628585,
              -7.590643333
            ],
            [
              110.628586667,
              -7.590638333
            ],
            [
              110.628588333,
              -7.590636667
            ],
            [
              110.62859,
              -7.590631667
            ],
            [
              110.628593333,
              -7.590628333
            ],
            [
              110.628595,
              -7.590626667
            ],
            [
              110.628598333,
              -7.590623333
            ],
            [
              110.6286,
              -7.590618333
            ],
            [
              110.628601667,
              -7.590615
            ],
            [
              110.6286,
              -7.590615
            ],
            [
              110.628603333,
              -7.590615
            ],
            [
              110.628606667,
              -7.590613333
            ],
            [
              110.628611667,
              -7.590603333
            ]
          ]
        ]
      }
    }
  ]
}