{
  "type": "FeatureCollection",
  "features": [
    {
      "type": "Feature",
      "properties": {
        "id": "02",
        "name": "02_32_KecTulung_1 Bulanl",
        "source_file": "02_32_KecTulung_1 Bulanl_FEATURE_POINTS.csv"
      },
      "geometry": {
        "type": "Polygon",
        "coordinates": [
          [
            [
              110.628485,
              -7.59063
            ],
            [
              110.62847,
              -7.590668333
            ],
            [
              110.62847,
              -7.590673333
            ],
            [
              110.62847,
              -7.590676667
            ],
            [
              110.628468333,
              -7.590681667
            ],
            [
              110.628466667,
              -7.590686667
            ],
            [
              110.628465,
              -7.590695
            ],
            [
              110.628463333,
              -7.590701667
            ],
            [
              110.628461667,
              -7.590706667
            ],
            [
              110.62846,
              -7.590711667
            ],
            [
              110.628458333,
              -7.590716667
            ],
            [
              110.62846,
              -7.590721667
            ],
            [
              110.628458333,
              -7.590726667
            ],
            [
              110.628456667,
              -7.590731667
            ],
            [
              110.628456667,
              -7.590736667
            ],
            [
              110.628455,
              -7.590741667
            ],
            [
              110.628453333,
              -7.590746667
            ],
            [
              110.628451667,
              -7.59075
            ],
            [
              110.628451667,
              -7.590755
            ],
            [
              110.628451667,
              -7.59076
            ],
            [
              110.62845,
              -7.590766667
            ],
            [
              110.628451667,
              -7.59077
            ],
            [
              110.628451667,
              -7.590775
            ],
            [
              110.628451667,
              -7.590778333
            ],
            [
              110.62845,
              -7.590781667
            ],
            [
              110.628446667,
              -7.590785
            ],
            [
              110.628446667,
              -7.59079
            ],
            [
              110.628446667,
              -7.590795
            ],
            [
              110.628446667,
              -7.5908
            ],
            [
              110.628448333,
              -7.590805
            ],
            [
              110.628446667,
              -7.59081
            ],
            [
              110.628445,
              -7.590811667
            ],
            [
              110.628441667,
              -7.590815
            ],
            [
              110.62844,
              -7.590818333
            ],
            [
              110.628436667,
              -7.590821667
            ],
            [
              110.628433333,
              -7.590826667
            ],
            [
              110.628431667,
              -7.590831667
            ],
            [
              110.62843,
              -7.590838333
            ],
            [
              110.628426667,
              -7.590843333
            ],
            [
              110.628425,
              -7.590848333
            ],
            [
              110.628425,
              -7.590855
            ],
            [
              110.628423333,
              -7.590861667
            ],
            [
              110.628421667,
              -7.590868333
            ],
            [
              110.628418333,
              -7.590871667
            ],
            [
              110.628416667,
              -7.590876667
            ],
            [
              110.628416667,
              -7.590885
            ],
            [
              110.628415,
              -7.590891667
            ],
            [
              110.628413333,
              -7.590896667
            ],
            [
              110.628413333,
              -7.590901667
            ],
            [
              110.628411667,
              -7.590905
            ],
            [
              110.62841,
              -7.590911667
            ],
            [
              110.62841,
              -7.590916667
            ],
            [
              110.628408333,
              -7.590923333
            ],
            [
              110.628408333,
              -7.590928333
            ],
            [
              110.628408333,
              -7.590933333
            ],
            [
              110.628408333,
              -7.59094
            ],
            [
              110.628406667,
              -7.590946667
            ],
            [
              110.628405,
              -7.590953333
            ],
            [
              110.628403333,
              -7.59096
            ],
            [
              110.6284,
              -7.590965
            ],
            [
              110.628398333,
              -7.590971667
            ],
            [
              110.628396667,
              -7.590978333
            ],
            [
              110.628396667,
              -7.590986667
            ],
            [
              110.628395,
              -7.590993333
            ],
            [
              110.628395,
              -7.591001667
            ],
            [
              110.628391667,
              -7.591008333
            ],
            [
              110.628388333,
              -7.591016667
            ],
            [
              110.628386667,
              -7.591023333
            ],
            [
              110.628383333,
              -7.591031667
            ],
            [
              110.628378333,
              -7.591038333
            ],
            [
              110.628376667,
              -7.591041667
            ],
            [
              110.628376667,
              -7.591045
            ],
            [
              110.628376667,
              -7.59105
            ],
            [
              110.628378333,
              -7.591053333
            ],
            [
              110.62838,
              -7.59106
            ],
            [
              110.62838,
              -7.591066667
            ],
            [
              110.628376667,
              -7.591073333
            ],
            [
              110.628375,
              -7.59108
            ],
            [
              110.628373333,
              -7.591086667
            ],
            [
              110.628371667,
              -7.591091667
            ],
            [
              110.628368333,
              -7.591096667
            ],
            [
              110.628365,
              -7.591103333
            ],
            [
              110.628361667,
              -7.591108333
            ],
            [
              110.62836,
              -7.591113333
            ],
            [
              110.628358333,
              -7.591118333
            ],
            [
              110.628356667,
              -7.591123333
            ],
            [
              110.628355,
              -7.591131667
            ],
            [
              110.628355,
              -7.591136667
            ],
            [
              110.628356667,
              -7.591143333
            ],
            [
              110.628356667,
              -7.591146667
            ],
            [
              110.628356667,
              -7.591151667
            ],
            [
              110.628355,
              -7.591155
            ],
            [
              110.628351667,
              -7.591156667
            ],
            [
              110.628348333,
              -7.591158333
            ],
            [
              110.628348333,
              -7.591163333
            ],
            [
              110.628346667,
              -7.59117
            ],
            [
              110.628345,
              -7.591175
            ],
            [
              110.628341667,
              -7.591181667
            ],
            [
              110.62834,
              -7.591188333
            ],
            [
              110.628338333,
              -7.591193333
            ],
            [
              110.628338333,
              -7.591196667
            ],
            [
              110.628336667,
              -7.591201667
            ],
            [
              110.628335,
              -7.591206667
            ],
            [
              110.628333333,
              -7.591208333
            ],
            [
              110.628335,
              -7.59121
            ],
            [
              110.628335,
              -7.591208333
            ],
            [
              110.628335,
              -7.591206667
            ],
            [
              110.628335,
              -7.591205
            ],
            [
              110.628336667,
              -7.591203333
            ],
            [
              110.628335,
              -7.591203333
            ],
            [
              110.628333333,
              -7.591216667
            ],
            [
              110.628331667,
              -7.591221667
            ],
            [
              110.628331667,
              -7.591226667
            ],
            [
              110.628331667,
              -7.59123
            ],
            [
              110.628333333,
              -7.591235
            ],
            [
              110.628333333,
              -7.59124
            ],
            [
              110.628333333,
              -7.591243333
            ],
            [
              110.628331667,
              -7.591248333
            ],
            [
              110.628333333,
              -7.591251667
            ],
            [
              110.628335,
              -7.591258333
            ],
            [
              110.628335,
              -7.591265
            ],
            [
              110.628333333,
              -7.591268333
            ],
            [
              110.628331667,
              -7.591273333
            ],
            [
              110.62833,
              -7.591276667
            ],
            [
              110.628328333,
              -7.591281667
            ],
            [
              110.628326667,
              -7.591288333
            ],
            [
              110.628325,
              -7.591291667
            ],
            [
              110.628321667,
              -7.591295
            ],
            [
              110.628321667,
              -7.591296667
            ],
            [
              110.628318333,
              -7.591301667
            ],
            [
              110.628316667,
              -7.591306667
            ],
            [
              110.628316667,
              -7.591311667
            ],
            [
              110.628313333,
              -7.591315
            ],
            [
              110.628308333,
              -7.591318333
            ],
            [
              110.628305,
              -7.591323333
            ],
            [
              110.628301667,
              -7.591328333
            ],
            [
              110.6283,
              -7.591333333
            ],
            [
              110.628298333,
              -7.591338333
            ],
            [
              110.628296667,
              -7.591345
            ],
            [
              110.628296667,
              -7.591351667
            ],
            [
              110.628296667,
              -7.591356667
            ],
            [
              110.628298333,
              -7.591363333
            ],
            [
              110.6283,
              -7.591368333
            ],
            [
              110.6283,
              -7.591371667
            ],
            [
              110.628298333,
              -7.591375
            ],
            [
              110.628293333,
              -7.59138
            ],
            [
              110.628291667,
              -7.591385
            ],
            [
              110.62829,
              -7.591386667
            ],
            [
              110.62829,
              -7.591391667
            ],
            [
              110.62829,
              -7.591396667
            ],
            [
              110.628286667,
              -7.591405
            ],
            [
              110.628285,
              -7.591408333
            ],
            [
              110.628288333,
              -7.591413333
            ],
            [
              110.628285,
              -7.591418333
            ],
            [
              110.628283333,
              -7.591423333
            ],
            [
              110.628286667,
              -7.591428333
            ],
            [
              110.628288333,
              -7.591431667
            ],
            [
              110.628288333,
              -7.591436667
            ],
            [
              110.628286667,
              -7.591443333
            ],
            [
              110.628285,
              -7.59145
            ],
            [
              110.628283333,
              -7.591456667
            ],
            [
              110.628281667,
              -7.591461667
            ],
            [
              110.62828,
              -7.591465
            ],
            [
              110.628283333,
              -7.59147
            ],
            [
              110.628285,
              -7.591473333
            ],
            [
              110.628286667,
              -7.591476667
            ],
            [
              110.628288333,
              -7.591481667
            ],
            [
              110.628288333,
              -7.591485
            ],
            [
              110.628286667,
              -7.591486667
            ],
            [
              110.628283333,
              -7.591485
            ],
            [
              110.62828,
              -7.591485
            ],
            [
              110.628278333,
              -7.591486667
            ],
            [
              110.628275,
              -7.591488333
            ],
            [
              110.62827,
              -7.591491667
            ],
            [
              110.628266667,
              -7.591495
            ],
            [
              110.628263333,
              -7.5915
            ],
            [
              110.62826,
              -7.591505
            ],
            [
              110.62826,
              -7.591508333
            ],
            [
              110.62826,
              -7.591513333
            ],
            [
              110.628261667,
              -7.591515
            ],
            [
              110.628263333,
              -7.591515
            ],
            [
              110.628263333,
              -7.591516667
            ],
            [
              110.628263333,
              -7.59152
            ],
            [
              110.628276667,
              -7.591526667
            ],
            [
              110.62828,
              -7.591523333
            ],
            [
              110.62828,
              -7.59152
            ],
            [
              110.628281667,
              -7.591516667
            ],
            [
              110.62829,
              -7.591515
            ],
            [
              110.628291667,
              -7.591515
            ],
            [
              110.628296667,
              -7.591516667
            ],
            [
              110.628306667,
              -7.59152
            ],
            [
              110.628311667,
              -7.591521667
            ],
            [
              110.628316667,
              -7.591523333
            ],
            [
              110.628318333,
              -7.591525
            ],
            [
              110.628323333,
              -7.591525
            ],
            [
              110.62833,
              -7.591525
            ],
            [
              110.628338333,
              -7.591525
            ],
            [
              110.628346667,
              -7.591526667
            ],
            [
              110.628355,
              -7.591525
            ],
            [
              110.62836,
              -7.591525
            ],
            [
              110.628365,
              -7.591523333
            ],
            [
              110.62837,
              -7.591526667
            ],
            [
              110.628373333,
              -7.591525
            ],
            [
              110.628375,
              -7.591526667
            ],
            [
              110.628378333,
              -7.591526667
            ],
            [
              110.628381667,
              -7.59153
            ],
            [
              110.628381667,
              -7.591528333
            ],
            [
              110.62838,
              -7.591526667
            ],
            [
              110.628381667,
              -7.591523333
            ],
            [
              110.628383333,
              -7.591515
            ],
            [
              110.628385,
              -7.591508333
            ],
            [
              110.628386667,
              -7.591501667
            ],
            [
              110.628386667,
              -7.591493333
            ],
            [
              110.62839,
              -7.591485
            ],
            [
              110.628393333,
              -7.591478333
            ],
            [
              110.628396667,
              -7.59147
            ],
            [
              110.628396667,
              -7.591461667
            ],
            [
              110.628398333,
              -7.591453333
            ],
            [
              110.628401667,
              -7.591445
            ],
            [
              110.628401667,
              -7.591435
            ],
            [
              110.628401667,
              -7.591426667
            ],
            [
              110.628403333,
              -7.591416667
            ],
            [
              110.628405,
              -7.591408333
            ],
            [
              110.628408333,
              -7.591401667
            ],
            [
              110.628411667,
              -7.591395
            ],
            [
              110.628415,
              -7.591386667
            ],
            [
              110.62842,
              -7.591383333
            ],
            [
              110.628423333,
              -7.591381667
            ],
            [
              110.628425,
              -7.591383333
            ],
            [
              110.628426667,
              -7.591386667
            ],
            [
              110.628426667,
              -7.591388333
            ],
            [
              110.628428333,
              -7.591388333
            ],
            [
              110.628428333,
              -7.59139
            ],
            [
              110.628428333,
              -7.591391667
            ],
            [
              110.628426667,
              -7.591395
            ],
            [
              110.628433333,
              -7.59138
            ],
            [
              110.628433333,
              -7.591378333
            ],
            [
              110.628433333,
              -7.591376667
            ],
            [
              110.628433333,
              -7.591375
            ],
            [
              110.628421667,
              -7.59135
            ],
            [
              110.628423333,
              -7.591338333
            ],
            [
              110.628425,
              -7.591328333
            ],
            [
              110.628425,
              -7.591318333
            ],
            [
              110.628423333,
              -7.591313333
            ],
            [
              110.628426667,
              -7.591306667
            ],
            [
              110.628428333,
              -7.591301667
            ],
            [
              110.628428333,
              -7.591296667
            ],
            [
              110.62843,
              -7.591291667
            ],
            [
              110.628431667,
              -7.591285
            ],
            [
              110.628433333,
              -7.59128
            ],
            [
              110.628435,
              -7.591273333
            ],
            [
              110.628435,
              -7.59127
            ],
            [
              110.628438333,
              -7.591263333
            ],
            [
              110.62844,
              -7.591256667
            ],
            [
              110.628443333,
              -7.591251667
            ],
            [
              110.628445,
              -7.591246667
            ],
            [
              110.628446667,
              -7.591243333
            ],
            [
              110.628446667,
              -7.591238333
            ],
            [
              110.628446667,
              -7.591233333
            ],
            [
              110.628448333,
              -7.591226667
            ],
            [
              110.62845,
              -7.59122
            ],
            [
              110.62845,
              -7.591213333
            ],
            [
              110.628448333,
              -7.591208333
            ],
            [
              110.62845,
              -7.5912
            ],
            [
              110.628451667,
              -7.591193333
            ],
            [
              110.628453333,
              -7.591186667
            ],
            [
              110.628456667,
              -7.591176667
            ],
            [
              110.628458333,
              -7.591171667
            ],
            [
              110.628461667,
              -7.591163333
            ],
            [
              110.628463333,
              -7.591155
            ],
            [
              110.628465,
              -7.591148333
            ],
            [
              110.628468333,
              -7.591143333
            ],
            [
              110.62847,
              -7.591136667
            ],
            [
              110.628475,
              -7.59113
            ],
            [
              110.628475,
              -7.591123333
            ],
            [
              110.628476667,
              -7.591115
            ],
            [
              110.62848,
              -7.591105
            ],
            [
              110.628483333,
              -7.591096667
            ],
            [
              110.628485,
              -7.591086667
            ],
            [
              110.628486667,
              -7.591076667
            ],
            [
              110.628488333,
              -7.59107
            ],
            [
              110.628491667,
              -7.591061667
            ],
            [
              110.628493333,
              -7.591053333
            ],
            [
              110.628496667,
              -7.591046667
            ],
            [
              110.628498333,
              -7.591038333
            ],
            [
              110.628498333,
              -7.59103
            ],
            [
              110.628501667,
              -7.591021667
            ],
            [
              110.628501667,
              -7.591015
            ],
            [
              110.628505,
              -7.591006667
            ],
            [
              110.628506667,
              -7.590998333
            ],
            [
              110.62851,
              -7.590991667
            ],
            [
              110.62851,
              -7.590983333
            ],
            [
              110.628511667,
              -7.590975
            ],
            [
              110.628515,
              -7.590966667
            ],
            [
              110.628518333,
              -7.59096
            ],
            [
              110.62852,
              -7.590953333
            ],
            [
              110.62852,
              -7.590943333
            ],
            [
              110.628521667,
              -7.590933333
            ],
            [
              110.628523333,
              -7.590926667
            ],
            [
              110.628521667,
              -7.590916667
            ],
            [
              110.628521667,
              -7.590906667
            ],
            [
              110.628521667,
              -7.590896667
            ],
            [
              110.628521667,
              -7.590886667
            ],
            [
              110.628523333,
              -7.590878333
            ],
            [
              110.628525,
              -7.59087
            ],
            [
              110.62853,
              -7.59086
            ],
            [
              110.628533333,
              -7.590851667
            ],
            [
              110.628535,
              -7.590843333
            ],
            [
              110.628538333,
              -7.590835
            ],
            [
              110.62854,
              -7.590826667
            ],
            [
              110.628541667,
              -7.590818333
            ],
            [
              110.628541667,
              -7.590811667
            ],
            [
              110.628541667,
              -7.590803333
            ],
            [
              110.628543333,
              -7.590796667
            ],
            [
              110.628545,
              -7.590788333
            ],
            [
              110.628548333,
              -7.590778333
            ],
            [
              110.628551667,
              -7.590771667
            ],
            [
              110.628555,
              -7.590763333
            ],
            [
              110.628558333,
              -7.590755
            ],
            [
              110.62856,
              -7.590748333
            ],
            [
              110.628561667,
              -7.59074
            ],
            [
              110.628561667,
              -7.59073
            ],
            [
              110.628561667,
              -7.590721667
            ],
            [
              110.628563333,
              -7.590715
            ],
            [
              110.628566667,
              -7.590705
            ],
            [
              110.628568333,
              -7.590696667
            ],
            [
              110.628565,
              -7.590691667
            ],
            [
              110.628563333,
              -7.590688333
            ],
            [
              110.62856,
              -7.590685
            ],
            [
              110.628556667,
              -7.590681667
            ],
            [
              110.62855,
              -7.590678333
            ],
            [
              110.628546667,
              -7.590676667
            ],
            [
              110.628543333,
              -7.590675
            ],
            [
              110.628543333,
              -7.590671667
            ],
            [
              110.628541667,
              -7.590665
            ],
            [
              110.628541667,
              -7.590658333
            ],
            [
              110.628541667,
              -7.590653333
            ],
            [
              110.628541667,
              -7.59065
            ],
            [
              110.628541667,
              -7.590648333
            ],
            [
              110.628543333,
              -7.590646667
            ],
            [
              110.628545,
              -7.590645
            ],
            [
              110.628545,
              -7.590643333
            ],
            [
              110.628548333,
              -7.59064
            ],
            [
              110.628553333,
              -7.590636667
            ],
            [
              110.628556667,
              -7.590628333
            ],
            [
              110.628561667,
              -7.59062
            ],
            [
              110.628565,
              -7.590613333
            ],
            [
              110.628568333,
              -7.590605
            ],
            [
              110.628566667,
              -7.5906
            ],
            [
              110.628563333,
              -7.590593333
            ],
            [
              110.62856,
              -7.59059
            ],
            [
              110.628553333,
              -7.590586667
            ],
            [
              110.628546667,
              -7.590581667
            ],
            [
              110.628538333,
              -7.590576667
            ],
            [
              110.628531667,
              -7.590573333
            ],
            [
              110.628528333,
              -7.59057
            ],
            [
              110.628523333,
              -7.59057
            ],
            [
              110.628516667,
              -7.590566667
            ],
            [
              110.628511667,
              -7.590563333
            ],
            [
              110.628508333,
              -7.590561667
            ],
            [
              110.628505,
              -7.590565
            ],
            [
              110.628501667,
              -7.590568333
            ],
            [
              110.628498333,
              -7.590575
            ],
            [
              110.628498333,
              -7.590581667
            ],
            [
              110.6285,
              -7.590588333
            ],
            [
              110.628496667,
              -7.590595
            ],
            [
              110.628495,
              -7.590605
            ],
            [
              110.628493333,
              -7.59061
            ],
            [
              110.62849,
              -7.590616667
            ],
            [
              110.628488333,
              -7.59062
            ],
            [
              110.628486667,
              -7.590621667
            ],
            [
              110.628485,
              -7.59062
            ],
            [
              110.628483333,
              -7.59062
            ],
            [
              110.628485,
              -7.59063
            ]
          ]
        ]
      }
    }
  ]
}