{
  "type": "FeatureCollection",
  "features": [
    {
      "type": "Feature",
      "properties": {
        "id": "03",
        "name": "03_Mapan_Kecamatan Tulung_3 Bulan",
        "source_file": "03_Mapan_Kecamatan Tulung_3 Bulan_FEATURE_POINTS.csv"
      },
      "geometry": {
        "type": "Polygon",
        "coordinates": [
          [
            [
              110.627941667,
              -7.59081
            ],
            [
              110.627925,
              -7.590816667
            ],
            [
              110.62792,
              -7.590813333
            ],
            [
              110.627915,
              -7.590813333
            ],
            [
              110.627908333,
              -7.590811667
            ],
            [
              110.627903333,
              -7.59081
            ],
            [
              110.627901667,
              -7.59081
            ],
            [
              110.6279,
              -7.590808333
            ],
            [
              110.627898333,
              -7.590808333
            ],
            [
              110.627896667,
              -7.59081
            ],
            [
              110.627893333,
              -7.590806667
            ],
            [
              110.627891667,
              -7.590806667
            ],
            [
              110.627891667,
              -7.590808333
            ],
            [
              110.627893333,
              -7.590805
            ],
            [
              110.627876667,
              -7.590801667
            ],
            [
              110.627871667,
              -7.590801667
            ],
            [
              110.62787,
              -7.590801667
            ],
            [
              110.627866667,
              -7.590801667
            ],
            [
              110.627863333,
              -7.590798333
            ],
            [
              110.62786,
              -7.590796667
            ],
            [
              110.627856667,
              -7.590795
            ],
            [
              110.627855,
              -7.590793333
            ],
            [
              110.627851667,
              -7.590793333
            ],
            [
              110.627848333,
              -7.590791667
            ],
            [
              110.627843333,
              -7.590791667
            ],
            [
              110.62784,
              -7.59079
            ],
            [
              110.627836667,
              -7.590788333
            ],
            [
              110.627838333,
              -7.590746667
            ],
            [
              110.627843333,
              -7.590741667
            ],
            [
              110.627843333,
              -7.590735
            ],
            [
              110.627843333,
              -7.590731667
            ],
            [
              110.627843333,
              -7.590728333
            ],
            [
              110.627845,
              -7.590723333
            ],
            [
              110.627845,
              -7.59072
            ],
            [
              110.627846667,
              -7.590716667
            ],
            [
              110.627846667,
              -7.590713333
            ],
            [
              110.627848333,
              -7.590708333
            ],
            [
              110.627851667,
              -7.590703333
            ],
            [
              110.627853333,
              -7.5907
            ],
            [
              110.627853333,
              -7.590693333
            ],
            [
              110.627855,
              -7.590686667
            ],
            [
              110.627855,
              -7.590681667
            ],
            [
              110.627855,
              -7.590676667
            ],
            [
              110.627856667,
              -7.590671667
            ],
            [
              110.62786,
              -7.590668333
            ],
            [
              110.627861667,
              -7.590663333
            ],
            [
              110.627863333,
              -7.590658333
            ],
            [
              110.627863333,
              -7.590653333
            ],
            [
              110.627865,
              -7.590646667
            ],
            [
              110.627865,
              -7.59064
            ],
            [
              110.627868333,
              -7.590633333
            ],
            [
              110.627868333,
              -7.590625
            ],
            [
              110.627871667,
              -7.590618333
            ],
            [
              110.627873333,
              -7.590613333
            ],
            [
              110.627875,
              -7.590608333
            ],
            [
              110.627876667,
              -7.590601667
            ],
            [
              110.627878333,
              -7.590596667
            ],
            [
              110.62788,
              -7.59059
            ],
            [
              110.627881667,
              -7.590583333
            ],
            [
              110.62788,
              -7.59058
            ],
            [
              110.627881667,
              -7.590575
            ],
            [
              110.627885,
              -7.590571667
            ],
            [
              110.627885,
              -7.590568333
            ],
            [
              110.627886667,
              -7.590565
            ],
            [
              110.62789,
              -7.590558333
            ],
            [
              110.627891667,
              -7.590551667
            ],
            [
              110.62789,
              -7.590543333
            ],
            [
              110.62789,
              -7.590538333
            ],
            [
              110.627886667,
              -7.59053
            ],
            [
              110.627886667,
              -7.590521667
            ],
            [
              110.627886667,
              -7.590516667
            ],
            [
              110.627886667,
              -7.59051
            ],
            [
              110.627886667,
              -7.590505
            ],
            [
              110.62789,
              -7.590498333
            ],
            [
              110.627891667,
              -7.590491667
            ],
            [
              110.627891667,
              -7.590485
            ],
            [
              110.627893333,
              -7.590478333
            ],
            [
              110.627895,
              -7.590471667
            ],
            [
              110.627896667,
              -7.590463333
            ],
            [
              110.627896667,
              -7.590456667
            ],
            [
              110.627896667,
              -7.590448333
            ],
            [
              110.627898333,
              -7.590441667
            ],
            [
              110.627898333,
              -7.590435
            ],
            [
              110.627901667,
              -7.590428333
            ],
            [
              110.627911667,
              -7.590413333
            ],
            [
              110.627915,
              -7.590408333
            ],
            [
              110.627916667,
              -7.5904
            ],
            [
              110.627925,
              -7.590393333
            ],
            [
              110.62793,
              -7.59039
            ],
            [
              110.627935,
              -7.590386667
            ],
            [
              110.627938333,
              -7.590383333
            ],
            [
              110.627943333,
              -7.590383333
            ],
            [
              110.627948333,
              -7.59038
            ],
            [
              110.627951667,
              -7.59038
            ],
            [
              110.627956667,
              -7.590381667
            ],
            [
              110.627963333,
              -7.590383333
            ],
            [
              110.627966667,
              -7.590388333
            ],
            [
              110.627973333,
              -7.590393333
            ],
            [
              110.627975,
              -7.590396667
            ],
            [
              110.62798,
              -7.5904
            ],
            [
              110.627988333,
              -7.590403333
            ],
            [
              110.627996667,
              -7.590403333
            ],
            [
              110.628003333,
              -7.590405
            ],
            [
              110.62801,
              -7.590405
            ],
            [
              110.628018333,
              -7.590408333
            ],
            [
              110.628025,
              -7.590411667
            ],
            [
              110.628028333,
              -7.590416667
            ],
            [
              110.628033333,
              -7.590421667
            ],
            [
              110.628036667,
              -7.590426667
            ],
            [
              110.628038333,
              -7.590433333
            ],
            [
              110.628038333,
              -7.59044
            ],
            [
              110.628036667,
              -7.590446667
            ],
            [
              110.628036667,
              -7.590453333
            ],
            [
              110.628035,
              -7.590461667
            ],
            [
              110.628033333,
              -7.590468333
            ],
            [
              110.628033333,
              -7.590478333
            ],
            [
              110.628031667,
              -7.590486667
            ],
            [
              110.628026667,
              -7.590493333
            ],
            [
              110.628025,
              -7.590498333
            ],
            [
              110.628023333,
              -7.590505
            ],
            [
              110.628021667,
              -7.59051
            ],
            [
              110.628021667,
              -7.590518333
            ],
            [
              110.62802,
              -7.590525
            ],
            [
              110.628018333,
              -7.59053
            ],
            [
              110.628016667,
              -7.590536667
            ],
            [
              110.628013333,
              -7.590545
            ],
            [
              110.628013333,
              -7.590551667
            ],
            [
              110.62801,
              -7.590558333
            ],
            [
              110.62801,
              -7.590566667
            ],
            [
              110.62801,
              -7.590573333
            ],
            [
              110.62801,
              -7.59058
            ],
            [
              110.62801,
              -7.59059
            ],
            [
              110.628006667,
              -7.590596667
            ],
            [
              110.628005,
              -7.590601667
            ],
            [
              110.628005,
              -7.590608333
            ],
            [
              110.628005,
              -7.590615
            ],
            [
              110.628005,
              -7.590623333
            ],
            [
              110.628003333,
              -7.590631667
            ],
            [
              110.628001667,
              -7.590636667
            ],
            [
              110.627998333,
              -7.590645
            ],
            [
              110.627996667,
              -7.590651667
            ],
            [
              110.627995,
              -7.590658333
            ],
            [
              110.627993333,
              -7.590665
            ],
            [
              110.62799,
              -7.590671667
            ],
            [
              110.627988333,
              -7.590676667
            ],
            [
              110.627985,
              -7.590685
            ],
            [
              110.627983333,
              -7.590695
            ],
            [
              110.62798,
              -7.590701667
            ],
            [
              110.627978333,
              -7.590708333
            ],
            [
              110.627976667,
              -7.590716667
            ],
            [
              110.627976667,
              -7.590725
            ],
            [
              110.627975,
              -7.590733333
            ],
            [
              110.627973333,
              -7.59074
            ],
            [
              110.62797,
              -7.590746667
            ],
            [
              110.627968333,
              -7.590753333
            ],
            [
              110.627968333,
              -7.590761667
            ],
            [
              110.627966667,
              -7.590768333
            ],
            [
              110.627965,
              -7.590775
            ],
            [
              110.627961667,
              -7.590781667
            ],
            [
              110.627963333,
              -7.59079
            ],
            [
              110.627961667,
              -7.590796667
            ],
            [
              110.62796,
              -7.590803333
            ],
            [
              110.627956667,
              -7.59081
            ],
            [
              110.62795,
              -7.590815
            ],
            [
              110.627943333,
              -7.590818333
            ],
            [
              110.627941667,
              -7.590813333
            ],
            [
              110.627938333,
              -7.59081
            ],
            [
              110.627936667,
              -7.59081
            ],
            [
              110.627935,
              -7.59081
            ],
            [
              110.627941667,
              -7.59081
            ]
          ]
        ]
      }
    }
  ]
}