{
  "type": "FeatureCollection",
  "features": [
    {
      "type": "Feature",
      "properties": {
        "id": "04",
        "name": "04_33_Kecamatan Tulung_1 Bulan",
        "source_file": "04_33_Kecamatan Tulung_1 Bulan_FEATURE_POINTS.csv"
      },
      "geometry": {
        "type": "Polygon",
        "coordinates": [
          [
            [
              110.642793333,
              -7.599243333
            ],
            [
              110.642793333,
              -7.599228333
            ],
            [
              110.642796667,
              -7.599223333
            ],
            [
              110.642798333,
              -7.599218333
            ],
            [
              110.642801667,
              -7.599211667
            ],
            [
              110.642806667,
              -7.599205
            ],
            [
              110.642811667,
              -7.599198333
            ],
            [
              110.642816667,
              -7.599191667
            ],
            [
              110.64282,
              -7.599183333
            ],
            [
              110.642825,
              -7.599176667
            ],
            [
              110.642828333,
              -7.59917
            ],
            [
              110.642833333,
              -7.599161667
            ],
            [
              110.642838333,
              -7.599155
            ],
            [
              110.642843333,
              -7.599148333
            ],
            [
              110.642846667,
              -7.599143333
            ],
            [
              110.642851667,
              -7.599138333
            ],
            [
              110.642856667,
              -7.599131667
            ],
            [
              110.64286,
              -7.599125
            ],
            [
              110.642865,
              -7.599121667
            ],
            [
              110.64287,
              -7.599116667
            ],
            [
              110.642873333,
              -7.59911
            ],
            [
              110.642878333,
              -7.599103333
            ],
            [
              110.642883333,
              -7.5991
            ],
            [
              110.642886667,
              -7.599091667
            ],
            [
              110.642891667,
              -7.599083333
            ],
            [
              110.642896667,
              -7.599076667
            ],
            [
              110.642898333,
              -7.59907
            ],
            [
              110.642903333,
              -7.599063333
            ],
            [
              110.642906667,
              -7.599056667
            ],
            [
              110.64291,
              -7.59905
            ],
            [
              110.642913333,
              -7.599041667
            ],
            [
              110.642916667,
              -7.599035
            ],
            [
              110.642921667,
              -7.599028333
            ],
            [
              110.642925,
              -7.59902
            ],
            [
              110.64293,
              -7.599013333
            ],
            [
              110.642933333,
              -7.599008333
            ],
            [
              110.642938333,
              -7.599
            ],
            [
              110.642941667,
              -7.598993333
            ],
            [
              110.642945,
              -7.598985
            ],
            [
              110.642948333,
              -7.59898
            ],
            [
              110.642951667,
              -7.598971667
            ],
            [
              110.642955,
              -7.598966667
            ],
            [
              110.642956667,
              -7.598963333
            ],
            [
              110.642961667,
              -7.59896
            ],
            [
              110.642966667,
              -7.598955
            ],
            [
              110.64297,
              -7.598948333
            ],
            [
              110.642975,
              -7.598941667
            ],
            [
              110.642978333,
              -7.598935
            ],
            [
              110.642981667,
              -7.598928333
            ],
            [
              110.642988333,
              -7.59892
            ],
            [
              110.642991667,
              -7.598913333
            ],
            [
              110.642995,
              -7.598908333
            ],
            [
              110.642998333,
              -7.598901667
            ],
            [
              110.643005,
              -7.598895
            ],
            [
              110.643011667,
              -7.598888333
            ],
            [
              110.643016667,
              -7.598883333
            ],
            [
              110.64302,
              -7.598878333
            ],
            [
              110.643021667,
              -7.598873333
            ],
            [
              110.643025,
              -7.59887
            ],
            [
              110.643028333,
              -7.598865
            ],
            [
              110.643031667,
              -7.598858333
            ],
            [
              110.643036667,
              -7.598851667
            ],
            [
              110.643038333,
              -7.598845
            ],
            [
              110.643041667,
              -7.59884
            ],
            [
              110.643045,
              -7.598833333
            ],
            [
              110.643043333,
              -7.59883
            ],
            [
              110.643043333,
              -7.598828333
            ],
            [
              110.643041667,
              -7.598828333
            ],
            [
              110.64304,
              -7.598828333
            ],
            [
              110.64304,
              -7.598825
            ],
            [
              110.64304,
              -7.598821667
            ],
            [
              110.643035,
              -7.598818333
            ],
            [
              110.643028333,
              -7.598818333
            ],
            [
              110.643021667,
              -7.598815
            ],
            [
              110.643016667,
              -7.598811667
            ],
            [
              110.64301,
              -7.598806667
            ],
            [
              110.643005,
              -7.598801667
            ],
            [
              110.643,
              -7.5988
            ],
            [
              110.642993333,
              -7.598798333
            ],
            [
              110.642988333,
              -7.598795
            ],
            [
              110.642981667,
              -7.598791667
            ],
            [
              110.642976667,
              -7.598788333
            ],
            [
              110.64297,
              -7.598783333
            ],
            [
              110.642968333,
              -7.59878
            ],
            [
              110.642968333,
              -7.598776667
            ],
            [
              110.642968333,
              -7.598775
            ],
            [
              110.642973333,
              -7.598768333
            ],
            [
              110.642978333,
              -7.598763333
            ],
            [
              110.642981667,
              -7.598756667
            ],
            [
              110.642985,
              -7.598751667
            ],
            [
              110.64299,
              -7.598743333
            ],
            [
              110.642993333,
              -7.598735
            ],
            [
              110.642996667,
              -7.598725
            ],
            [
              110.643,
              -7.598718333
            ],
            [
              110.643005,
              -7.59871
            ],
            [
              110.64301,
              -7.598703333
            ],
            [
              110.643013333,
              -7.598695
            ],
            [
              110.643015,
              -7.598686667
            ],
            [
              110.643021667,
              -7.59868
            ],
            [
              110.643025,
              -7.598673333
            ],
            [
              110.643028333,
              -7.598666667
            ],
            [
              110.643033333,
              -7.598658333
            ],
            [
              110.64304,
              -7.598651667
            ],
            [
              110.643045,
              -7.598645
            ],
            [
              110.643046667,
              -7.598638333
            ],
            [
              110.643045,
              -7.598635
            ],
            [
              110.643043333,
              -7.598633333
            ],
            [
              110.643043333,
              -7.598631667
            ],
            [
              110.643038333,
              -7.598626667
            ],
            [
              110.643033333,
              -7.598623333
            ],
            [
              110.643025,
              -7.598616667
            ],
            [
              110.643018333,
              -7.598611667
            ],
            [
              110.643011667,
              -7.598606667
            ],
            [
              110.643006667,
              -7.5986
            ],
            [
              110.643001667,
              -7.598593333
            ],
            [
              110.642996667,
              -7.598588333
            ],
            [
              110.64299,
              -7.598581667
            ],
            [
              110.642981667,
              -7.598576667
            ],
            [
              110.64298,
              -7.598578333
            ],
            [
              110.642976667,
              -7.598581667
            ],
            [
              110.642975,
              -7.598586667
            ],
            [
              110.642971667,
              -7.598591667
            ],
            [
              110.64297,
              -7.598598333
            ],
            [
              110.642965,
              -7.598603333
            ],
            [
              110.642963333,
              -7.598605
            ],
            [
              110.642963333,
              -7.598608333
            ],
            [
              110.64296,
              -7.598615
            ],
            [
              110.642955,
              -7.598623333
            ],
            [
              110.642948333,
              -7.59863
            ],
            [
              110.642943333,
              -7.598635
            ],
            [
              110.64294,
              -7.598641667
            ],
            [
              110.642936667,
              -7.598648333
            ],
            [
              110.642931667,
              -7.598655
            ],
            [
              110.642925,
              -7.598663333
            ],
            [
              110.642918333,
              -7.598671667
            ],
            [
              110.642916667,
              -7.598678333
            ],
            [
              110.642913333,
              -7.598683333
            ],
            [
              110.64291,
              -7.598688333
            ],
            [
              110.642903333,
              -7.598696667
            ],
            [
              110.6429,
              -7.598703333
            ],
            [
              110.642896667,
              -7.59871
            ],
            [
              110.642893333,
              -7.598713333
            ],
            [
              110.642886667,
              -7.598721667
            ],
            [
              110.642881667,
              -7.59873
            ],
            [
              110.64288,
              -7.598736667
            ],
            [
              110.642876667,
              -7.598743333
            ],
            [
              110.642871667,
              -7.598746667
            ],
            [
              110.642865,
              -7.598751667
            ],
            [
              110.64286,
              -7.598758333
            ],
            [
              110.642853333,
              -7.598765
            ],
            [
              110.642846667,
              -7.598775
            ],
            [
              110.642836667,
              -7.59878
            ],
            [
              110.642833333,
              -7.59878
            ],
            [
              110.642831667,
              -7.598781667
            ],
            [
              110.642831667,
              -7.598783333
            ],
            [
              110.64283,
              -7.598785
            ],
            [
              110.642831667,
              -7.598791667
            ],
            [
              110.642831667,
              -7.598796667
            ],
            [
              110.64283,
              -7.5988
            ],
            [
              110.642828333,
              -7.598803333
            ],
            [
              110.642825,
              -7.598808333
            ],
            [
              110.642821667,
              -7.598813333
            ],
            [
              110.642818333,
              -7.59882
            ],
            [
              110.642815,
              -7.598825
            ],
            [
              110.642813333,
              -7.598831667
            ],
            [
              110.642808333,
              -7.598838333
            ],
            [
              110.642805,
              -7.598843333
            ],
            [
              110.642803333,
              -7.598846667
            ],
            [
              110.642801667,
              -7.598848333
            ],
            [
              110.642801667,
              -7.59885
            ],
            [
              110.642805,
              -7.598853333
            ],
            [
              110.642805,
              -7.598856667
            ],
            [
              110.642806667,
              -7.598858333
            ],
            [
              110.642808333,
              -7.598858333
            ],
            [
              110.64279,
              -7.598875
            ],
            [
              110.642786667,
              -7.598881667
            ],
            [
              110.642788333,
              -7.598886667
            ],
            [
              110.642786667,
              -7.59889
            ],
            [
              110.642785,
              -7.598895
            ],
            [
              110.642781667,
              -7.598903333
            ],
            [
              110.642778333,
              -7.598908333
            ],
            [
              110.642775,
              -7.598915
            ],
            [
              110.64277,
              -7.598921667
            ],
            [
              110.64276,
              -7.59893
            ],
            [
              110.642753333,
              -7.598936667
            ],
            [
              110.642746667,
              -7.598941667
            ],
            [
              110.642741667,
              -7.598948333
            ],
            [
              110.64274,
              -7.598953333
            ],
            [
              110.642736667,
              -7.59896
            ],
            [
              110.642733333,
              -7.598968333
            ],
            [
              110.64273,
              -7.598975
            ],
            [
              110.642726667,
              -7.59898
            ],
            [
              110.642721667,
              -7.598986667
            ],
            [
              110.642718333,
              -7.598995
            ],
            [
              110.642716667,
              -7.598998333
            ],
            [
              110.642711667,
              -7.599003333
            ],
            [
              110.64271,
              -7.599011667
            ],
            [
              110.642708333,
              -7.599018333
            ],
            [
              110.642705,
              -7.599025
            ],
            [
              110.642703333,
              -7.59903
            ],
            [
              110.6427,
              -7.599036667
            ],
            [
              110.642696667,
              -7.599036667
            ],
            [
              110.642698333,
              -7.599038333
            ],
            [
              110.642698333,
              -7.599041667
            ],
            [
              110.642696667,
              -7.599045
            ],
            [
              110.642695,
              -7.59905
            ],
            [
              110.642693333,
              -7.599053333
            ],
            [
              110.64269,
              -7.59906
            ],
            [
              110.642686667,
              -7.599065
            ],
            [
              110.64268,
              -7.599073333
            ],
            [
              110.642673333,
              -7.599078333
            ],
            [
              110.64267,
              -7.599085
            ],
            [
              110.642668333,
              -7.599088333
            ],
            [
              110.642666667,
              -7.59909
            ],
            [
              110.642663333,
              -7.599091667
            ],
            [
              110.642656667,
              -7.599098333
            ],
            [
              110.642651667,
              -7.599106667
            ],
            [
              110.642641667,
              -7.599116667
            ],
            [
              110.642633333,
              -7.599126667
            ],
            [
              110.64263,
              -7.599136667
            ],
            [
              110.642628333,
              -7.599141667
            ],
            [
              110.642635,
              -7.599143333
            ],
            [
              110.642641667,
              -7.599148333
            ],
            [
              110.64265,
              -7.599153333
            ],
            [
              110.642658333,
              -7.599158333
            ],
            [
              110.642665,
              -7.599165
            ],
            [
              110.642668333,
              -7.59917
            ],
            [
              110.642676667,
              -7.599171667
            ],
            [
              110.642685,
              -7.599173333
            ],
            [
              110.64269,
              -7.599176667
            ],
            [
              110.642693333,
              -7.599178333
            ],
            [
              110.6427,
              -7.599183333
            ],
            [
              110.642706667,
              -7.599188333
            ],
            [
              110.642711667,
              -7.599193333
            ],
            [
              110.642718333,
              -7.599196667
            ],
            [
              110.642728333,
              -7.599201667
            ],
            [
              110.642735,
              -7.599206667
            ],
            [
              110.642743333,
              -7.599211667
            ],
            [
              110.64275,
              -7.599216667
            ],
            [
              110.64276,
              -7.599225
            ],
            [
              110.642771667,
              -7.59923
            ],
            [
              110.64278,
              -7.599235
            ],
            [
              110.642783333,
              -7.599236667
            ],
            [
              110.642781667,
              -7.599238333
            ],
            [
              110.642778333,
              -7.599238333
            ],
            [
              110.64278,
              -7.59924
            ],
            [
              110.642781667,
              -7.59924
            ],
            [
              110.642781667,
              -7.599238333
            ],
            [
              110.642793333,
              -7.599243333
            ]
          ]
        ]
      }
    }
  ]
}