{
  "type": "FeatureCollection",
  "features": [
    {
      "type": "Feature",
      "properties": {
        "id": "05",
        "name": "05_Rojolele Srinuk_KecDelanggu_1 Bulan 2 Minggu",
        "source_file": "05_Rojolele Srinuk_KecDelanggu_1 Bulan 2 Minggu_FEATURE_POINTS.csv"
      },
      "geometry": {
        "type": "Polygon",
        "coordinates": [
          [
            [
              110.686711667,
              -7.610215
            ],
            [
              110.686713333,
              -7.610215
            ],
            [
              110.686715,
              -7.610215
            ],
            [
              110.686705,
              -7.610233333
            ],
            [
              110.6867,
              -7.610238333
            ],
            [
              110.686698333,
              -7.610245
            ],
            [
              110.686696667,
              -7.61025
            ],
            [
              110.686693333,
              -7.610253333
            ],
            [
              110.68669,
              -7.610258333
            ],
            [
              110.686686667,
              -7.61026
            ],
            [
              110.686683333,
              -7.610265
            ],
            [
              110.68668,
              -7.610268333
            ],
            [
              110.686675,
              -7.610273333
            ],
            [
              110.686671667,
              -7.61028
            ],
            [
              110.686665,
              -7.610283333
            ],
            [
              110.686661667,
              -7.610285
            ],
            [
              110.68666,
              -7.610286667
            ],
            [
              110.686656667,
              -7.61029
            ],
            [
              110.686653333,
              -7.610293333
            ],
            [
              110.68665,
              -7.610298333
            ],
            [
              110.686646667,
              -7.610301667
            ],
            [
              110.686641667,
              -7.610306667
            ],
            [
              110.686636667,
              -7.610313333
            ],
            [
              110.686633333,
              -7.610318333
            ],
            [
              110.686628333,
              -7.610321667
            ],
            [
              110.686625,
              -7.610325
            ],
            [
              110.686621667,
              -7.610331667
            ],
            [
              110.686615,
              -7.610338333
            ],
            [
              110.68661,
              -7.610343333
            ],
            [
              110.686605,
              -7.610348333
            ],
            [
              110.686601667,
              -7.610353333
            ],
            [
              110.686601667,
              -7.610355
            ],
            [
              110.686605,
              -7.610356667
            ],
            [
              110.686608333,
              -7.61036
            ],
            [
              110.686611667,
              -7.61036
            ],
            [
              110.686616667,
              -7.61036
            ],
            [
              110.68662,
              -7.610363333
            ],
            [
              110.686625,
              -7.610366667
            ],
            [
              110.68663,
              -7.610371667
            ],
            [
              110.686636667,
              -7.610375
            ],
            [
              110.686643333,
              -7.610381667
            ],
            [
              110.68665,
              -7.610385
            ],
            [
              110.686656667,
              -7.610388333
            ],
            [
              110.686663333,
              -7.610393333
            ],
            [
              110.686668333,
              -7.610395
            ],
            [
              110.686675,
              -7.610398333
            ],
            [
              110.686681667,
              -7.610401667
            ],
            [
              110.686688333,
              -7.610405
            ],
            [
              110.686695,
              -7.610408333
            ],
            [
              110.686705,
              -7.610413333
            ],
            [
              110.686711667,
              -7.610416667
            ],
            [
              110.68672,
              -7.610418333
            ],
            [
              110.686728333,
              -7.610421667
            ],
            [
              110.686735,
              -7.610425
            ],
            [
              110.68674,
              -7.610426667
            ],
            [
              110.686745,
              -7.610423333
            ],
            [
              110.68675,
              -7.61042
            ],
            [
              110.686755,
              -7.610416667
            ],
            [
              110.686761667,
              -7.610411667
            ],
            [
              110.686768333,
              -7.610406667
            ],
            [
              110.686775,
              -7.6104
            ],
            [
              110.686778333,
              -7.610393333
            ],
            [
              110.686786667,
              -7.610386667
            ],
            [
              110.686793333,
              -7.61038
            ],
            [
              110.6868,
              -7.610373333
            ],
            [
              110.686803333,
              -7.610366667
            ],
            [
              110.686808333,
              -7.61036
            ],
            [
              110.686813333,
              -7.610353333
            ],
            [
              110.686821667,
              -7.610346667
            ],
            [
              110.68683,
              -7.610341667
            ],
            [
              110.686835,
              -7.610335
            ],
            [
              110.686841667,
              -7.610328333
            ],
            [
              110.686846667,
              -7.610323333
            ],
            [
              110.686851667,
              -7.610316667
            ],
            [
              110.686855,
              -7.610311667
            ],
            [
              110.686858333,
              -7.610306667
            ],
            [
              110.686865,
              -7.610303333
            ],
            [
              110.686868333,
              -7.610295
            ],
            [
              110.686866667,
              -7.61029
            ],
            [
              110.686861667,
              -7.610288333
            ],
            [
              110.686856667,
              -7.610286667
            ],
            [
              110.686853333,
              -7.610285
            ],
            [
              110.686846667,
              -7.610286667
            ],
            [
              110.686843333,
              -7.610283333
            ],
            [
              110.686836667,
              -7.610283333
            ],
            [
              110.686835,
              -7.610283333
            ],
            [
              110.686828333,
              -7.61028
            ],
            [
              110.686821667,
              -7.610276667
            ],
            [
              110.686821667,
              -7.610273333
            ],
            [
              110.68682,
              -7.610271667
            ],
            [
              110.686818333,
              -7.610266667
            ],
            [
              110.686813333,
              -7.610261667
            ],
            [
              110.68681,
              -7.610258333
            ],
            [
              110.686805,
              -7.610255
            ],
            [
              110.6868,
              -7.610248333
            ],
            [
              110.686791667,
              -7.610245
            ],
            [
              110.68678,
              -7.610241667
            ],
            [
              110.68677,
              -7.61024
            ],
            [
              110.68676,
              -7.610238333
            ],
            [
              110.686753333,
              -7.610238333
            ],
            [
              110.686745,
              -7.610236667
            ],
            [
              110.686738333,
              -7.610231667
            ],
            [
              110.686731667,
              -7.61023
            ],
            [
              110.686725,
              -7.61023
            ],
            [
              110.686718333,
              -7.610226667
            ],
            [
              110.686716667,
              -7.610225
            ],
            [
              110.686716667,
              -7.610223333
            ],
            [
              110.686716667,
              -7.61022
            ],
            [
              110.686718333,
              -7.61022
            ],
            [
              110.686718333,
              -7.610218333
            ],
            [
              110.686716667,
              -7.610216667
            ],
            [
              110.686718333,
              -7.610218333
            ],
            [
              110.686711667,
              -7.610215
            ]
          ]
        ]
      }
    }
  ]
}