{
  "type": "FeatureCollection",
  "features": [
    {
      "type": "Feature",
      "properties": {
        "id": "06",
        "name": "06_Inpari_KecDelanggu_3,5 Bulan",
        "source_file": "06_Inpari_KecDelanggu_3,5 Bulan_FEATURE_POINTS.csv"
      },
      "geometry": {
        "type": "Polygon",
        "coordinates": [
          [
            [
              110.687468333,
              -7.610541667
            ],
            [
              110.68747,
              -7.610541667
            ],
            [
              110.687468333,
              -7.610541667
            ],
            [
              110.68747,
              -7.610545
            ],
            [
              110.687468333,
              -7.610545
            ],
            [
              110.68747,
              -7.610546667
            ],
            [
              110.687475,
              -7.610548333
            ],
            [
              110.687478333,
              -7.610548333
            ],
            [
              110.68748,
              -7.610546667
            ],
            [
              110.687481667,
              -7.610545
            ],
            [
              110.687486667,
              -7.610543333
            ],
            [
              110.68749,
              -7.610541667
            ],
            [
              110.687493333,
              -7.61054
            ],
            [
              110.687498333,
              -7.610536667
            ],
            [
              110.687503333,
              -7.610533333
            ],
            [
              110.687508333,
              -7.61053
            ],
            [
              110.687511667,
              -7.610528333
            ],
            [
              110.687516667,
              -7.610525
            ],
            [
              110.687521667,
              -7.610523333
            ],
            [
              110.687525,
              -7.61052
            ],
            [
              110.687528333,
              -7.610516667
            ],
            [
              110.68753,
              -7.610513333
            ],
            [
              110.687533333,
              -7.610511667
            ],
            [
              110.687536667,
              -7.610508333
            ],
            [
              110.687538333,
              -7.610505
            ],
            [
              110.687541667,
              -7.610501667
            ],
            [
              110.687545,
              -7.610496667
            ],
            [
              110.687548333,
              -7.610491667
            ],
            [
              110.687553333,
              -7.610488333
            ],
            [
              110.687558333,
              -7.610483333
            ],
            [
              110.687561667,
              -7.61048
            ],
            [
              110.687566667,
              -7.610476667
            ],
            [
              110.687571667,
              -7.610471667
            ],
            [
              110.687576667,
              -7.610465
            ],
            [
              110.687583333,
              -7.610458333
            ],
            [
              110.687588333,
              -7.610453333
            ],
            [
              110.687593333,
              -7.610448333
            ],
            [
              110.687596667,
              -7.610445
            ],
            [
              110.6876,
              -7.610441667
            ],
            [
              110.687605,
              -7.610436667
            ],
            [
              110.687608333,
              -7.610431667
            ],
            [
              110.687611667,
              -7.610426667
            ],
            [
              110.687615,
              -7.61042
            ],
            [
              110.68762,
              -7.610416667
            ],
            [
              110.687625,
              -7.61041
            ],
            [
              110.68763,
              -7.610403333
            ],
            [
              110.687635,
              -7.610396667
            ],
            [
              110.68764,
              -7.61039
            ],
            [
              110.687645,
              -7.610383333
            ],
            [
              110.68765,
              -7.610376667
            ],
            [
              110.687656667,
              -7.610373333
            ],
            [
              110.687661667,
              -7.610366667
            ],
            [
              110.687668333,
              -7.610363333
            ],
            [
              110.687671667,
              -7.610356667
            ],
            [
              110.687676667,
              -7.610353333
            ],
            [
              110.687683333,
              -7.610346667
            ],
            [
              110.68769,
              -7.610343333
            ],
            [
              110.687695,
              -7.610338333
            ],
            [
              110.687701667,
              -7.610333333
            ],
            [
              110.687706667,
              -7.61033
            ],
            [
              110.687711667,
              -7.610325
            ],
            [
              110.687716667,
              -7.61032
            ],
            [
              110.687716667,
              -7.610313333
            ],
            [
              110.68772,
              -7.610308333
            ],
            [
              110.687728333,
              -7.610306667
            ],
            [
              110.687731667,
              -7.6103
            ],
            [
              110.687738333,
              -7.610293333
            ],
            [
              110.687746667,
              -7.610285
            ],
            [
              110.687751667,
              -7.61028
            ],
            [
              110.687761667,
              -7.610273333
            ],
            [
              110.687768333,
              -7.610266667
            ],
            [
              110.687771667,
              -7.610258333
            ],
            [
              110.687776667,
              -7.610255
            ],
            [
              110.687781667,
              -7.610246667
            ],
            [
              110.687788333,
              -7.610241667
            ],
            [
              110.687791667,
              -7.610238333
            ],
            [
              110.687795,
              -7.610233333
            ],
            [
              110.687801667,
              -7.610226667
            ],
            [
              110.687808333,
              -7.610223333
            ],
            [
              110.687815,
              -7.610216667
            ],
            [
              110.687821667,
              -7.610211667
            ],
            [
              110.687825,
              -7.610205
            ],
            [
              110.687831667,
              -7.610201667
            ],
            [
              110.687835,
              -7.610196667
            ],
            [
              110.687836667,
              -7.61019
            ],
            [
              110.68784,
              -7.610186667
            ],
            [
              110.687841667,
              -7.610183333
            ],
            [
              110.687841667,
              -7.61018
            ],
            [
              110.687841667,
              -7.610178333
            ],
            [
              110.68784,
              -7.610178333
            ],
            [
              110.687836667,
              -7.610176667
            ],
            [
              110.687831667,
              -7.610176667
            ],
            [
              110.687826667,
              -7.610175
            ],
            [
              110.687821667,
              -7.610173333
            ],
            [
              110.687818333,
              -7.61017
            ],
            [
              110.687816667,
              -7.610168333
            ],
            [
              110.687815,
              -7.610168333
            ],
            [
              110.6878,
              -7.610158333
            ],
            [
              110.687796667,
              -7.610156667
            ],
            [
              110.687793333,
              -7.610155
            ],
            [
              110.687788333,
              -7.610151667
            ],
            [
              110.687783333,
              -7.610148333
            ],
            [
              110.687778333,
              -7.610148333
            ],
            [
              110.687773333,
              -7.610143333
            ],
            [
              110.687766667,
              -7.610141667
            ],
            [
              110.68776,
              -7.61014
            ],
            [
              110.687756667,
              -7.610138333
            ],
            [
              110.68775,
              -7.610133333
            ],
            [
              110.687745,
              -7.610128333
            ],
            [
              110.68774,
              -7.610125
            ],
            [
              110.687735,
              -7.610121667
            ],
            [
              110.687728333,
              -7.61012
            ],
            [
              110.687725,
              -7.61012
            ],
            [
              110.68772,
              -7.610121667
            ],
            [
              110.687715,
              -7.610121667
            ],
            [
              110.687711667,
              -7.61012
            ],
            [
              110.687708333,
              -7.610116667
            ],
            [
              110.687705,
              -7.610118333
            ],
            [
              110.6877,
              -7.610118333
            ],
            [
              110.687696667,
              -7.610118333
            ],
            [
              110.687693333,
              -7.610116667
            ],
            [
              110.687685,
              -7.610115
            ],
            [
              110.687678333,
              -7.610111667
            ],
            [
              110.687676667,
              -7.61011
            ],
            [
              110.687673333,
              -7.610111667
            ],
            [
              110.68767,
              -7.610115
            ],
            [
              110.687666667,
              -7.610118333
            ],
            [
              110.687663333,
              -7.610118333
            ],
            [
              110.68766,
              -7.610123333
            ],
            [
              110.687653333,
              -7.610128333
            ],
            [
              110.687646667,
              -7.610131667
            ],
            [
              110.687641667,
              -7.610133333
            ],
            [
              110.687636667,
              -7.610138333
            ],
            [
              110.687631667,
              -7.610141667
            ],
            [
              110.687626667,
              -7.610148333
            ],
            [
              110.687621667,
              -7.610153333
            ],
            [
              110.687616667,
              -7.610158333
            ],
            [
              110.687611667,
              -7.610161667
            ],
            [
              110.687608333,
              -7.61017
            ],
            [
              110.687601667,
              -7.610173333
            ],
            [
              110.687598333,
              -7.610178333
            ],
            [
              110.687593333,
              -7.610183333
            ],
            [
              110.68759,
              -7.610188333
            ],
            [
              110.687585,
              -7.610191667
            ],
            [
              110.687578333,
              -7.610195
            ],
            [
              110.687575,
              -7.610201667
            ],
            [
              110.68757,
              -7.610208333
            ],
            [
              110.687565,
              -7.610213333
            ],
            [
              110.68756,
              -7.610216667
            ],
            [
              110.687553333,
              -7.610221667
            ],
            [
              110.687548333,
              -7.610226667
            ],
            [
              110.687543333,
              -7.61023
            ],
            [
              110.687538333,
              -7.610235
            ],
            [
              110.687533333,
              -7.61024
            ],
            [
              110.687528333,
              -7.610245
            ],
            [
              110.687523333,
              -7.610251667
            ],
            [
              110.687516667,
              -7.610255
            ],
            [
              110.687511667,
              -7.61026
            ],
            [
              110.687505,
              -7.610266667
            ],
            [
              110.6875,
              -7.610271667
            ],
            [
              110.687493333,
              -7.610278333
            ],
            [
              110.687488333,
              -7.610283333
            ],
            [
              110.687483333,
              -7.61029
            ],
            [
              110.687478333,
              -7.610296667
            ],
            [
              110.687473333,
              -7.610301667
            ],
            [
              110.687466667,
              -7.610308333
            ],
            [
              110.687461667,
              -7.610313333
            ],
            [
              110.687456667,
              -7.61032
            ],
            [
              110.687451667,
              -7.610325
            ],
            [
              110.687446667,
              -7.610331667
            ],
            [
              110.687443333,
              -7.610336667
            ],
            [
              110.687438333,
              -7.610341667
            ],
            [
              110.687435,
              -7.610348333
            ],
            [
              110.687431667,
              -7.610353333
            ],
            [
              110.687426667,
              -7.610358333
            ],
            [
              110.687421667,
              -7.610365
            ],
            [
              110.687416667,
              -7.610371667
            ],
            [
              110.68741,
              -7.610376667
            ],
            [
              110.687401667,
              -7.610383333
            ],
            [
              110.687395,
              -7.61039
            ],
            [
              110.687388333,
              -7.610396667
            ],
            [
              110.687383333,
              -7.610403333
            ],
            [
              110.687378333,
              -7.61041
            ],
            [
              110.687373333,
              -7.610415
            ],
            [
              110.687368333,
              -7.61042
            ],
            [
              110.687361667,
              -7.610425
            ],
            [
              110.687355,
              -7.61043
            ],
            [
              110.687348333,
              -7.610435
            ],
            [
              110.687341667,
              -7.610441667
            ],
            [
              110.687336667,
              -7.610446667
            ],
            [
              110.687331667,
              -7.610453333
            ],
            [
              110.687323333,
              -7.61046
            ],
            [
              110.687318333,
              -7.610465
            ],
            [
              110.68731,
              -7.61047
            ],
            [
              110.687308333,
              -7.610476667
            ],
            [
              110.687303333,
              -7.61048
            ],
            [
              110.687303333,
              -7.610485
            ],
            [
              110.687306667,
              -7.61049
            ],
            [
              110.687313333,
              -7.610493333
            ],
            [
              110.687321667,
              -7.610495
            ],
            [
              110.687328333,
              -7.610498333
            ],
            [
              110.687335,
              -7.610501667
            ],
            [
              110.687341667,
              -7.610503333
            ],
            [
              110.687348333,
              -7.610505
            ],
            [
              110.687356667,
              -7.610506667
            ],
            [
              110.687366667,
              -7.610513333
            ],
            [
              110.687373333,
              -7.610518333
            ],
            [
              110.68738,
              -7.61052
            ],
            [
              110.687385,
              -7.610523333
            ],
            [
              110.687393333,
              -7.610526667
            ],
            [
              110.687398333,
              -7.61053
            ],
            [
              110.687403333,
              -7.610531667
            ],
            [
              110.687411667,
              -7.610533333
            ],
            [
              110.687418333,
              -7.61054
            ],
            [
              110.687426667,
              -7.610543333
            ],
            [
              110.687433333,
              -7.610545
            ],
            [
              110.687438333,
              -7.610545
            ],
            [
              110.687443333,
              -7.610546667
            ],
            [
              110.687448333,
              -7.61055
            ],
            [
              110.687453333,
              -7.61055
            ],
            [
              110.687458333,
              -7.610551667
            ],
            [
              110.687466667,
              -7.610553333
            ],
            [
              110.687475,
              -7.610553333
            ],
            [
              110.68748,
              -7.610553333
            ],
            [
              110.68748,
              -7.610555
            ],
            [
              110.687481667,
              -7.610556667
            ],
            [
              110.687481667,
              -7.610558333
            ],
            [
              110.687481667,
              -7.61056
            ],
            [
              110.687481667,
              -7.610561667
            ],
            [
              110.687481667,
              -7.610565
            ],
            [
              110.687468333,
              -7.610541667
            ]
          ]
        ]
      }
    }
  ]
}