{
  "type": "FeatureCollection",
  "features": [
    {
      "type": "Feature",
      "properties": {
        "id": "07",
        "name": "07_Membramo_KecDelanggu_3 Bulan",
        "source_file": "07_Membramo_KecDelanggu_3 Bulan_FEATURE_POINTS.csv"
      },
      "geometry": {
        "type": "Polygon",
        "coordinates": [
          [
            [
              110.687463333,
              -7.610581667
            ],
            [
              110.687463333,
              -7.610583333
            ],
            [
              110.687533333,
              -7.610625
            ],
            [
              110.687535,
              -7.610623333
            ],
            [
              110.687536667,
              -7.610623333
            ],
            [
              110.687536667,
              -7.610621667
            ],
            [
              110.687535,
              -7.610628333
            ],
            [
              110.68754,
              -7.61063
            ],
            [
              110.687543333,
              -7.610631667
            ],
            [
              110.68755,
              -7.610633333
            ],
            [
              110.68761,
              -7.610693333
            ],
            [
              110.687603333,
              -7.610698333
            ],
            [
              110.687596667,
              -7.610703333
            ],
            [
              110.687591667,
              -7.610708333
            ],
            [
              110.687585,
              -7.610715
            ],
            [
              110.68758,
              -7.610721667
            ],
            [
              110.687573333,
              -7.610726667
            ],
            [
              110.687568333,
              -7.610731667
            ],
            [
              110.687565,
              -7.610738333
            ],
            [
              110.68756,
              -7.610743333
            ],
            [
              110.687553333,
              -7.610746667
            ],
            [
              110.687548333,
              -7.610753333
            ],
            [
              110.68754,
              -7.61076
            ],
            [
              110.687533333,
              -7.610766667
            ],
            [
              110.687526667,
              -7.610771667
            ],
            [
              110.68752,
              -7.610778333
            ],
            [
              110.687513333,
              -7.610783333
            ],
            [
              110.687506667,
              -7.610788333
            ],
            [
              110.6875,
              -7.610793333
            ],
            [
              110.687493333,
              -7.6108
            ],
            [
              110.687486667,
              -7.610805
            ],
            [
              110.68748,
              -7.610811667
            ],
            [
              110.687476667,
              -7.610816667
            ],
            [
              110.687471667,
              -7.610821667
            ],
            [
              110.687466667,
              -7.610828333
            ],
            [
              110.687461667,
              -7.610835
            ],
            [
              110.687456667,
              -7.610841667
            ],
            [
              110.687453333,
              -7.610846667
            ],
            [
              110.687448333,
              -7.610851667
            ],
            [
              110.687446667,
              -7.610856667
            ],
            [
              110.687443333,
              -7.61086
            ],
            [
              110.68744,
              -7.610863333
            ],
            [
              110.687436667,
              -7.610866667
            ],
            [
              110.687433333,
              -7.610873333
            ],
            [
              110.687426667,
              -7.610878333
            ],
            [
              110.687421667,
              -7.610885
            ],
            [
              110.687416667,
              -7.61089
            ],
            [
              110.687415,
              -7.610893333
            ],
            [
              110.687413333,
              -7.610896667
            ],
            [
              110.687411667,
              -7.6109
            ],
            [
              110.68741,
              -7.610901667
            ],
            [
              110.687405,
              -7.610905
            ],
            [
              110.687398333,
              -7.610911667
            ],
            [
              110.687393333,
              -7.610918333
            ],
            [
              110.687388333,
              -7.61092
            ],
            [
              110.687385,
              -7.610921667
            ],
            [
              110.687381667,
              -7.610923333
            ],
            [
              110.687378333,
              -7.610925
            ],
            [
              110.687373333,
              -7.610923333
            ],
            [
              110.687366667,
              -7.61092
            ],
            [
              110.687358333,
              -7.610916667
            ],
            [
              110.687351667,
              -7.610913333
            ],
            [
              110.687343333,
              -7.610908333
            ],
            [
              110.687336667,
              -7.610903333
            ],
            [
              110.68733,
              -7.610898333
            ],
            [
              110.687321667,
              -7.610891667
            ],
            [
              110.687315,
              -7.610886667
            ],
            [
              110.68731,
              -7.610881667
            ],
            [
              110.687306667,
              -7.610878333
            ],
            [
              110.687301667,
              -7.610875
            ],
            [
              110.687298333,
              -7.610871667
            ],
            [
              110.687293333,
              -7.610868333
            ],
            [
              110.687288333,
              -7.610861667
            ],
            [
              110.687281667,
              -7.610856667
            ],
            [
              110.687273333,
              -7.61085
            ],
            [
              110.687265,
              -7.610843333
            ],
            [
              110.687258333,
              -7.610841667
            ],
            [
              110.687251667,
              -7.610838333
            ],
            [
              110.68725,
              -7.610838333
            ],
            [
              110.687245,
              -7.610835
            ],
            [
              110.68724,
              -7.610828333
            ],
            [
              110.687236667,
              -7.610823333
            ],
            [
              110.687233333,
              -7.610818333
            ],
            [
              110.68723,
              -7.610815
            ],
            [
              110.687226667,
              -7.610816667
            ],
            [
              110.687225,
              -7.610821667
            ],
            [
              110.687218333,
              -7.61083
            ],
            [
              110.687213333,
              -7.610836667
            ],
            [
              110.687208333,
              -7.610845
            ],
            [
              110.687201667,
              -7.610851667
            ],
            [
              110.687195,
              -7.61086
            ],
            [
              110.68719,
              -7.610865
            ],
            [
              110.687188333,
              -7.610868333
            ],
            [
              110.687186667,
              -7.610868333
            ],
            [
              110.687188333,
              -7.610865
            ],
            [
              110.687186667,
              -7.610861667
            ],
            [
              110.687185,
              -7.610856667
            ],
            [
              110.687183333,
              -7.610853333
            ],
            [
              110.687178333,
              -7.610848333
            ],
            [
              110.687171667,
              -7.610845
            ],
            [
              110.687168333,
              -7.610843333
            ],
            [
              110.687166667,
              -7.610841667
            ],
            [
              110.687163333,
              -7.610838333
            ],
            [
              110.687156667,
              -7.610835
            ],
            [
              110.68715,
              -7.610831667
            ],
            [
              110.687146667,
              -7.610826667
            ],
            [
              110.687141667,
              -7.610823333
            ],
            [
              110.687138333,
              -7.610821667
            ],
            [
              110.687138333,
              -7.61082
            ],
            [
              110.687135,
              -7.610815
            ],
            [
              110.68713,
              -7.610811667
            ],
            [
              110.68712,
              -7.610806667
            ],
            [
              110.687113333,
              -7.610803333
            ],
            [
              110.687106667,
              -7.610796667
            ],
            [
              110.6871,
              -7.61079
            ],
            [
              110.687095,
              -7.610783333
            ],
            [
              110.687088333,
              -7.610778333
            ],
            [
              110.687083333,
              -7.610773333
            ],
            [
              110.687078333,
              -7.610768333
            ],
            [
              110.687071667,
              -7.610763333
            ],
            [
              110.687066667,
              -7.610758333
            ],
            [
              110.687063333,
              -7.610755
            ],
            [
              110.68706,
              -7.61075
            ],
            [
              110.687056667,
              -7.610745
            ],
            [
              110.687053333,
              -7.61074
            ],
            [
              110.68705,
              -7.610733333
            ],
            [
              110.687046667,
              -7.61073
            ],
            [
              110.687048333,
              -7.610728333
            ],
            [
              110.687051667,
              -7.610723333
            ],
            [
              110.687055,
              -7.610721667
            ],
            [
              110.687058333,
              -7.610716667
            ],
            [
              110.687065,
              -7.610715
            ],
            [
              110.68707,
              -7.610708333
            ],
            [
              110.687073333,
              -7.610703333
            ],
            [
              110.687076667,
              -7.6107
            ],
            [
              110.68708,
              -7.610695
            ],
            [
              110.687085,
              -7.61069
            ],
            [
              110.687091667,
              -7.610685
            ],
            [
              110.687096667,
              -7.61068
            ],
            [
              110.6871,
              -7.610675
            ],
            [
              110.687105,
              -7.61067
            ],
            [
              110.687108333,
              -7.610665
            ],
            [
              110.687113333,
              -7.61066
            ],
            [
              110.68712,
              -7.610655
            ],
            [
              110.687126667,
              -7.610648333
            ],
            [
              110.687133333,
              -7.610641667
            ],
            [
              110.68714,
              -7.610635
            ],
            [
              110.687141667,
              -7.610631667
            ],
            [
              110.687146667,
              -7.610626667
            ],
            [
              110.68715,
              -7.610621667
            ],
            [
              110.687155,
              -7.610615
            ],
            [
              110.687158333,
              -7.61061
            ],
            [
              110.687163333,
              -7.610605
            ],
            [
              110.687168333,
              -7.610603333
            ],
            [
              110.68717,
              -7.610598333
            ],
            [
              110.687171667,
              -7.610595
            ],
            [
              110.687176667,
              -7.61059
            ],
            [
              110.687183333,
              -7.610583333
            ],
            [
              110.687188333,
              -7.610578333
            ],
            [
              110.687193333,
              -7.610575
            ],
            [
              110.6872,
              -7.610571667
            ],
            [
              110.687203333,
              -7.610565
            ],
            [
              110.687211667,
              -7.61056
            ],
            [
              110.687215,
              -7.610553333
            ],
            [
              110.687218333,
              -7.610548333
            ],
            [
              110.687223333,
              -7.610543333
            ],
            [
              110.687228333,
              -7.61054
            ],
            [
              110.687233333,
              -7.610535
            ],
            [
              110.687238333,
              -7.61053
            ],
            [
              110.687246667,
              -7.610523333
            ],
            [
              110.687251667,
              -7.610518333
            ],
            [
              110.687256667,
              -7.610511667
            ],
            [
              110.687261667,
              -7.610506667
            ],
            [
              110.687268333,
              -7.6105
            ],
            [
              110.687275,
              -7.610495
            ],
            [
              110.68728,
              -7.61049
            ],
            [
              110.687281667,
              -7.610491667
            ],
            [
              110.687285,
              -7.610495
            ],
            [
              110.687288333,
              -7.610496667
            ],
            [
              110.687291667,
              -7.6105
            ],
            [
              110.687293333,
              -7.610498333
            ],
            [
              110.687296667,
              -7.6105
            ],
            [
              110.687301667,
              -7.610503333
            ],
            [
              110.687308333,
              -7.610506667
            ],
            [
              110.687315,
              -7.61051
            ],
            [
              110.687323333,
              -7.610511667
            ],
            [
              110.687331667,
              -7.610515
            ],
            [
              110.687336667,
              -7.61052
            ],
            [
              110.687343333,
              -7.610523333
            ],
            [
              110.687348333,
              -7.610525
            ],
            [
              110.687355,
              -7.610528333
            ],
            [
              110.68736,
              -7.610531667
            ],
            [
              110.687363333,
              -7.610533333
            ],
            [
              110.687368333,
              -7.610535
            ],
            [
              110.687376667,
              -7.610536667
            ],
            [
              110.687383333,
              -7.610538333
            ],
            [
              110.687391667,
              -7.61054
            ],
            [
              110.687396667,
              -7.610543333
            ],
            [
              110.687401667,
              -7.610548333
            ],
            [
              110.687403333,
              -7.610551667
            ],
            [
              110.687405,
              -7.610555
            ],
            [
              110.687403333,
              -7.610555
            ],
            [
              110.687408333,
              -7.610558333
            ],
            [
              110.687413333,
              -7.610561667
            ],
            [
              110.687421667,
              -7.610561667
            ],
            [
              110.687426667,
              -7.610563333
            ],
            [
              110.687431667,
              -7.610565
            ],
            [
              110.68744,
              -7.610566667
            ],
            [
              110.687445,
              -7.61057
            ],
            [
              110.687451667,
              -7.610573333
            ],
            [
              110.687456667,
              -7.610575
            ],
            [
              110.68746,
              -7.610578333
            ],
            [
              110.687465,
              -7.61058
            ],
            [
              110.687466667,
              -7.610583333
            ],
            [
              110.687471667,
              -7.610586667
            ],
            [
              110.68748,
              -7.61059
            ],
            [
              110.687485,
              -7.610593333
            ],
            [
              110.687488333,
              -7.610595
            ],
            [
              110.687491667,
              -7.610596667
            ],
            [
              110.687493333,
              -7.610598333
            ],
            [
              110.687495,
              -7.610598333
            ],
            [
              110.687495,
              -7.6106
            ],
            [
              110.687496667,
              -7.610598333
            ],
            [
              110.687498333,
              -7.610596667
            ],
            [
              110.687463333,
              -7.610581667
            ]
          ]
        ]
      }
    }
  ]
}