{
  "type": "FeatureCollection",
  "features": [
    {
      "type": "Feature",
      "properties": {
        "id": "08",
        "name": "08_Inpari_KecDelanggu_3 Bulan",
        "source_file": "08_Inpari_KecDelanggu_3 Bulan_FEATURE_POINTS.csv"
      },
      "geometry": {
        "type": "Polygon",
        "coordinates": [
          [
            [
              110.687646667,
              -7.61147
            ],
            [
              110.687641667,
              -7.611466667
            ],
            [
              110.68764,
              -7.611471667
            ],
            [
              110.687636667,
              -7.611476667
            ],
            [
              110.687636667,
              -7.611483333
            ],
            [
              110.687635,
              -7.611485
            ],
            [
              110.687631667,
              -7.611488333
            ],
            [
              110.687628333,
              -7.611491667
            ],
            [
              110.687625,
              -7.611495
            ],
            [
              110.687621667,
              -7.611498333
            ],
            [
              110.68762,
              -7.611501667
            ],
            [
              110.687618333,
              -7.611505
            ],
            [
              110.687616667,
              -7.61151
            ],
            [
              110.687613333,
              -7.611515
            ],
            [
              110.687611667,
              -7.61152
            ],
            [
              110.687608333,
              -7.611525
            ],
            [
              110.687603333,
              -7.61153
            ],
            [
              110.687598333,
              -7.611536667
            ],
            [
              110.687595,
              -7.61154
            ],
            [
              110.68759,
              -7.611546667
            ],
            [
              110.687585,
              -7.611553333
            ],
            [
              110.687578333,
              -7.61156
            ],
            [
              110.687571667,
              -7.611566667
            ],
            [
              110.687568333,
              -7.611573333
            ],
            [
              110.687561667,
              -7.611578333
            ],
            [
              110.687556667,
              -7.611585
            ],
            [
              110.687551667,
              -7.61159
            ],
            [
              110.687545,
              -7.611596667
            ],
            [
              110.687541667,
              -7.6116
            ],
            [
              110.687536667,
              -7.611606667
            ],
            [
              110.687531667,
              -7.61161
            ],
            [
              110.687528333,
              -7.611616667
            ],
            [
              110.687525,
              -7.611623333
            ],
            [
              110.687523333,
              -7.61163
            ],
            [
              110.68752,
              -7.611638333
            ],
            [
              110.687518333,
              -7.611645
            ],
            [
              110.687516667,
              -7.611651667
            ],
            [
              110.687513333,
              -7.611658333
            ],
            [
              110.687511667,
              -7.611665
            ],
            [
              110.68751,
              -7.611673333
            ],
            [
              110.687508333,
              -7.611676667
            ],
            [
              110.687503333,
              -7.611683333
            ],
            [
              110.687498333,
              -7.611688333
            ],
            [
              110.687491667,
              -7.611693333
            ],
            [
              110.687488333,
              -7.6117
            ],
            [
              110.687481667,
              -7.611706667
            ],
            [
              110.687475,
              -7.611711667
            ],
            [
              110.687468333,
              -7.611718333
            ],
            [
              110.68746,
              -7.611723333
            ],
            [
              110.687455,
              -7.611731667
            ],
            [
              110.68745,
              -7.611736667
            ],
            [
              110.687441667,
              -7.611745
            ],
            [
              110.687436667,
              -7.61175
            ],
            [
              110.687433333,
              -7.611755
            ],
            [
              110.68743,
              -7.611758333
            ],
            [
              110.687425,
              -7.611763333
            ],
            [
              110.68742,
              -7.61177
            ],
            [
              110.687415,
              -7.611775
            ],
            [
              110.68741,
              -7.611781667
            ],
            [
              110.687403333,
              -7.611786667
            ],
            [
              110.687396667,
              -7.611791667
            ],
            [
              110.687391667,
              -7.611796667
            ],
            [
              110.687386667,
              -7.611801667
            ],
            [
              110.687383333,
              -7.611808333
            ],
            [
              110.68738,
              -7.611813333
            ],
            [
              110.687378333,
              -7.61182
            ],
            [
              110.687376667,
              -7.611825
            ],
            [
              110.687375,
              -7.61183
            ],
            [
              110.687371667,
              -7.611835
            ],
            [
              110.68737,
              -7.611838333
            ],
            [
              110.687366667,
              -7.611845
            ],
            [
              110.687366667,
              -7.61185
            ],
            [
              110.687366667,
              -7.611853333
            ],
            [
              110.687368333,
              -7.611858333
            ],
            [
              110.687371667,
              -7.61186
            ],
            [
              110.68738,
              -7.61186
            ],
            [
              110.687388333,
              -7.61186
            ],
            [
              110.687398333,
              -7.611858333
            ],
            [
              110.687398333,
              -7.611865
            ],
            [
              110.687401667,
              -7.611866667
            ],
            [
              110.687401667,
              -7.61187
            ],
            [
              110.687401667,
              -7.611873333
            ],
            [
              110.687405,
              -7.611878333
            ],
            [
              110.687408333,
              -7.611881667
            ],
            [
              110.687411667,
              -7.611886667
            ],
            [
              110.687416667,
              -7.61189
            ],
            [
              110.687421667,
              -7.611896667
            ],
            [
              110.687426667,
              -7.6119
            ],
            [
              110.687431667,
              -7.611903333
            ],
            [
              110.687436667,
              -7.611906667
            ],
            [
              110.687441667,
              -7.611911667
            ],
            [
              110.687448333,
              -7.611913333
            ],
            [
              110.687456667,
              -7.611916667
            ],
            [
              110.687463333,
              -7.611921667
            ],
            [
              110.687471667,
              -7.611926667
            ],
            [
              110.687475,
              -7.611933333
            ],
            [
              110.68748,
              -7.611945
            ],
            [
              110.687483333,
              -7.611953333
            ],
            [
              110.68749,
              -7.61196
            ],
            [
              110.687493333,
              -7.611963333
            ],
            [
              110.687498333,
              -7.611965
            ],
            [
              110.687503333,
              -7.611965
            ],
            [
              110.687506667,
              -7.611963333
            ],
            [
              110.687511667,
              -7.61196
            ],
            [
              110.687516667,
              -7.611955
            ],
            [
              110.687518333,
              -7.611951667
            ],
            [
              110.687523333,
              -7.611946667
            ],
            [
              110.687528333,
              -7.611941667
            ],
            [
              110.687533333,
              -7.611935
            ],
            [
              110.68754,
              -7.611931667
            ],
            [
              110.687546667,
              -7.611928333
            ],
            [
              110.687551667,
              -7.611923333
            ],
            [
              110.687558333,
              -7.611916667
            ],
            [
              110.687563333,
              -7.61191
            ],
            [
              110.687566667,
              -7.611901667
            ],
            [
              110.687571667,
              -7.611895
            ],
            [
              110.687576667,
              -7.611886667
            ],
            [
              110.687585,
              -7.61188
            ],
            [
              110.687588333,
              -7.611873333
            ],
            [
              110.687591667,
              -7.611868333
            ],
            [
              110.687595,
              -7.611861667
            ],
            [
              110.6876,
              -7.611856667
            ],
            [
              110.687603333,
              -7.611853333
            ],
            [
              110.687608333,
              -7.61185
            ],
            [
              110.687611667,
              -7.611846667
            ],
            [
              110.687615,
              -7.611841667
            ],
            [
              110.687621667,
              -7.611836667
            ],
            [
              110.687626667,
              -7.611831667
            ],
            [
              110.687631667,
              -7.611826667
            ],
            [
              110.687636667,
              -7.61182
            ],
            [
              110.687645,
              -7.611816667
            ],
            [
              110.687648333,
              -7.61181
            ],
            [
              110.687651667,
              -7.611808333
            ],
            [
              110.687655,
              -7.611805
            ],
            [
              110.687656667,
              -7.611801667
            ],
            [
              110.687658333,
              -7.6118
            ],
            [
              110.687658333,
              -7.611796667
            ],
            [
              110.687661667,
              -7.611791667
            ],
            [
              110.687665,
              -7.611786667
            ],
            [
              110.68767,
              -7.61178
            ],
            [
              110.687675,
              -7.611775
            ],
            [
              110.687676667,
              -7.611771667
            ],
            [
              110.68768,
              -7.611766667
            ],
            [
              110.687685,
              -7.611763333
            ],
            [
              110.687688333,
              -7.611758333
            ],
            [
              110.687693333,
              -7.611753333
            ],
            [
              110.687696667,
              -7.611748333
            ],
            [
              110.687698333,
              -7.611743333
            ],
            [
              110.687701667,
              -7.61174
            ],
            [
              110.687703333,
              -7.611736667
            ],
            [
              110.687706667,
              -7.611731667
            ],
            [
              110.687711667,
              -7.611728333
            ],
            [
              110.687715,
              -7.611723333
            ],
            [
              110.687718333,
              -7.611718333
            ],
            [
              110.687723333,
              -7.611713333
            ],
            [
              110.687728333,
              -7.611705
            ],
            [
              110.687733333,
              -7.611701667
            ],
            [
              110.687735,
              -7.611696667
            ],
            [
              110.687738333,
              -7.611693333
            ],
            [
              110.68774,
              -7.611688333
            ],
            [
              110.687743333,
              -7.611683333
            ],
            [
              110.687748333,
              -7.611678333
            ],
            [
              110.687751667,
              -7.611671667
            ],
            [
              110.687756667,
              -7.611665
            ],
            [
              110.687761667,
              -7.611658333
            ],
            [
              110.687765,
              -7.611653333
            ],
            [
              110.687768333,
              -7.61165
            ],
            [
              110.687771667,
              -7.611645
            ],
            [
              110.687775,
              -7.611641667
            ],
            [
              110.687778333,
              -7.611638333
            ],
            [
              110.687781667,
              -7.611635
            ],
            [
              110.687785,
              -7.611631667
            ],
            [
              110.687788333,
              -7.611628333
            ],
            [
              110.68779,
              -7.611626667
            ],
            [
              110.687791667,
              -7.611625
            ],
            [
              110.687793333,
              -7.611621667
            ],
            [
              110.687793333,
              -7.611618333
            ],
            [
              110.687798333,
              -7.611613333
            ],
            [
              110.687796667,
              -7.611606667
            ],
            [
              110.687796667,
              -7.6116
            ],
            [
              110.687793333,
              -7.611596667
            ],
            [
              110.68779,
              -7.611591667
            ],
            [
              110.687788333,
              -7.611588333
            ],
            [
              110.687786667,
              -7.611586667
            ],
            [
              110.687785,
              -7.611583333
            ],
            [
              110.687783333,
              -7.61158
            ],
            [
              110.68778,
              -7.611576667
            ],
            [
              110.687778333,
              -7.611573333
            ],
            [
              110.687775,
              -7.611568333
            ],
            [
              110.687771667,
              -7.611563333
            ],
            [
              110.687766667,
              -7.611558333
            ],
            [
              110.687761667,
              -7.611555
            ],
            [
              110.687755,
              -7.611555
            ],
            [
              110.68775,
              -7.611553333
            ],
            [
              110.687743333,
              -7.61155
            ],
            [
              110.687741667,
              -7.611546667
            ],
            [
              110.687743333,
              -7.611546667
            ],
            [
              110.687741667,
              -7.611545
            ],
            [
              110.687738333,
              -7.611545
            ],
            [
              110.687735,
              -7.611541667
            ],
            [
              110.687731667,
              -7.61154
            ],
            [
              110.68773,
              -7.611538333
            ],
            [
              110.687726667,
              -7.611536667
            ],
            [
              110.687721667,
              -7.611533333
            ],
            [
              110.687711667,
              -7.611526667
            ],
            [
              110.687701667,
              -7.611521667
            ],
            [
              110.687693333,
              -7.611515
            ],
            [
              110.687686667,
              -7.611506667
            ],
            [
              110.687681667,
              -7.611498333
            ],
            [
              110.687673333,
              -7.611491667
            ],
            [
              110.687668333,
              -7.611485
            ],
            [
              110.687665,
              -7.611481667
            ],
            [
              110.687665,
              -7.611478333
            ],
            [
              110.687665,
              -7.611476667
            ],
            [
              110.687663333,
              -7.611473333
            ],
            [
              110.68766,
              -7.611473333
            ],
            [
              110.687655,
              -7.61147
            ],
            [
              110.68765,
              -7.611465
            ],
            [
              110.687643333,
              -7.611461667
            ],
            [
              110.687641667,
              -7.611466667
            ],
            [
              110.68764,
              -7.611468333
            ],
            [
              110.68764,
              -7.611471667
            ],
            [
              110.687646667,
              -7.61147
            ]
          ]
        ]
      }
    }
  ]
}