{
  "type": "FeatureCollection",
  "features": [
    {
      "type": "Feature",
      "properties": {
        "id": "09",
        "name": "09_Rojolele Srinunuk_KecDelanggu_2,5 Bulan",
        "source_file": "09_Rojolele Srinunuk_KecDelanggu_2,5 Bulan_FEATURE_POINTS.csv"
      },
      "geometry": {
        "type": "Polygon",
        "coordinates": [
          [
            [
              110.690695,
              -7.610005
            ],
            [
              110.690706667,
              -7.609998333
            ],
            [
              110.690708333,
              -7.609996667
            ],
            [
              110.69071,
              -7.609991667
            ],
            [
              110.690713333,
              -7.609986667
            ],
            [
              110.690716667,
              -7.60998
            ],
            [
              110.690718333,
              -7.609976667
            ],
            [
              110.690723333,
              -7.609968333
            ],
            [
              110.690728333,
              -7.609963333
            ],
            [
              110.690728333,
              -7.609961667
            ],
            [
              110.690725,
              -7.609956667
            ],
            [
              110.690728333,
              -7.609951667
            ],
            [
              110.690731667,
              -7.609945
            ],
            [
              110.690735,
              -7.60994
            ],
            [
              110.69074,
              -7.609935
            ],
            [
              110.690743333,
              -7.60993
            ],
            [
              110.690746667,
              -7.609923333
            ],
            [
              110.690751667,
              -7.609913333
            ],
            [
              110.690756667,
              -7.609906667
            ],
            [
              110.690761667,
              -7.609901667
            ],
            [
              110.690765,
              -7.609895
            ],
            [
              110.690768333,
              -7.609888333
            ],
            [
              110.69077,
              -7.60988
            ],
            [
              110.690773333,
              -7.609875
            ],
            [
              110.690773333,
              -7.60987
            ],
            [
              110.690773333,
              -7.609863333
            ],
            [
              110.690778333,
              -7.609858333
            ],
            [
              110.690783333,
              -7.609853333
            ],
            [
              110.690788333,
              -7.609845
            ],
            [
              110.690793333,
              -7.60984
            ],
            [
              110.690796667,
              -7.609833333
            ],
            [
              110.6908,
              -7.609826667
            ],
            [
              110.690801667,
              -7.60982
            ],
            [
              110.690803333,
              -7.609811667
            ],
            [
              110.690805,
              -7.609806667
            ],
            [
              110.690808333,
              -7.6098
            ],
            [
              110.690811667,
              -7.609793333
            ],
            [
              110.690816667,
              -7.609785
            ],
            [
              110.69082,
              -7.609778333
            ],
            [
              110.690825,
              -7.609768333
            ],
            [
              110.690831667,
              -7.60976
            ],
            [
              110.690838333,
              -7.609753333
            ],
            [
              110.690841667,
              -7.609746667
            ],
            [
              110.690845,
              -7.609738333
            ],
            [
              110.690846667,
              -7.60973
            ],
            [
              110.69085,
              -7.609721667
            ],
            [
              110.690855,
              -7.609715
            ],
            [
              110.690856667,
              -7.609708333
            ],
            [
              110.690856667,
              -7.609701667
            ],
            [
              110.690861667,
              -7.609693333
            ],
            [
              110.690863333,
              -7.609685
            ],
            [
              110.690866667,
              -7.609676667
            ],
            [
              110.690871667,
              -7.609671667
            ],
            [
              110.690873333,
              -7.609666667
            ],
            [
              110.690878333,
              -7.609661667
            ],
            [
              110.69088,
              -7.609653333
            ],
            [
              110.690883333,
              -7.609646667
            ],
            [
              110.690886667,
              -7.609641667
            ],
            [
              110.690888333,
              -7.609636667
            ],
            [
              110.690891667,
              -7.609628333
            ],
            [
              110.690895,
              -7.609621667
            ],
            [
              110.690898333,
              -7.609616667
            ],
            [
              110.690901667,
              -7.609613333
            ],
            [
              110.690905,
              -7.609605
            ],
            [
              110.690908333,
              -7.6096
            ],
            [
              110.690911667,
              -7.609593333
            ],
            [
              110.690911667,
              -7.609586667
            ],
            [
              110.690913333,
              -7.609581667
            ],
            [
              110.690913333,
              -7.609575
            ],
            [
              110.690911667,
              -7.609573333
            ],
            [
              110.690911667,
              -7.60957
            ],
            [
              110.69091,
              -7.609568333
            ],
            [
              110.690913333,
              -7.609568333
            ],
            [
              110.690915,
              -7.609565
            ],
            [
              110.69092,
              -7.609561667
            ],
            [
              110.690925,
              -7.609556667
            ],
            [
              110.69093,
              -7.60955
            ],
            [
              110.69093,
              -7.609541667
            ],
            [
              110.690933333,
              -7.609533333
            ],
            [
              110.690938333,
              -7.609528333
            ],
            [
              110.690943333,
              -7.60952
            ],
            [
              110.690948333,
              -7.609513333
            ],
            [
              110.690953333,
              -7.609503333
            ],
            [
              110.690956667,
              -7.609491667
            ],
            [
              110.690963333,
              -7.609483333
            ],
            [
              110.690966667,
              -7.609476667
            ],
            [
              110.69097,
              -7.609468333
            ],
            [
              110.690973333,
              -7.60946
            ],
            [
              110.690976667,
              -7.60945
            ],
            [
              110.690981667,
              -7.609441667
            ],
            [
              110.690981667,
              -7.609435
            ],
            [
              110.690983333,
              -7.609426667
            ],
            [
              110.690983333,
              -7.609418333
            ],
            [
              110.690981667,
              -7.609413333
            ],
            [
              110.69098,
              -7.60941
            ],
            [
              110.690978333,
              -7.609406667
            ],
            [
              110.690976667,
              -7.609405
            ],
            [
              110.69097,
              -7.609405
            ],
            [
              110.69096,
              -7.609403333
            ],
            [
              110.69095,
              -7.609401667
            ],
            [
              110.690943333,
              -7.6094
            ],
            [
              110.690935,
              -7.6094
            ],
            [
              110.69093,
              -7.609401667
            ],
            [
              110.690923333,
              -7.609401667
            ],
            [
              110.690916667,
              -7.6094
            ],
            [
              110.69091,
              -7.6094
            ],
            [
              110.690901667,
              -7.6094
            ],
            [
              110.690896667,
              -7.609396667
            ],
            [
              110.69089,
              -7.609396667
            ],
            [
              110.690881667,
              -7.609396667
            ],
            [
              110.690875,
              -7.609396667
            ],
            [
              110.690868333,
              -7.609398333
            ],
            [
              110.690861667,
              -7.609396667
            ],
            [
              110.690858333,
              -7.609396667
            ],
            [
              110.690856667,
              -7.609395
            ],
            [
              110.690858333,
              -7.609393333
            ],
            [
              110.690856667,
              -7.609393333
            ],
            [
              110.690858333,
              -7.609393333
            ],
            [
              110.69086,
              -7.609395
            ],
            [
              110.690851667,
              -7.609401667
            ],
            [
              110.69085,
              -7.609408333
            ],
            [
              110.690845,
              -7.609416667
            ],
            [
              110.690843333,
              -7.609423333
            ],
            [
              110.690838333,
              -7.60943
            ],
            [
              110.690835,
              -7.609433333
            ],
            [
              110.690831667,
              -7.609438333
            ],
            [
              110.690826667,
              -7.609443333
            ],
            [
              110.690825,
              -7.609446667
            ],
            [
              110.690825,
              -7.609453333
            ],
            [
              110.690821667,
              -7.609461667
            ],
            [
              110.69082,
              -7.60947
            ],
            [
              110.690818333,
              -7.609473333
            ],
            [
              110.690815,
              -7.60948
            ],
            [
              110.690811667,
              -7.609488333
            ],
            [
              110.69081,
              -7.609491667
            ],
            [
              110.690806667,
              -7.609495
            ],
            [
              110.690803333,
              -7.609498333
            ],
            [
              110.690798333,
              -7.609505
            ],
            [
              110.690796667,
              -7.60951
            ],
            [
              110.690795,
              -7.609511667
            ],
            [
              110.690795,
              -7.60952
            ],
            [
              110.690791667,
              -7.609526667
            ],
            [
              110.690788333,
              -7.609528333
            ],
            [
              110.690786667,
              -7.609533333
            ],
            [
              110.690785,
              -7.609536667
            ],
            [
              110.690783333,
              -7.609535
            ],
            [
              110.690778333,
              -7.609535
            ],
            [
              110.690775,
              -7.609533333
            ],
            [
              110.69077,
              -7.60953
            ],
            [
              110.690763333,
              -7.609528333
            ],
            [
              110.690756667,
              -7.609525
            ],
            [
              110.690748333,
              -7.60952
            ],
            [
              110.690741667,
              -7.609515
            ],
            [
              110.690733333,
              -7.609513333
            ],
            [
              110.690726667,
              -7.609516667
            ],
            [
              110.690716667,
              -7.609516667
            ],
            [
              110.69071,
              -7.609516667
            ],
            [
              110.690698333,
              -7.609515
            ],
            [
              110.690688333,
              -7.609513333
            ],
            [
              110.690678333,
              -7.609513333
            ],
            [
              110.69067,
              -7.609513333
            ],
            [
              110.690661667,
              -7.609511667
            ],
            [
              110.690656667,
              -7.609508333
            ],
            [
              110.690648333,
              -7.609508333
            ],
            [
              110.690641667,
              -7.609506667
            ],
            [
              110.690636667,
              -7.609506667
            ],
            [
              110.69063,
              -7.609501667
            ],
            [
              110.690621667,
              -7.6095
            ],
            [
              110.690616667,
              -7.609498333
            ],
            [
              110.69061,
              -7.609496667
            ],
            [
              110.690601667,
              -7.609493333
            ],
            [
              110.690593333,
              -7.609493333
            ],
            [
              110.69059,
              -7.609493333
            ],
            [
              110.690588333,
              -7.609491667
            ],
            [
              110.690581667,
              -7.60949
            ],
            [
              110.690573333,
              -7.609488333
            ],
            [
              110.690568333,
              -7.609488333
            ],
            [
              110.690563333,
              -7.609488333
            ],
            [
              110.690558333,
              -7.60949
            ],
            [
              110.690551667,
              -7.609488333
            ],
            [
              110.69054,
              -7.609488333
            ],
            [
              110.690531667,
              -7.609485
            ],
            [
              110.690523333,
              -7.609483333
            ],
            [
              110.690515,
              -7.609481667
            ],
            [
              110.69051,
              -7.609478333
            ],
            [
              110.690506667,
              -7.609476667
            ],
            [
              110.690498333,
              -7.609475
            ],
            [
              110.69049,
              -7.609471667
            ],
            [
              110.69048,
              -7.60947
            ],
            [
              110.690468333,
              -7.60947
            ],
            [
              110.690461667,
              -7.609468333
            ],
            [
              110.690456667,
              -7.609463333
            ],
            [
              110.690453333,
              -7.609461667
            ],
            [
              110.69045,
              -7.60946
            ],
            [
              110.690446667,
              -7.609456667
            ],
            [
              110.690441667,
              -7.609456667
            ],
            [
              110.690433333,
              -7.609455
            ],
            [
              110.690425,
              -7.609453333
            ],
            [
              110.690416667,
              -7.60945
            ],
            [
              110.690406667,
              -7.609448333
            ],
            [
              110.690398333,
              -7.609448333
            ],
            [
              110.690393333,
              -7.609446667
            ],
            [
              110.690385,
              -7.609443333
            ],
            [
              110.690381667,
              -7.60944
            ],
            [
              110.690378333,
              -7.60944
            ],
            [
              110.690373333,
              -7.609436667
            ],
            [
              110.690368333,
              -7.609433333
            ],
            [
              110.690366667,
              -7.609433333
            ],
            [
              110.690365,
              -7.609431667
            ],
            [
              110.690365,
              -7.609428333
            ],
            [
              110.690351667,
              -7.609443333
            ],
            [
              110.690348333,
              -7.609445
            ],
            [
              110.690346667,
              -7.609451667
            ],
            [
              110.690343333,
              -7.609455
            ],
            [
              110.69034,
              -7.60946
            ],
            [
              110.690335,
              -7.609465
            ],
            [
              110.690331667,
              -7.60947
            ],
            [
              110.69033,
              -7.609473333
            ],
            [
              110.690328333,
              -7.609476667
            ],
            [
              110.690323333,
              -7.609483333
            ],
            [
              110.69032,
              -7.60949
            ],
            [
              110.690318333,
              -7.609493333
            ],
            [
              110.690313333,
              -7.609498333
            ],
            [
              110.69031,
              -7.609505
            ],
            [
              110.69031,
              -7.609511667
            ],
            [
              110.69031,
              -7.609518333
            ],
            [
              110.690306667,
              -7.609521667
            ],
            [
              110.690303333,
              -7.609526667
            ],
            [
              110.690298333,
              -7.609533333
            ],
            [
              110.690296667,
              -7.609538333
            ],
            [
              110.690291667,
              -7.609546667
            ],
            [
              110.69029,
              -7.609551667
            ],
            [
              110.690293333,
              -7.609556667
            ],
            [
              110.690291667,
              -7.609558333
            ],
            [
              110.690295,
              -7.609558333
            ],
            [
              110.690296667,
              -7.60956
            ],
            [
              110.690295,
              -7.609563333
            ],
            [
              110.690298333,
              -7.60957
            ],
            [
              110.6903,
              -7.609575
            ],
            [
              110.690305,
              -7.60958
            ],
            [
              110.690308333,
              -7.609585
            ],
            [
              110.690313333,
              -7.609586667
            ],
            [
              110.69032,
              -7.609591667
            ],
            [
              110.690326667,
              -7.609595
            ],
            [
              110.690333333,
              -7.609598333
            ],
            [
              110.690338333,
              -7.609605
            ],
            [
              110.690343333,
              -7.609611667
            ],
            [
              110.690351667,
              -7.60962
            ],
            [
              110.690358333,
              -7.609628333
            ],
            [
              110.690363333,
              -7.609636667
            ],
            [
              110.690371667,
              -7.609645
            ],
            [
              110.690381667,
              -7.60965
            ],
            [
              110.690388333,
              -7.609656667
            ],
            [
              110.690396667,
              -7.609663333
            ],
            [
              110.690405,
              -7.60967
            ],
            [
              110.69041,
              -7.60968
            ],
            [
              110.690418333,
              -7.609685
            ],
            [
              110.690425,
              -7.60969
            ],
            [
              110.69043,
              -7.609696667
            ],
            [
              110.690435,
              -7.609701667
            ],
            [
              110.690441667,
              -7.609706667
            ],
            [
              110.690448333,
              -7.609715
            ],
            [
              110.690455,
              -7.60972
            ],
            [
              110.69046,
              -7.609726667
            ],
            [
              110.690465,
              -7.609731667
            ],
            [
              110.69047,
              -7.609735
            ],
            [
              110.690476667,
              -7.609741667
            ],
            [
              110.690483333,
              -7.60975
            ],
            [
              110.690491667,
              -7.609756667
            ],
            [
              110.690496667,
              -7.609761667
            ],
            [
              110.690503333,
              -7.609766667
            ],
            [
              110.690511667,
              -7.609773333
            ],
            [
              110.690518333,
              -7.60978
            ],
            [
              110.690526667,
              -7.609788333
            ],
            [
              110.690533333,
              -7.609798333
            ],
            [
              110.690541667,
              -7.609803333
            ],
            [
              110.690551667,
              -7.609806667
            ],
            [
              110.69056,
              -7.609811667
            ],
            [
              110.690565,
              -7.60982
            ],
            [
              110.690568333,
              -7.609826667
            ],
            [
              110.690573333,
              -7.609831667
            ],
            [
              110.690578333,
              -7.60984
            ],
            [
              110.690583333,
              -7.609843333
            ],
            [
              110.690588333,
              -7.60985
            ],
            [
              110.690595,
              -7.609858333
            ],
            [
              110.690601667,
              -7.609865
            ],
            [
              110.690606667,
              -7.609873333
            ],
            [
              110.690611667,
              -7.609878333
            ],
            [
              110.690615,
              -7.60988
            ],
            [
              110.690618333,
              -7.609885
            ],
            [
              110.690618333,
              -7.609891667
            ],
            [
              110.690621667,
              -7.609895
            ],
            [
              110.690623333,
              -7.6099
            ],
            [
              110.690628333,
              -7.609906667
            ],
            [
              110.690631667,
              -7.609913333
            ],
            [
              110.690636667,
              -7.60992
            ],
            [
              110.690641667,
              -7.609925
            ],
            [
              110.690645,
              -7.609935
            ],
            [
              110.690648333,
              -7.609941667
            ],
            [
              110.690655,
              -7.609948333
            ],
            [
              110.690661667,
              -7.609953333
            ],
            [
              110.690666667,
              -7.60996
            ],
            [
              110.690671667,
              -7.609965
            ],
            [
              110.690676667,
              -7.609971667
            ],
            [
              110.690681667,
              -7.609983333
            ],
            [
              110.690681667,
              -7.609991667
            ],
            [
              110.690685,
              -7.609996667
            ],
            [
              110.690688333,
              -7.609996667
            ],
            [
              110.690693333,
              -7.609998333
            ],
            [
              110.690696667,
              -7.61
            ],
            [
              110.690698333,
              -7.610001667
            ],
            [
              110.6907,
              -7.610001667
            ],
            [
              110.6907,
              -7.610003333
            ],
            [
              110.690696667,
              -7.61
            ],
            [
              110.690695,
              -7.610005
            ]
          ]
        ]
      }
    }
  ]
}