{
  "type": "FeatureCollection",
  "features": [
    {
      "type": "Feature",
      "properties": {
        "id": "10",
        "name": "10_Rojolele Srinunuk_KecDelanggu_3 Bulan",
        "source_file": "10_Rojolele Srinunuk_KecDelanggu_3 Bulan_FEATURE_POINTS.csv"
      },
      "geometry": {
        "type": "Polygon",
        "coordinates": [
          [
            [
              110.690756667,
              -7.611701667
            ],
            [
              110.69074,
              -7.611701667
            ],
            [
              110.690736667,
              -7.611705
            ],
            [
              110.690735,
              -7.611705
            ],
            [
              110.690731667,
              -7.611708333
            ],
            [
              110.69073,
              -7.611711667
            ],
            [
              110.690726667,
              -7.611716667
            ],
            [
              110.690723333,
              -7.611721667
            ],
            [
              110.69072,
              -7.611725
            ],
            [
              110.69072,
              -7.61173
            ],
            [
              110.690715,
              -7.611731667
            ],
            [
              110.690711667,
              -7.611736667
            ],
            [
              110.690706667,
              -7.61174
            ],
            [
              110.690705,
              -7.611743333
            ],
            [
              110.690701667,
              -7.611746667
            ],
            [
              110.6907,
              -7.61175
            ],
            [
              110.690696667,
              -7.611753333
            ],
            [
              110.69069,
              -7.61176
            ],
            [
              110.690685,
              -7.611765
            ],
            [
              110.690681667,
              -7.611771667
            ],
            [
              110.690675,
              -7.611778333
            ],
            [
              110.690671667,
              -7.611783333
            ],
            [
              110.690665,
              -7.611786667
            ],
            [
              110.690661667,
              -7.611788333
            ],
            [
              110.690658333,
              -7.611793333
            ],
            [
              110.690656667,
              -7.611798333
            ],
            [
              110.690653333,
              -7.611801667
            ],
            [
              110.69065,
              -7.611803333
            ],
            [
              110.690646667,
              -7.61181
            ],
            [
              110.690641667,
              -7.611815
            ],
            [
              110.690636667,
              -7.611821667
            ],
            [
              110.690633333,
              -7.611823333
            ],
            [
              110.69063,
              -7.61183
            ],
            [
              110.690625,
              -7.611835
            ],
            [
              110.690621667,
              -7.61184
            ],
            [
              110.690616667,
              -7.611845
            ],
            [
              110.690615,
              -7.61185
            ],
            [
              110.690611667,
              -7.611853333
            ],
            [
              110.690608333,
              -7.611856667
            ],
            [
              110.690605,
              -7.61186
            ],
            [
              110.690601667,
              -7.611865
            ],
            [
              110.690598333,
              -7.611868333
            ],
            [
              110.690595,
              -7.611873333
            ],
            [
              110.690591667,
              -7.611876667
            ],
            [
              110.690588333,
              -7.611881667
            ],
            [
              110.690585,
              -7.611885
            ],
            [
              110.69058,
              -7.611885
            ],
            [
              110.690573333,
              -7.611891667
            ],
            [
              110.69057,
              -7.611895
            ],
            [
              110.690565,
              -7.611901667
            ],
            [
              110.690561667,
              -7.611903333
            ],
            [
              110.690558333,
              -7.611906667
            ],
            [
              110.690555,
              -7.61191
            ],
            [
              110.690553333,
              -7.611915
            ],
            [
              110.690548333,
              -7.61192
            ],
            [
              110.690545,
              -7.611923333
            ],
            [
              110.690541667,
              -7.611926667
            ],
            [
              110.690536667,
              -7.611931667
            ],
            [
              110.690533333,
              -7.611936667
            ],
            [
              110.690531667,
              -7.611938333
            ],
            [
              110.690528333,
              -7.611943333
            ],
            [
              110.690526667,
              -7.611946667
            ],
            [
              110.690525,
              -7.611948333
            ],
            [
              110.690521667,
              -7.611951667
            ],
            [
              110.690516667,
              -7.611956667
            ],
            [
              110.690511667,
              -7.61196
            ],
            [
              110.690506667,
              -7.611965
            ],
            [
              110.6905,
              -7.61197
            ],
            [
              110.690493333,
              -7.611975
            ],
            [
              110.690486667,
              -7.611981667
            ],
            [
              110.690485,
              -7.611985
            ],
            [
              110.690481667,
              -7.611988333
            ],
            [
              110.690475,
              -7.611993333
            ],
            [
              110.69047,
              -7.612
            ],
            [
              110.690463333,
              -7.612003333
            ],
            [
              110.690458333,
              -7.612008333
            ],
            [
              110.69045,
              -7.612015
            ],
            [
              110.690445,
              -7.612021667
            ],
            [
              110.690441667,
              -7.612028333
            ],
            [
              110.690438333,
              -7.612033333
            ],
            [
              110.690433333,
              -7.612038333
            ],
            [
              110.69043,
              -7.612041667
            ],
            [
              110.690428333,
              -7.612045
            ],
            [
              110.690425,
              -7.612048333
            ],
            [
              110.690421667,
              -7.612053333
            ],
            [
              110.690416667,
              -7.61206
            ],
            [
              110.690413333,
              -7.612065
            ],
            [
              110.690408333,
              -7.61207
            ],
            [
              110.690405,
              -7.612076667
            ],
            [
              110.690401667,
              -7.61208
            ],
            [
              110.690395,
              -7.612085
            ],
            [
              110.690391667,
              -7.612088333
            ],
            [
              110.690388333,
              -7.612091667
            ],
            [
              110.690383333,
              -7.612095
            ],
            [
              110.690378333,
              -7.6121
            ],
            [
              110.690375,
              -7.612106667
            ],
            [
              110.69037,
              -7.61211
            ],
            [
              110.690368333,
              -7.612111667
            ],
            [
              110.690365,
              -7.612115
            ],
            [
              110.690365,
              -7.612118333
            ],
            [
              110.690366667,
              -7.612118333
            ],
            [
              110.690366667,
              -7.61212
            ],
            [
              110.690363333,
              -7.612123333
            ],
            [
              110.690363333,
              -7.612126667
            ],
            [
              110.690361667,
              -7.612128333
            ],
            [
              110.690355,
              -7.612133333
            ],
            [
              110.69035,
              -7.61214
            ],
            [
              110.690343333,
              -7.612146667
            ],
            [
              110.690336667,
              -7.612151667
            ],
            [
              110.690335,
              -7.612155
            ],
            [
              110.690331667,
              -7.612158333
            ],
            [
              110.690326667,
              -7.612165
            ],
            [
              110.690326667,
              -7.612168333
            ],
            [
              110.690326667,
              -7.612173333
            ],
            [
              110.690328333,
              -7.612175
            ],
            [
              110.690331667,
              -7.612175
            ],
            [
              110.690333333,
              -7.612175
            ],
            [
              110.690335,
              -7.612175
            ],
            [
              110.690338333,
              -7.612176667
            ],
            [
              110.690343333,
              -7.61218
            ],
            [
              110.69035,
              -7.612183333
            ],
            [
              110.690356667,
              -7.612186667
            ],
            [
              110.690361667,
              -7.612186667
            ],
            [
              110.690366667,
              -7.612191667
            ],
            [
              110.690376667,
              -7.612203333
            ],
            [
              110.690383333,
              -7.61221
            ],
            [
              110.690388333,
              -7.612216667
            ],
            [
              110.690393333,
              -7.61222
            ],
            [
              110.690393333,
              -7.612225
            ],
            [
              110.690393333,
              -7.612226667
            ],
            [
              110.690391667,
              -7.612226667
            ],
            [
              110.690391667,
              -7.612228333
            ],
            [
              110.69039,
              -7.612228333
            ],
            [
              110.690391667,
              -7.612231667
            ],
            [
              110.690391667,
              -7.612228333
            ],
            [
              110.690393333,
              -7.612225
            ],
            [
              110.690391667,
              -7.612223333
            ],
            [
              110.690396667,
              -7.612218333
            ],
            [
              110.690403333,
              -7.612215
            ],
            [
              110.690411667,
              -7.612208333
            ],
            [
              110.690421667,
              -7.612201667
            ],
            [
              110.690431667,
              -7.612195
            ],
            [
              110.690441667,
              -7.61219
            ],
            [
              110.690451667,
              -7.612188333
            ],
            [
              110.69046,
              -7.612181667
            ],
            [
              110.690468333,
              -7.612176667
            ],
            [
              110.690475,
              -7.612173333
            ],
            [
              110.690481667,
              -7.61217
            ],
            [
              110.690483333,
              -7.612165
            ],
            [
              110.690486667,
              -7.612158333
            ],
            [
              110.69049,
              -7.61215
            ],
            [
              110.690495,
              -7.612141667
            ],
            [
              110.6905,
              -7.612136667
            ],
            [
              110.690508333,
              -7.61213
            ],
            [
              110.690515,
              -7.612123333
            ],
            [
              110.69052,
              -7.612116667
            ],
            [
              110.690525,
              -7.612111667
            ],
            [
              110.690531667,
              -7.612105
            ],
            [
              110.690536667,
              -7.612098333
            ],
            [
              110.69054,
              -7.612093333
            ],
            [
              110.690543333,
              -7.612086667
            ],
            [
              110.690548333,
              -7.612081667
            ],
            [
              110.690553333,
              -7.612078333
            ],
            [
              110.690556667,
              -7.612075
            ],
            [
              110.690561667,
              -7.612068333
            ],
            [
              110.690568333,
              -7.612063333
            ],
            [
              110.690575,
              -7.612056667
            ],
            [
              110.69058,
              -7.612051667
            ],
            [
              110.690585,
              -7.612046667
            ],
            [
              110.690591667,
              -7.612038333
            ],
            [
              110.690595,
              -7.612033333
            ],
            [
              110.6906,
              -7.612026667
            ],
            [
              110.690603333,
              -7.612023333
            ],
            [
              110.690608333,
              -7.612016667
            ],
            [
              110.690613333,
              -7.612011667
            ],
            [
              110.690618333,
              -7.612003333
            ],
            [
              110.690621667,
              -7.611996667
            ],
            [
              110.690626667,
              -7.61199
            ],
            [
              110.690631667,
              -7.611985
            ],
            [
              110.69064,
              -7.611978333
            ],
            [
              110.690645,
              -7.611973333
            ],
            [
              110.690648333,
              -7.611973333
            ],
            [
              110.69065,
              -7.611971667
            ],
            [
              110.690651667,
              -7.61197
            ],
            [
              110.690656667,
              -7.611965
            ],
            [
              110.690661667,
              -7.61196
            ],
            [
              110.690665,
              -7.611951667
            ],
            [
              110.69067,
              -7.611946667
            ],
            [
              110.690675,
              -7.61194
            ],
            [
              110.690681667,
              -7.611933333
            ],
            [
              110.690688333,
              -7.611925
            ],
            [
              110.690695,
              -7.611918333
            ],
            [
              110.690701667,
              -7.611906667
            ],
            [
              110.690705,
              -7.6119
            ],
            [
              110.690713333,
              -7.611891667
            ],
            [
              110.69072,
              -7.611885
            ],
            [
              110.690726667,
              -7.611876667
            ],
            [
              110.690733333,
              -7.611871667
            ],
            [
              110.690738333,
              -7.611863333
            ],
            [
              110.690741667,
              -7.611856667
            ],
            [
              110.690748333,
              -7.611851667
            ],
            [
              110.690753333,
              -7.611841667
            ],
            [
              110.690761667,
              -7.611833333
            ],
            [
              110.690766667,
              -7.611828333
            ],
            [
              110.690773333,
              -7.611821667
            ],
            [
              110.690778333,
              -7.611816667
            ],
            [
              110.690783333,
              -7.611811667
            ],
            [
              110.69079,
              -7.611805
            ],
            [
              110.690795,
              -7.611798333
            ],
            [
              110.6908,
              -7.611791667
            ],
            [
              110.690808333,
              -7.611785
            ],
            [
              110.690816667,
              -7.611778333
            ],
            [
              110.69082,
              -7.61177
            ],
            [
              110.690825,
              -7.61176
            ],
            [
              110.69083,
              -7.611755
            ],
            [
              110.690836667,
              -7.611748333
            ],
            [
              110.690846667,
              -7.61174
            ],
            [
              110.69085,
              -7.611733333
            ],
            [
              110.690856667,
              -7.611728333
            ],
            [
              110.690861667,
              -7.611725
            ],
            [
              110.690861667,
              -7.61172
            ],
            [
              110.690856667,
              -7.611716667
            ],
            [
              110.690851667,
              -7.611715
            ],
            [
              110.690843333,
              -7.611713333
            ],
            [
              110.690835,
              -7.611708333
            ],
            [
              110.690825,
              -7.611708333
            ],
            [
              110.690818333,
              -7.61171
            ],
            [
              110.69081,
              -7.611711667
            ],
            [
              110.690803333,
              -7.611708333
            ],
            [
              110.690791667,
              -7.611703333
            ],
            [
              110.690785,
              -7.611705
            ],
            [
              110.690781667,
              -7.611706667
            ],
            [
              110.690778333,
              -7.61171
            ],
            [
              110.690771667,
              -7.611713333
            ],
            [
              110.690768333,
              -7.611711667
            ],
            [
              110.69076,
              -7.611711667
            ],
            [
              110.690755,
              -7.61171
            ],
            [
              110.690753333,
              -7.61171
            ],
            [
              110.690751667,
              -7.61171
            ],
            [
              110.690751667,
              -7.611711667
            ],
            [
              110.69075,
              -7.61171
            ],
            [
              110.690751667,
              -7.611708333
            ],
            [
              110.690753333,
              -7.611706667
            ],
            [
              110.690755,
              -7.611705
            ],
            [
              110.690756667,
              -7.611703333
            ],
            [
              110.690756667,
              -7.611701667
            ]
          ]
        ]
      }
    }
  ]
}