{
  "type": "FeatureCollection",
  "features": [
    {
      "type": "Feature",
      "properties": {
        "id": "11",
        "name": "11_Rojolele Srinunuk_KecDelanggu_2 Bulan",
        "source_file": "11_Rojolele Srinunuk_KecDelanggu_2 Bulan_FEATURE_POINTS.csv"
      },
      "geometry": {
        "type": "Polygon",
        "coordinates": [
          [
            [
              110.692311667,
              -7.612078333
            ],
            [
              110.69231,
              -7.612076667
            ],
            [
              110.692308333,
              -7.612076667
            ],
            [
              110.692318333,
              -7.612065
            ],
            [
              110.692325,
              -7.61206
            ],
            [
              110.69233,
              -7.612053333
            ],
            [
              110.692335,
              -7.612045
            ],
            [
              110.692341667,
              -7.612038333
            ],
            [
              110.69235,
              -7.612031667
            ],
            [
              110.692353333,
              -7.612021667
            ],
            [
              110.692355,
              -7.612015
            ],
            [
              110.692356667,
              -7.612008333
            ],
            [
              110.692361667,
              -7.612
            ],
            [
              110.692365,
              -7.611993333
            ],
            [
              110.692371667,
              -7.611986667
            ],
            [
              110.692376667,
              -7.611981667
            ],
            [
              110.692383333,
              -7.611976667
            ],
            [
              110.692388333,
              -7.611971667
            ],
            [
              110.69239,
              -7.611965
            ],
            [
              110.692391667,
              -7.611956667
            ],
            [
              110.692396667,
              -7.61195
            ],
            [
              110.6924,
              -7.611941667
            ],
            [
              110.692405,
              -7.611933333
            ],
            [
              110.69241,
              -7.611923333
            ],
            [
              110.692413333,
              -7.611915
            ],
            [
              110.69242,
              -7.611903333
            ],
            [
              110.692423333,
              -7.611895
            ],
            [
              110.692428333,
              -7.611886667
            ],
            [
              110.692433333,
              -7.61188
            ],
            [
              110.692438333,
              -7.611873333
            ],
            [
              110.692443333,
              -7.611866667
            ],
            [
              110.692448333,
              -7.61186
            ],
            [
              110.692451667,
              -7.611851667
            ],
            [
              110.692455,
              -7.611845
            ],
            [
              110.692456667,
              -7.611835
            ],
            [
              110.69246,
              -7.611825
            ],
            [
              110.692465,
              -7.611816667
            ],
            [
              110.69247,
              -7.611805
            ],
            [
              110.692475,
              -7.611795
            ],
            [
              110.69248,
              -7.611788333
            ],
            [
              110.692483333,
              -7.611778333
            ],
            [
              110.692485,
              -7.611771667
            ],
            [
              110.692488333,
              -7.611763333
            ],
            [
              110.692493333,
              -7.611755
            ],
            [
              110.692498333,
              -7.611743333
            ],
            [
              110.692501667,
              -7.611736667
            ],
            [
              110.69251,
              -7.611726667
            ],
            [
              110.692515,
              -7.611716667
            ],
            [
              110.692521667,
              -7.611705
            ],
            [
              110.69253,
              -7.611695
            ],
            [
              110.692533333,
              -7.611688333
            ],
            [
              110.692538333,
              -7.611678333
            ],
            [
              110.692541667,
              -7.611666667
            ],
            [
              110.692545,
              -7.611658333
            ],
            [
              110.69255,
              -7.611651667
            ],
            [
              110.692553333,
              -7.611643333
            ],
            [
              110.692558333,
              -7.611635
            ],
            [
              110.692563333,
              -7.611626667
            ],
            [
              110.692566667,
              -7.61162
            ],
            [
              110.69257,
              -7.611611667
            ],
            [
              110.692571667,
              -7.611603333
            ],
            [
              110.692576667,
              -7.611598333
            ],
            [
              110.69258,
              -7.611588333
            ],
            [
              110.692585,
              -7.611581667
            ],
            [
              110.692588333,
              -7.611573333
            ],
            [
              110.692591667,
              -7.611566667
            ],
            [
              110.692593333,
              -7.611556667
            ],
            [
              110.692591667,
              -7.611548333
            ],
            [
              110.692593333,
              -7.611541667
            ],
            [
              110.692595,
              -7.611538333
            ],
            [
              110.692598333,
              -7.611538333
            ],
            [
              110.692595,
              -7.611538333
            ],
            [
              110.692593333,
              -7.611535
            ],
            [
              110.692595,
              -7.61153
            ],
            [
              110.692598333,
              -7.611521667
            ],
            [
              110.692606667,
              -7.611511667
            ],
            [
              110.692615,
              -7.611501667
            ],
            [
              110.692623333,
              -7.611488333
            ],
            [
              110.692626667,
              -7.611475
            ],
            [
              110.692631667,
              -7.611466667
            ],
            [
              110.69264,
              -7.611456667
            ],
            [
              110.692643333,
              -7.61145
            ],
            [
              110.692643333,
              -7.611443333
            ],
            [
              110.692648333,
              -7.61143
            ],
            [
              110.692653333,
              -7.611423333
            ],
            [
              110.692656667,
              -7.611416667
            ],
            [
              110.69266,
              -7.611406667
            ],
            [
              110.692665,
              -7.611396667
            ],
            [
              110.69267,
              -7.61139
            ],
            [
              110.692671667,
              -7.611381667
            ],
            [
              110.692678333,
              -7.611373333
            ],
            [
              110.692686667,
              -7.611363333
            ],
            [
              110.692693333,
              -7.611355
            ],
            [
              110.692698333,
              -7.611346667
            ],
            [
              110.692703333,
              -7.611335
            ],
            [
              110.69271,
              -7.611325
            ],
            [
              110.692713333,
              -7.611311667
            ],
            [
              110.692716667,
              -7.611303333
            ],
            [
              110.69272,
              -7.611293333
            ],
            [
              110.692723333,
              -7.611286667
            ],
            [
              110.692725,
              -7.611285
            ],
            [
              110.692731667,
              -7.611281667
            ],
            [
              110.692733333,
              -7.611278333
            ],
            [
              110.692733333,
              -7.61128
            ],
            [
              110.69273,
              -7.61128
            ],
            [
              110.69273,
              -7.611283333
            ],
            [
              110.692731667,
              -7.61128
            ],
            [
              110.692731667,
              -7.611278333
            ],
            [
              110.692735,
              -7.611273333
            ],
            [
              110.692736667,
              -7.611265
            ],
            [
              110.692738333,
              -7.611255
            ],
            [
              110.692745,
              -7.611248333
            ],
            [
              110.692751667,
              -7.61124
            ],
            [
              110.692753333,
              -7.611231667
            ],
            [
              110.692755,
              -7.61122
            ],
            [
              110.692756667,
              -7.611211667
            ],
            [
              110.692761667,
              -7.611205
            ],
            [
              110.692766667,
              -7.611196667
            ],
            [
              110.692773333,
              -7.611185
            ],
            [
              110.692773333,
              -7.611178333
            ],
            [
              110.692775,
              -7.611168333
            ],
            [
              110.69278,
              -7.611161667
            ],
            [
              110.692786667,
              -7.611153333
            ],
            [
              110.692791667,
              -7.611143333
            ],
            [
              110.692795,
              -7.611136667
            ],
            [
              110.692798333,
              -7.611128333
            ],
            [
              110.692805,
              -7.611118333
            ],
            [
              110.692813333,
              -7.611106667
            ],
            [
              110.692816667,
              -7.611095
            ],
            [
              110.692821667,
              -7.611086667
            ],
            [
              110.692825,
              -7.61108
            ],
            [
              110.69283,
              -7.611073333
            ],
            [
              110.692833333,
              -7.611065
            ],
            [
              110.692836667,
              -7.61106
            ],
            [
              110.692841667,
              -7.611051667
            ],
            [
              110.692845,
              -7.611043333
            ],
            [
              110.692848333,
              -7.611035
            ],
            [
              110.69285,
              -7.611028333
            ],
            [
              110.69285,
              -7.61102
            ],
            [
              110.692853333,
              -7.611011667
            ],
            [
              110.69286,
              -7.611005
            ],
            [
              110.692863333,
              -7.610996667
            ],
            [
              110.692866667,
              -7.610988333
            ],
            [
              110.692871667,
              -7.61098
            ],
            [
              110.692876667,
              -7.610971667
            ],
            [
              110.69288,
              -7.610963333
            ],
            [
              110.692883333,
              -7.610955
            ],
            [
              110.69289,
              -7.610946667
            ],
            [
              110.692896667,
              -7.610941667
            ],
            [
              110.692905,
              -7.610935
            ],
            [
              110.69291,
              -7.610928333
            ],
            [
              110.692913333,
              -7.610923333
            ],
            [
              110.692916667,
              -7.610916667
            ],
            [
              110.692925,
              -7.61091
            ],
            [
              110.692935,
              -7.610903333
            ],
            [
              110.692941667,
              -7.610901667
            ],
            [
              110.692941667,
              -7.610903333
            ],
            [
              110.69294,
              -7.610906667
            ],
            [
              110.692943333,
              -7.610905
            ],
            [
              110.692948333,
              -7.610905
            ],
            [
              110.692953333,
              -7.610908333
            ],
            [
              110.692958333,
              -7.61091
            ],
            [
              110.692963333,
              -7.610911667
            ],
            [
              110.692971667,
              -7.610913333
            ],
            [
              110.692975,
              -7.610915
            ],
            [
              110.692978333,
              -7.610916667
            ],
            [
              110.692981667,
              -7.61092
            ],
            [
              110.692988333,
              -7.610921667
            ],
            [
              110.692991667,
              -7.610925
            ],
            [
              110.692996667,
              -7.61093
            ],
            [
              110.693003333,
              -7.610933333
            ],
            [
              110.693008333,
              -7.610938333
            ],
            [
              110.693013333,
              -7.610941667
            ],
            [
              110.69302,
              -7.610945
            ],
            [
              110.693025,
              -7.610953333
            ],
            [
              110.693025,
              -7.610963333
            ],
            [
              110.693025,
              -7.610971667
            ],
            [
              110.69302,
              -7.610981667
            ],
            [
              110.693018333,
              -7.61099
            ],
            [
              110.693013333,
              -7.611
            ],
            [
              110.693011667,
              -7.611008333
            ],
            [
              110.69301,
              -7.611011667
            ],
            [
              110.693008333,
              -7.611018333
            ],
            [
              110.693008333,
              -7.61102
            ],
            [
              110.693006667,
              -7.61102
            ],
            [
              110.693006667,
              -7.611016667
            ],
            [
              110.693008333,
              -7.611015
            ],
            [
              110.693011667,
              -7.611013333
            ],
            [
              110.693018333,
              -7.611016667
            ],
            [
              110.693023333,
              -7.61102
            ],
            [
              110.693028333,
              -7.611026667
            ],
            [
              110.693036667,
              -7.61103
            ],
            [
              110.693043333,
              -7.611033333
            ],
            [
              110.69305,
              -7.611036667
            ],
            [
              110.693058333,
              -7.61104
            ],
            [
              110.693065,
              -7.611045
            ],
            [
              110.69307,
              -7.611048333
            ],
            [
              110.693075,
              -7.611053333
            ],
            [
              110.693083333,
              -7.611056667
            ],
            [
              110.69309,
              -7.611061667
            ],
            [
              110.693095,
              -7.611061667
            ],
            [
              110.693103333,
              -7.611066667
            ],
            [
              110.693111667,
              -7.611068333
            ],
            [
              110.693118333,
              -7.611073333
            ],
            [
              110.693123333,
              -7.611078333
            ],
            [
              110.693121667,
              -7.611085
            ],
            [
              110.69312,
              -7.611093333
            ],
            [
              110.693116667,
              -7.611103333
            ],
            [
              110.693113333,
              -7.61111
            ],
            [
              110.69311,
              -7.61112
            ],
            [
              110.693108333,
              -7.61113
            ],
            [
              110.6931,
              -7.611136667
            ],
            [
              110.693091667,
              -7.611143333
            ],
            [
              110.693086667,
              -7.611153333
            ],
            [
              110.693083333,
              -7.611165
            ],
            [
              110.693078333,
              -7.611173333
            ],
            [
              110.693075,
              -7.611183333
            ],
            [
              110.693071667,
              -7.61119
            ],
            [
              110.693066667,
              -7.611198333
            ],
            [
              110.69306,
              -7.611208333
            ],
            [
              110.693053333,
              -7.611216667
            ],
            [
              110.69305,
              -7.611225
            ],
            [
              110.693048333,
              -7.611236667
            ],
            [
              110.693043333,
              -7.611245
            ],
            [
              110.693036667,
              -7.611253333
            ],
            [
              110.69303,
              -7.61126
            ],
            [
              110.693028333,
              -7.611271667
            ],
            [
              110.693023333,
              -7.611281667
            ],
            [
              110.693021667,
              -7.611288333
            ],
            [
              110.69302,
              -7.611293333
            ],
            [
              110.693018333,
              -7.611296667
            ],
            [
              110.693018333,
              -7.6113
            ],
            [
              110.693016667,
              -7.611305
            ],
            [
              110.693013333,
              -7.611311667
            ],
            [
              110.69301,
              -7.611318333
            ],
            [
              110.693003333,
              -7.611326667
            ],
            [
              110.692996667,
              -7.611335
            ],
            [
              110.692993333,
              -7.611341667
            ],
            [
              110.692991667,
              -7.611348333
            ],
            [
              110.692985,
              -7.611358333
            ],
            [
              110.692978333,
              -7.611366667
            ],
            [
              110.692973333,
              -7.611376667
            ],
            [
              110.692968333,
              -7.611386667
            ],
            [
              110.692965,
              -7.611395
            ],
            [
              110.692963333,
              -7.611406667
            ],
            [
              110.69296,
              -7.611411667
            ],
            [
              110.692955,
              -7.611423333
            ],
            [
              110.69295,
              -7.611431667
            ],
            [
              110.692946667,
              -7.611438333
            ],
            [
              110.692941667,
              -7.61145
            ],
            [
              110.69294,
              -7.61146
            ],
            [
              110.692938333,
              -7.611473333
            ],
            [
              110.692933333,
              -7.611483333
            ],
            [
              110.692926667,
              -7.611493333
            ],
            [
              110.69292,
              -7.611501667
            ],
            [
              110.692913333,
              -7.61151
            ],
            [
              110.692906667,
              -7.61152
            ],
            [
              110.692901667,
              -7.611528333
            ],
            [
              110.692895,
              -7.611538333
            ],
            [
              110.692891667,
              -7.611546667
            ],
            [
              110.692886667,
              -7.611555
            ],
            [
              110.69288,
              -7.611565
            ],
            [
              110.692875,
              -7.611575
            ],
            [
              110.69287,
              -7.611585
            ],
            [
              110.692866667,
              -7.611593333
            ],
            [
              110.692863333,
              -7.611601667
            ],
            [
              110.69286,
              -7.61161
            ],
            [
              110.692853333,
              -7.61162
            ],
            [
              110.69285,
              -7.611628333
            ],
            [
              110.692843333,
              -7.611641667
            ],
            [
              110.69284,
              -7.61165
            ],
            [
              110.692836667,
              -7.611658333
            ],
            [
              110.69283,
              -7.611666667
            ],
            [
              110.692823333,
              -7.611675
            ],
            [
              110.692815,
              -7.611685
            ],
            [
              110.69281,
              -7.611691667
            ],
            [
              110.692805,
              -7.611703333
            ],
            [
              110.6928,
              -7.611715
            ],
            [
              110.692798333,
              -7.611723333
            ],
            [
              110.692795,
              -7.611733333
            ],
            [
              110.692786667,
              -7.611741667
            ],
            [
              110.692781667,
              -7.611745
            ],
            [
              110.69278,
              -7.611745
            ],
            [
              110.69278,
              -7.611748333
            ],
            [
              110.69278,
              -7.611751667
            ],
            [
              110.692775,
              -7.611761667
            ],
            [
              110.692771667,
              -7.61177
            ],
            [
              110.692765,
              -7.61178
            ],
            [
              110.69276,
              -7.61179
            ],
            [
              110.692755,
              -7.6118
            ],
            [
              110.692751667,
              -7.611808333
            ],
            [
              110.69275,
              -7.611816667
            ],
            [
              110.692746667,
              -7.611825
            ],
            [
              110.692743333,
              -7.61183
            ],
            [
              110.692743333,
              -7.611838333
            ],
            [
              110.692741667,
              -7.611846667
            ],
            [
              110.692736667,
              -7.611855
            ],
            [
              110.69273,
              -7.611865
            ],
            [
              110.692723333,
              -7.611871667
            ],
            [
              110.692718333,
              -7.61188
            ],
            [
              110.692711667,
              -7.61189
            ],
            [
              110.692706667,
              -7.6119
            ],
            [
              110.692703333,
              -7.61191
            ],
            [
              110.692698333,
              -7.611918333
            ],
            [
              110.692693333,
              -7.611928333
            ],
            [
              110.692688333,
              -7.611938333
            ],
            [
              110.692683333,
              -7.611948333
            ],
            [
              110.692678333,
              -7.611958333
            ],
            [
              110.692673333,
              -7.611966667
            ],
            [
              110.692666667,
              -7.611978333
            ],
            [
              110.692663333,
              -7.611986667
            ],
            [
              110.69266,
              -7.611995
            ],
            [
              110.692656667,
              -7.612003333
            ],
            [
              110.69265,
              -7.612011667
            ],
            [
              110.692645,
              -7.612021667
            ],
            [
              110.69264,
              -7.612031667
            ],
            [
              110.692633333,
              -7.612041667
            ],
            [
              110.692628333,
              -7.612051667
            ],
            [
              110.692621667,
              -7.612061667
            ],
            [
              110.692618333,
              -7.612068333
            ],
            [
              110.692615,
              -7.612078333
            ],
            [
              110.692615,
              -7.612086667
            ],
            [
              110.692613333,
              -7.612096667
            ],
            [
              110.692608333,
              -7.612106667
            ],
            [
              110.692603333,
              -7.612116667
            ],
            [
              110.692595,
              -7.612126667
            ],
            [
              110.692586667,
              -7.612131667
            ],
            [
              110.692585,
              -7.612136667
            ],
            [
              110.692588333,
              -7.612145
            ],
            [
              110.692585,
              -7.61215
            ],
            [
              110.692578333,
              -7.612158333
            ],
            [
              110.692575,
              -7.612168333
            ],
            [
              110.692576667,
              -7.612175
            ],
            [
              110.692573333,
              -7.61218
            ],
            [
              110.692568333,
              -7.612188333
            ],
            [
              110.692566667,
              -7.612193333
            ],
            [
              110.692561667,
              -7.612198333
            ],
            [
              110.692553333,
              -7.612205
            ],
            [
              110.692546667,
              -7.612211667
            ],
            [
              110.692541667,
              -7.612215
            ],
            [
              110.692538333,
              -7.612211667
            ],
            [
              110.692533333,
              -7.612205
            ],
            [
              110.692523333,
              -7.612201667
            ],
            [
              110.692515,
              -7.612195
            ],
            [
              110.692506667,
              -7.612193333
            ],
            [
              110.692501667,
              -7.612186667
            ],
            [
              110.692493333,
              -7.612183333
            ],
            [
              110.69249,
              -7.61218
            ],
            [
              110.692486667,
              -7.612173333
            ],
            [
              110.69248,
              -7.61217
            ],
            [
              110.692476667,
              -7.612166667
            ],
            [
              110.692471667,
              -7.612168333
            ],
            [
              110.692463333,
              -7.612168333
            ],
            [
              110.692453333,
              -7.612165
            ],
            [
              110.692441667,
              -7.612161667
            ],
            [
              110.692426667,
              -7.612158333
            ],
            [
              110.692418333,
              -7.612155
            ],
            [
              110.692411667,
              -7.61215
            ],
            [
              110.692408333,
              -7.612143333
            ],
            [
              110.692406667,
              -7.61214
            ],
            [
              110.692401667,
              -7.612135
            ],
            [
              110.692395,
              -7.612131667
            ],
            [
              110.692386667,
              -7.612125
            ],
            [
              110.69238,
              -7.61212
            ],
            [
              110.692373333,
              -7.612116667
            ],
            [
              110.692366667,
              -7.612115
            ],
            [
              110.692356667,
              -7.612108333
            ],
            [
              110.692345,
              -7.612103333
            ],
            [
              110.692333333,
              -7.612101667
            ],
            [
              110.692325,
              -7.612098333
            ],
            [
              110.692316667,
              -7.612096667
            ],
            [
              110.692311667,
              -7.612091667
            ],
            [
              110.692311667,
              -7.612081667
            ],
            [
              110.69231,
              -7.612075
            ],
            [
              110.692308333,
              -7.612073333
            ],
            [
              110.692308333,
              -7.612071667
            ],
            [
              110.69231,
              -7.612071667
            ],
            [
              110.69231,
              -7.61207
            ],
            [
              110.692313333,
              -7.612071667
            ],
            [
              110.692311667,
              -7.612078333
            ]
          ]
        ]
      }
    }
  ]
}