{
  "type": "FeatureCollection",
  "features": [
    {
      "type": "Feature",
      "properties": {
        "id": "12",
        "name": "12_Rojolele Srinunuk_KecDelanggu_1 Minggu",
        "source_file": "12_Rojolele Srinunuk_KecDelanggu_1 Minggu_FEATURE_POINTS.csv"
      },
      "geometry": {
        "type": "Polygon",
        "coordinates": [
          [
            [
              110.69229,
              -7.612066667
            ],
            [
              110.6923,
              -7.612058333
            ],
            [
              110.69229,
              -7.612058333
            ],
            [
              110.692281667,
              -7.612058333
            ],
            [
              110.692273333,
              -7.612056667
            ],
            [
              110.692263333,
              -7.612055
            ],
            [
              110.692255,
              -7.61205
            ],
            [
              110.692246667,
              -7.612041667
            ],
            [
              110.69224,
              -7.612036667
            ],
            [
              110.692235,
              -7.612033333
            ],
            [
              110.69223,
              -7.612033333
            ],
            [
              110.692223333,
              -7.612028333
            ],
            [
              110.692218333,
              -7.612025
            ],
            [
              110.692215,
              -7.612023333
            ],
            [
              110.692216667,
              -7.612023333
            ],
            [
              110.69222,
              -7.61202
            ],
            [
              110.69222,
              -7.612016667
            ],
            [
              110.692213333,
              -7.612015
            ],
            [
              110.692206667,
              -7.612013333
            ],
            [
              110.6922,
              -7.612013333
            ],
            [
              110.692191667,
              -7.612011667
            ],
            [
              110.692185,
              -7.612013333
            ],
            [
              110.692185,
              -7.612008333
            ],
            [
              110.692188333,
              -7.612001667
            ],
            [
              110.692191667,
              -7.611993333
            ],
            [
              110.692195,
              -7.611985
            ],
            [
              110.6922,
              -7.611973333
            ],
            [
              110.692203333,
              -7.611966667
            ],
            [
              110.692208333,
              -7.611956667
            ],
            [
              110.692211667,
              -7.611946667
            ],
            [
              110.692215,
              -7.61194
            ],
            [
              110.692216667,
              -7.611938333
            ],
            [
              110.69222,
              -7.611936667
            ],
            [
              110.692223333,
              -7.611935
            ],
            [
              110.692225,
              -7.611935
            ],
            [
              110.692225,
              -7.611936667
            ],
            [
              110.692226667,
              -7.611931667
            ],
            [
              110.692231667,
              -7.611925
            ],
            [
              110.69223,
              -7.611915
            ],
            [
              110.692231667,
              -7.611905
            ],
            [
              110.692236667,
              -7.611893333
            ],
            [
              110.692236667,
              -7.611885
            ],
            [
              110.69224,
              -7.611873333
            ],
            [
              110.692241667,
              -7.611865
            ],
            [
              110.692246667,
              -7.611855
            ],
            [
              110.69225,
              -7.61185
            ],
            [
              110.692255,
              -7.611843333
            ],
            [
              110.692261667,
              -7.611835
            ],
            [
              110.692268333,
              -7.611828333
            ],
            [
              110.692275,
              -7.611821667
            ],
            [
              110.692275,
              -7.611818333
            ],
            [
              110.69228,
              -7.611808333
            ],
            [
              110.692286667,
              -7.611796667
            ],
            [
              110.692286667,
              -7.611788333
            ],
            [
              110.692295,
              -7.61178
            ],
            [
              110.692303333,
              -7.611773333
            ],
            [
              110.692306667,
              -7.611765
            ],
            [
              110.692306667,
              -7.611753333
            ],
            [
              110.692315,
              -7.611741667
            ],
            [
              110.692321667,
              -7.611731667
            ],
            [
              110.692321667,
              -7.611725
            ],
            [
              110.692325,
              -7.611715
            ],
            [
              110.69233,
              -7.611705
            ],
            [
              110.692336667,
              -7.6117
            ],
            [
              110.692341667,
              -7.611693333
            ],
            [
              110.692345,
              -7.611685
            ],
            [
              110.692348333,
              -7.611671667
            ],
            [
              110.692355,
              -7.611661667
            ],
            [
              110.692361667,
              -7.611655
            ],
            [
              110.692365,
              -7.611645
            ],
            [
              110.69237,
              -7.611635
            ],
            [
              110.692375,
              -7.611628333
            ],
            [
              110.692381667,
              -7.611618333
            ],
            [
              110.692386667,
              -7.611608333
            ],
            [
              110.692391667,
              -7.6116
            ],
            [
              110.692396667,
              -7.61159
            ],
            [
              110.6924,
              -7.611581667
            ],
            [
              110.692405,
              -7.611573333
            ],
            [
              110.692408333,
              -7.611563333
            ],
            [
              110.692411667,
              -7.611555
            ],
            [
              110.692415,
              -7.611545
            ],
            [
              110.692416667,
              -7.611535
            ],
            [
              110.692423333,
              -7.611523333
            ],
            [
              110.692431667,
              -7.611516667
            ],
            [
              110.69244,
              -7.611508333
            ],
            [
              110.692445,
              -7.611496667
            ],
            [
              110.692451667,
              -7.611486667
            ],
            [
              110.692451667,
              -7.61148
            ],
            [
              110.692455,
              -7.61147
            ],
            [
              110.69246,
              -7.611458333
            ],
            [
              110.692463333,
              -7.611448333
            ],
            [
              110.692468333,
              -7.611436667
            ],
            [
              110.692471667,
              -7.611428333
            ],
            [
              110.692476667,
              -7.611418333
            ],
            [
              110.692483333,
              -7.61141
            ],
            [
              110.692491667,
              -7.6114
            ],
            [
              110.692496667,
              -7.611391667
            ],
            [
              110.692501667,
              -7.611385
            ],
            [
              110.692501667,
              -7.61138
            ],
            [
              110.692498333,
              -7.611376667
            ],
            [
              110.692496667,
              -7.611375
            ],
            [
              110.6925,
              -7.61137
            ],
            [
              110.692496667,
              -7.611368333
            ],
            [
              110.692495,
              -7.611366667
            ],
            [
              110.692495,
              -7.611363333
            ],
            [
              110.692496667,
              -7.61136
            ],
            [
              110.692496667,
              -7.611358333
            ],
            [
              110.692495,
              -7.611358333
            ],
            [
              110.692493333,
              -7.611358333
            ],
            [
              110.692491667,
              -7.611358333
            ],
            [
              110.692493333,
              -7.611348333
            ],
            [
              110.692496667,
              -7.611345
            ],
            [
              110.6925,
              -7.611338333
            ],
            [
              110.692505,
              -7.61133
            ],
            [
              110.692511667,
              -7.611318333
            ],
            [
              110.692516667,
              -7.611306667
            ],
            [
              110.692521667,
              -7.611298333
            ],
            [
              110.692526667,
              -7.61129
            ],
            [
              110.692531667,
              -7.61128
            ],
            [
              110.692535,
              -7.61127
            ],
            [
              110.69254,
              -7.61126
            ],
            [
              110.692546667,
              -7.611253333
            ],
            [
              110.692551667,
              -7.611245
            ],
            [
              110.692556667,
              -7.611235
            ],
            [
              110.692561667,
              -7.611223333
            ],
            [
              110.692566667,
              -7.611215
            ],
            [
              110.69257,
              -7.611206667
            ],
            [
              110.692575,
              -7.611196667
            ],
            [
              110.69258,
              -7.611186667
            ],
            [
              110.692585,
              -7.611178333
            ],
            [
              110.692591667,
              -7.611168333
            ],
            [
              110.692598333,
              -7.611158333
            ],
            [
              110.692603333,
              -7.611148333
            ],
            [
              110.692608333,
              -7.61114
            ],
            [
              110.692611667,
              -7.611131667
            ],
            [
              110.692615,
              -7.611125
            ],
            [
              110.692621667,
              -7.611115
            ],
            [
              110.692626667,
              -7.611103333
            ],
            [
              110.692631667,
              -7.611095
            ],
            [
              110.692638333,
              -7.611086667
            ],
            [
              110.692641667,
              -7.611076667
            ],
            [
              110.692645,
              -7.61107
            ],
            [
              110.692648333,
              -7.61106
            ],
            [
              110.692653333,
              -7.61105
            ],
            [
              110.692658333,
              -7.611041667
            ],
            [
              110.692661667,
              -7.611031667
            ],
            [
              110.692668333,
              -7.611016667
            ],
            [
              110.692673333,
              -7.611008333
            ],
            [
              110.692681667,
              -7.610998333
            ],
            [
              110.692688333,
              -7.610988333
            ],
            [
              110.692691667,
              -7.610976667
            ],
            [
              110.692695,
              -7.610968333
            ],
            [
              110.692696667,
              -7.610961667
            ],
            [
              110.6927,
              -7.61095
            ],
            [
              110.692705,
              -7.61094
            ],
            [
              110.692708333,
              -7.610931667
            ],
            [
              110.692713333,
              -7.610923333
            ],
            [
              110.692721667,
              -7.610911667
            ],
            [
              110.692728333,
              -7.610898333
            ],
            [
              110.692731667,
              -7.61089
            ],
            [
              110.69274,
              -7.61088
            ],
            [
              110.692745,
              -7.61087
            ],
            [
              110.69275,
              -7.610861667
            ],
            [
              110.692753333,
              -7.610855
            ],
            [
              110.692758333,
              -7.61085
            ],
            [
              110.692761667,
              -7.610846667
            ],
            [
              110.692763333,
              -7.610845
            ],
            [
              110.692761667,
              -7.610845
            ],
            [
              110.692758333,
              -7.610846667
            ],
            [
              110.692756667,
              -7.610845
            ],
            [
              110.692758333,
              -7.61084
            ],
            [
              110.692765,
              -7.610835
            ],
            [
              110.69277,
              -7.610826667
            ],
            [
              110.692778333,
              -7.61082
            ],
            [
              110.692781667,
              -7.61081
            ],
            [
              110.692783333,
              -7.610801667
            ],
            [
              110.692781667,
              -7.610795
            ],
            [
              110.69278,
              -7.610791667
            ],
            [
              110.692781667,
              -7.610793333
            ],
            [
              110.692786667,
              -7.610798333
            ],
            [
              110.692791667,
              -7.610806667
            ],
            [
              110.692798333,
              -7.610816667
            ],
            [
              110.692808333,
              -7.61082
            ],
            [
              110.692818333,
              -7.610826667
            ],
            [
              110.692826667,
              -7.610831667
            ],
            [
              110.692831667,
              -7.610836667
            ],
            [
              110.692841667,
              -7.610843333
            ],
            [
              110.692851667,
              -7.610846667
            ],
            [
              110.692861667,
              -7.610853333
            ],
            [
              110.692871667,
              -7.61086
            ],
            [
              110.692878333,
              -7.610863333
            ],
            [
              110.69289,
              -7.61087
            ],
            [
              110.692895,
              -7.610875
            ],
            [
              110.6929,
              -7.61088
            ],
            [
              110.692906667,
              -7.610888333
            ],
            [
              110.692908333,
              -7.610895
            ],
            [
              110.692905,
              -7.610903333
            ],
            [
              110.6929,
              -7.610913333
            ],
            [
              110.692895,
              -7.610923333
            ],
            [
              110.692885,
              -7.610931667
            ],
            [
              110.692878333,
              -7.610935
            ],
            [
              110.69287,
              -7.610945
            ],
            [
              110.692866667,
              -7.610953333
            ],
            [
              110.692861667,
              -7.610963333
            ],
            [
              110.692856667,
              -7.610975
            ],
            [
              110.692851667,
              -7.610983333
            ],
            [
              110.692846667,
              -7.610991667
            ],
            [
              110.69284,
              -7.611
            ],
            [
              110.692833333,
              -7.611008333
            ],
            [
              110.692831667,
              -7.611018333
            ],
            [
              110.692828333,
              -7.611028333
            ],
            [
              110.69282,
              -7.611036667
            ],
            [
              110.692813333,
              -7.611045
            ],
            [
              110.692808333,
              -7.611056667
            ],
            [
              110.692803333,
              -7.611065
            ],
            [
              110.692798333,
              -7.611076667
            ],
            [
              110.69279,
              -7.611086667
            ],
            [
              110.692781667,
              -7.611096667
            ],
            [
              110.692778333,
              -7.611106667
            ],
            [
              110.692775,
              -7.611115
            ],
            [
              110.692771667,
              -7.611125
            ],
            [
              110.692768333,
              -7.611135
            ],
            [
              110.692763333,
              -7.611145
            ],
            [
              110.692755,
              -7.611155
            ],
            [
              110.692753333,
              -7.611168333
            ],
            [
              110.69275,
              -7.611178333
            ],
            [
              110.692748333,
              -7.611186667
            ],
            [
              110.692748333,
              -7.611195
            ],
            [
              110.692743333,
              -7.611208333
            ],
            [
              110.692736667,
              -7.611218333
            ],
            [
              110.69273,
              -7.611225
            ],
            [
              110.692725,
              -7.611233333
            ],
            [
              110.692718333,
              -7.611245
            ],
            [
              110.692713333,
              -7.611256667
            ],
            [
              110.692708333,
              -7.611268333
            ],
            [
              110.692698333,
              -7.611276667
            ],
            [
              110.692693333,
              -7.611283333
            ],
            [
              110.692688333,
              -7.611296667
            ],
            [
              110.692683333,
              -7.611308333
            ],
            [
              110.692676667,
              -7.611318333
            ],
            [
              110.692673333,
              -7.611325
            ],
            [
              110.69267,
              -7.611335
            ],
            [
              110.692666667,
              -7.61134
            ],
            [
              110.692663333,
              -7.611348333
            ],
            [
              110.692656667,
              -7.611358333
            ],
            [
              110.692648333,
              -7.61137
            ],
            [
              110.692643333,
              -7.61138
            ],
            [
              110.692636667,
              -7.611391667
            ],
            [
              110.692631667,
              -7.6114
            ],
            [
              110.692626667,
              -7.61141
            ],
            [
              110.69262,
              -7.61142
            ],
            [
              110.692613333,
              -7.611431667
            ],
            [
              110.692608333,
              -7.611441667
            ],
            [
              110.692603333,
              -7.611455
            ],
            [
              110.6926,
              -7.611465
            ],
            [
              110.692593333,
              -7.611475
            ],
            [
              110.692586667,
              -7.611483333
            ],
            [
              110.69258,
              -7.611495
            ],
            [
              110.692578333,
              -7.611505
            ],
            [
              110.692573333,
              -7.611515
            ],
            [
              110.692568333,
              -7.611523333
            ],
            [
              110.692563333,
              -7.61153
            ],
            [
              110.692561667,
              -7.61154
            ],
            [
              110.692556667,
              -7.61155
            ],
            [
              110.692551667,
              -7.611556667
            ],
            [
              110.69255,
              -7.611563333
            ],
            [
              110.692546667,
              -7.611573333
            ],
            [
              110.692543333,
              -7.611585
            ],
            [
              110.692538333,
              -7.611595
            ],
            [
              110.692535,
              -7.611605
            ],
            [
              110.692528333,
              -7.611613333
            ],
            [
              110.692525,
              -7.611623333
            ],
            [
              110.692521667,
              -7.611633333
            ],
            [
              110.692516667,
              -7.611641667
            ],
            [
              110.69251,
              -7.61165
            ],
            [
              110.692508333,
              -7.61166
            ],
            [
              110.692501667,
              -7.611671667
            ],
            [
              110.692495,
              -7.611681667
            ],
            [
              110.692493333,
              -7.611693333
            ],
            [
              110.69249,
              -7.611701667
            ],
            [
              110.692488333,
              -7.61171
            ],
            [
              110.692483333,
              -7.611718333
            ],
            [
              110.69248,
              -7.611726667
            ],
            [
              110.692475,
              -7.611736667
            ],
            [
              110.692465,
              -7.611748333
            ],
            [
              110.692458333,
              -7.611756667
            ],
            [
              110.692451667,
              -7.611768333
            ],
            [
              110.692443333,
              -7.61178
            ],
            [
              110.69244,
              -7.611788333
            ],
            [
              110.692433333,
              -7.611796667
            ],
            [
              110.692426667,
              -7.611805
            ],
            [
              110.692423333,
              -7.611816667
            ],
            [
              110.692418333,
              -7.611826667
            ],
            [
              110.692415,
              -7.611835
            ],
            [
              110.692408333,
              -7.611843333
            ],
            [
              110.692405,
              -7.611853333
            ],
            [
              110.6924,
              -7.611861667
            ],
            [
              110.692396667,
              -7.611871667
            ],
            [
              110.692391667,
              -7.611883333
            ],
            [
              110.692385,
              -7.611891667
            ],
            [
              110.69238,
              -7.6119
            ],
            [
              110.692375,
              -7.61191
            ],
            [
              110.692368333,
              -7.611923333
            ],
            [
              110.692365,
              -7.611933333
            ],
            [
              110.692361667,
              -7.611946667
            ],
            [
              110.692355,
              -7.611956667
            ],
            [
              110.692348333,
              -7.611961667
            ],
            [
              110.692336667,
              -7.61197
            ],
            [
              110.692328333,
              -7.61198
            ],
            [
              110.692323333,
              -7.611986667
            ],
            [
              110.69232,
              -7.611993333
            ],
            [
              110.692313333,
              -7.612001667
            ],
            [
              110.69231,
              -7.612013333
            ],
            [
              110.692306667,
              -7.612025
            ],
            [
              110.692303333,
              -7.612036667
            ],
            [
              110.692298333,
              -7.61205
            ],
            [
              110.692296667,
              -7.612056667
            ],
            [
              110.692293333,
              -7.612053333
            ],
            [
              110.692293333,
              -7.612051667
            ],
            [
              110.69229,
              -7.612053333
            ],
            [
              110.692286667,
              -7.612056667
            ],
            [
              110.692286667,
              -7.612053333
            ],
            [
              110.692286667,
              -7.61205
            ],
            [
              110.692288333,
              -7.61205
            ],
            [
              110.692291667,
              -7.61205
            ],
            [
              110.692293333,
              -7.61205
            ],
            [
              110.692296667,
              -7.612051667
            ],
            [
              110.692298333,
              -7.612051667
            ],
            [
              110.69229,
              -7.612066667
            ]
          ]
        ]
      }
    }
  ]
}