{
  "type": "FeatureCollection",
  "features": [
    {
      "type": "Feature",
      "properties": {
        "id": "13",
        "name": "13_Rojolele Srinunuk_KecDelanggu_1,5 Bulan",
        "source_file": "13_Rojolele Srinunuk_KecDelanggu_1,5 Bulan_FEATURE_POINTS.csv"
      },
      "geometry": {
        "type": "Polygon",
        "coordinates": [
          [
            [
              110.692475,
              -7.61222
            ],
            [
              110.692488333,
              -7.612218333
            ],
            [
              110.692493333,
              -7.612221667
            ],
            [
              110.6925,
              -7.612223333
            ],
            [
              110.692505,
              -7.612226667
            ],
            [
              110.692511667,
              -7.612228333
            ],
            [
              110.692515,
              -7.612233333
            ],
            [
              110.692521667,
              -7.612233333
            ],
            [
              110.692528333,
              -7.612236667
            ],
            [
              110.692535,
              -7.61224
            ],
            [
              110.692541667,
              -7.612243333
            ],
            [
              110.692548333,
              -7.61225
            ],
            [
              110.692556667,
              -7.612253333
            ],
            [
              110.692563333,
              -7.61226
            ],
            [
              110.692568333,
              -7.61226
            ],
            [
              110.69257,
              -7.612263333
            ],
            [
              110.692566667,
              -7.61227
            ],
            [
              110.692563333,
              -7.612273333
            ],
            [
              110.692558333,
              -7.61228
            ],
            [
              110.692553333,
              -7.612285
            ],
            [
              110.69255,
              -7.612291667
            ],
            [
              110.692546667,
              -7.612298333
            ],
            [
              110.692543333,
              -7.612305
            ],
            [
              110.692543333,
              -7.612311667
            ],
            [
              110.692538333,
              -7.612318333
            ],
            [
              110.692535,
              -7.612325
            ],
            [
              110.692533333,
              -7.612331667
            ],
            [
              110.692531667,
              -7.612336667
            ],
            [
              110.692528333,
              -7.612343333
            ],
            [
              110.692523333,
              -7.612351667
            ],
            [
              110.692521667,
              -7.61236
            ],
            [
              110.692516667,
              -7.612366667
            ],
            [
              110.692511667,
              -7.612376667
            ],
            [
              110.692506667,
              -7.612385
            ],
            [
              110.692501667,
              -7.612393333
            ],
            [
              110.692498333,
              -7.612405
            ],
            [
              110.692496667,
              -7.61241
            ],
            [
              110.692493333,
              -7.612416667
            ],
            [
              110.69249,
              -7.612425
            ],
            [
              110.692486667,
              -7.612433333
            ],
            [
              110.692481667,
              -7.612438333
            ],
            [
              110.692476667,
              -7.61245
            ],
            [
              110.692475,
              -7.612453333
            ],
            [
              110.692471667,
              -7.61246
            ],
            [
              110.69247,
              -7.61247
            ],
            [
              110.692466667,
              -7.612478333
            ],
            [
              110.692463333,
              -7.612485
            ],
            [
              110.692461667,
              -7.612491667
            ],
            [
              110.692456667,
              -7.612501667
            ],
            [
              110.692455,
              -7.612508333
            ],
            [
              110.69245,
              -7.612518333
            ],
            [
              110.692446667,
              -7.61253
            ],
            [
              110.692445,
              -7.612536667
            ],
            [
              110.692441667,
              -7.612546667
            ],
            [
              110.692438333,
              -7.612556667
            ],
            [
              110.692436667,
              -7.612565
            ],
            [
              110.692433333,
              -7.612573333
            ],
            [
              110.692428333,
              -7.612578333
            ],
            [
              110.692425,
              -7.612585
            ],
            [
              110.69242,
              -7.612595
            ],
            [
              110.692415,
              -7.612603333
            ],
            [
              110.692413333,
              -7.612613333
            ],
            [
              110.692408333,
              -7.612621667
            ],
            [
              110.692401667,
              -7.61263
            ],
            [
              110.692398333,
              -7.612638333
            ],
            [
              110.692396667,
              -7.612648333
            ],
            [
              110.69239,
              -7.61266
            ],
            [
              110.692385,
              -7.612666667
            ],
            [
              110.692378333,
              -7.612675
            ],
            [
              110.692373333,
              -7.612686667
            ],
            [
              110.692366667,
              -7.612698333
            ],
            [
              110.692363333,
              -7.612708333
            ],
            [
              110.69236,
              -7.612718333
            ],
            [
              110.692358333,
              -7.612726667
            ],
            [
              110.692353333,
              -7.612733333
            ],
            [
              110.692348333,
              -7.612743333
            ],
            [
              110.692346667,
              -7.612751667
            ],
            [
              110.692341667,
              -7.612761667
            ],
            [
              110.692338333,
              -7.612771667
            ],
            [
              110.692333333,
              -7.612778333
            ],
            [
              110.69233,
              -7.612786667
            ],
            [
              110.692326667,
              -7.612796667
            ],
            [
              110.692323333,
              -7.612808333
            ],
            [
              110.69232,
              -7.612816667
            ],
            [
              110.692316667,
              -7.612823333
            ],
            [
              110.692311667,
              -7.612833333
            ],
            [
              110.692308333,
              -7.612843333
            ],
            [
              110.692303333,
              -7.612853333
            ],
            [
              110.692303333,
              -7.61286
            ],
            [
              110.692305,
              -7.612863333
            ],
            [
              110.692301667,
              -7.612868333
            ],
            [
              110.692298333,
              -7.612866667
            ],
            [
              110.692298333,
              -7.612863333
            ],
            [
              110.692295,
              -7.612858333
            ],
            [
              110.692291667,
              -7.612853333
            ],
            [
              110.692283333,
              -7.612851667
            ],
            [
              110.692276667,
              -7.612851667
            ],
            [
              110.692268333,
              -7.61285
            ],
            [
              110.69226,
              -7.61285
            ],
            [
              110.69225,
              -7.612846667
            ],
            [
              110.692241667,
              -7.612845
            ],
            [
              110.692238333,
              -7.612841667
            ],
            [
              110.692233333,
              -7.612841667
            ],
            [
              110.692226667,
              -7.61284
            ],
            [
              110.692223333,
              -7.61284
            ],
            [
              110.692218333,
              -7.612836667
            ],
            [
              110.692215,
              -7.612833333
            ],
            [
              110.69221,
              -7.61283
            ],
            [
              110.692208333,
              -7.612825
            ],
            [
              110.692205,
              -7.61282
            ],
            [
              110.692206667,
              -7.612815
            ],
            [
              110.692206667,
              -7.612813333
            ],
            [
              110.692205,
              -7.612813333
            ],
            [
              110.692201667,
              -7.612808333
            ],
            [
              110.692196667,
              -7.612805
            ],
            [
              110.692191667,
              -7.612801667
            ],
            [
              110.692188333,
              -7.612801667
            ],
            [
              110.692186667,
              -7.6128
            ],
            [
              110.692185,
              -7.612798333
            ],
            [
              110.692183333,
              -7.612798333
            ],
            [
              110.692178333,
              -7.6128
            ],
            [
              110.692173333,
              -7.612798333
            ],
            [
              110.69217,
              -7.612798333
            ],
            [
              110.692166667,
              -7.612796667
            ],
            [
              110.692165,
              -7.612795
            ],
            [
              110.692161667,
              -7.612795
            ],
            [
              110.69216,
              -7.612793333
            ],
            [
              110.69216,
              -7.612791667
            ],
            [
              110.692158333,
              -7.612791667
            ],
            [
              110.692155,
              -7.61279
            ],
            [
              110.692151667,
              -7.612788333
            ],
            [
              110.692128333,
              -7.612778333
            ],
            [
              110.692115,
              -7.612773333
            ],
            [
              110.692105,
              -7.612778333
            ],
            [
              110.692091667,
              -7.612773333
            ],
            [
              110.69208,
              -7.612771667
            ],
            [
              110.692068333,
              -7.612763333
            ],
            [
              110.692058333,
              -7.612761667
            ],
            [
              110.692051667,
              -7.612758333
            ],
            [
              110.692043333,
              -7.612753333
            ],
            [
              110.692033333,
              -7.612745
            ],
            [
              110.692036667,
              -7.612725
            ],
            [
              110.692038333,
              -7.612711667
            ],
            [
              110.692045,
              -7.612706667
            ],
            [
              110.69205,
              -7.612701667
            ],
            [
              110.692055,
              -7.612695
            ],
            [
              110.692058333,
              -7.612688333
            ],
            [
              110.69206,
              -7.61268
            ],
            [
              110.692065,
              -7.612676667
            ],
            [
              110.692068333,
              -7.61267
            ],
            [
              110.69207,
              -7.612661667
            ],
            [
              110.69207,
              -7.612655
            ],
            [
              110.692073333,
              -7.612648333
            ],
            [
              110.692078333,
              -7.612641667
            ],
            [
              110.692083333,
              -7.612635
            ],
            [
              110.692086667,
              -7.612621667
            ],
            [
              110.692091667,
              -7.612613333
            ],
            [
              110.692096667,
              -7.612606667
            ],
            [
              110.6921,
              -7.6126
            ],
            [
              110.692103333,
              -7.612591667
            ],
            [
              110.692106667,
              -7.612583333
            ],
            [
              110.692113333,
              -7.612573333
            ],
            [
              110.692118333,
              -7.612566667
            ],
            [
              110.692125,
              -7.612558333
            ],
            [
              110.692131667,
              -7.612548333
            ],
            [
              110.692133333,
              -7.612538333
            ],
            [
              110.692136667,
              -7.61253
            ],
            [
              110.692143333,
              -7.612523333
            ],
            [
              110.692148333,
              -7.612516667
            ],
            [
              110.69215,
              -7.612508333
            ],
            [
              110.692153333,
              -7.612498333
            ],
            [
              110.692156667,
              -7.61249
            ],
            [
              110.69216,
              -7.612481667
            ],
            [
              110.692163333,
              -7.612471667
            ],
            [
              110.69217,
              -7.612463333
            ],
            [
              110.692175,
              -7.612453333
            ],
            [
              110.692176667,
              -7.612443333
            ],
            [
              110.692178333,
              -7.612433333
            ],
            [
              110.692181667,
              -7.612423333
            ],
            [
              110.692191667,
              -7.612416667
            ],
            [
              110.692198333,
              -7.612405
            ],
            [
              110.6922,
              -7.612396667
            ],
            [
              110.692201667,
              -7.612386667
            ],
            [
              110.692205,
              -7.612378333
            ],
            [
              110.69221,
              -7.612368333
            ],
            [
              110.692216667,
              -7.612358333
            ],
            [
              110.692223333,
              -7.612348333
            ],
            [
              110.69223,
              -7.612338333
            ],
            [
              110.692226667,
              -7.61233
            ],
            [
              110.692228333,
              -7.612321667
            ],
            [
              110.692233333,
              -7.612311667
            ],
            [
              110.692241667,
              -7.612301667
            ],
            [
              110.692248333,
              -7.612291667
            ],
            [
              110.692255,
              -7.612281667
            ],
            [
              110.69226,
              -7.61227
            ],
            [
              110.692261667,
              -7.612261667
            ],
            [
              110.692268333,
              -7.61225
            ],
            [
              110.692275,
              -7.612241667
            ],
            [
              110.692281667,
              -7.612235
            ],
            [
              110.69229,
              -7.612223333
            ],
            [
              110.692288333,
              -7.612215
            ],
            [
              110.692288333,
              -7.612206667
            ],
            [
              110.692293333,
              -7.612195
            ],
            [
              110.692295,
              -7.612188333
            ],
            [
              110.6923,
              -7.61218
            ],
            [
              110.692306667,
              -7.61217
            ],
            [
              110.692311667,
              -7.612161667
            ],
            [
              110.692313333,
              -7.612155
            ],
            [
              110.692318333,
              -7.612145
            ],
            [
              110.692325,
              -7.612136667
            ],
            [
              110.692333333,
              -7.612128333
            ],
            [
              110.692341667,
              -7.612121667
            ],
            [
              110.692345,
              -7.612116667
            ],
            [
              110.692351667,
              -7.612121667
            ],
            [
              110.692361667,
              -7.612126667
            ],
            [
              110.69237,
              -7.612133333
            ],
            [
              110.692376667,
              -7.612135
            ],
            [
              110.692383333,
              -7.612138333
            ],
            [
              110.692393333,
              -7.61214
            ],
            [
              110.692403333,
              -7.612145
            ],
            [
              110.69241,
              -7.612148333
            ],
            [
              110.69242,
              -7.612151667
            ],
            [
              110.692431667,
              -7.612155
            ],
            [
              110.692441667,
              -7.61216
            ],
            [
              110.692448333,
              -7.612163333
            ],
            [
              110.692456667,
              -7.61217
            ],
            [
              110.69246,
              -7.612175
            ],
            [
              110.692468333,
              -7.612178333
            ],
            [
              110.692476667,
              -7.612181667
            ],
            [
              110.692481667,
              -7.612186667
            ],
            [
              110.692481667,
              -7.61219
            ],
            [
              110.692481667,
              -7.612195
            ],
            [
              110.69248,
              -7.612201667
            ],
            [
              110.692476667,
              -7.612203333
            ],
            [
              110.69247,
              -7.612208333
            ],
            [
              110.692465,
              -7.61221
            ],
            [
              110.692463333,
              -7.612215
            ],
            [
              110.692461667,
              -7.612218333
            ],
            [
              110.692461667,
              -7.612221667
            ],
            [
              110.692463333,
              -7.612221667
            ],
            [
              110.692475,
              -7.61222
            ]
          ]
        ]
      }
    }
  ]
}