{
  "type": "FeatureCollection",
  "features": [
    {
      "type": "Feature",
      "properties": {
        "id": "unknown",
        "name": "SL3_17_Inpari 32_Tingkir_3 Bulan",
        "source_file": "SL3_17_Inpari 32_Tingkir_3 Bulan_FEATURE_POINTS.csv"
      },
      "geometry": {
        "type": "Polygon",
        "coordinates": [
          [
            [
              110.527145416,
              -7.344071262
            ],
            [
              110.527152121,
              -7.34404067
            ],
            [
              110.527159832,
              -7.344010742
            ],
            [
              110.527172238,
              -7.343981813
            ],
            [
              110.527185984,
              -7.343951885
            ],
            [
              110.527192354,
              -7.343925283
            ],
            [
              110.527199395,
              -7.343894358
            ],
            [
              110.527202412,
              -7.343865096
            ],
            [
              110.527209453,
              -7.343829516
            ],
            [
              110.5272118,
              -7.343794933
            ],
            [
              110.527214818,
              -7.343768663
            ],
            [
              110.527222529,
              -7.343734081
            ],
            [
              110.527226888,
              -7.343701826
            ],
            [
              110.527231246,
              -7.343668573
            ],
            [
              110.527234599,
              -7.343635321
            ],
            [
              110.527235605,
              -7.3436024
            ],
            [
              110.527243651,
              -7.343566488
            ],
            [
              110.527242981,
              -7.343529245
            ],
            [
              110.527243651,
              -7.343490672
            ],
            [
              110.52724164,
              -7.343450104
            ],
            [
              110.527243316,
              -7.343422504
            ],
            [
              110.527242981,
              -7.343391246
            ],
            [
              110.527210459,
              -7.343381271
            ],
            [
              110.527174249,
              -7.34337196
            ],
            [
              110.527146421,
              -7.343361652
            ],
            [
              110.527117923,
              -7.343350678
            ],
            [
              110.527087077,
              -7.343341035
            ],
            [
              110.52705925,
              -7.343331059
            ],
            [
              110.527014993,
              -7.343317426
            ],
            [
              110.526985489,
              -7.343307117
            ],
            [
              110.526977442,
              -7.343340702
            ],
            [
              110.526975431,
              -7.343381271
            ],
            [
              110.52696839,
              -7.343419179
            ],
            [
              110.526965037,
              -7.343462074
            ],
            [
              110.526956655,
              -7.343507298
            ],
            [
              110.526953638,
              -7.343538223
            ],
            [
              110.526951961,
              -7.343569813
            ],
            [
              110.52690804,
              -7.343570811
            ],
            [
              110.526869483,
              -7.343567153
            ],
            [
              110.526865795,
              -7.343618362
            ],
            [
              110.526869819,
              -7.343659595
            ],
            [
              110.526869483,
              -7.343705484
            ],
            [
              110.526865795,
              -7.343766003
            ],
            [
              110.526860766,
              -7.343826523
            ],
            [
              110.526861772,
              -7.343861771
            ],
            [
              110.526827574,
              -7.343862103
            ],
            [
              110.526796058,
              -7.343862768
            ],
            [
              110.526795052,
              -7.343902671
            ],
            [
              110.526783317,
              -7.343935924
            ],
            [
              110.526765883,
              -7.343961528
            ],
            [
              110.526748449,
              -7.343996776
            ],
            [
              110.526739396,
              -7.344021716
            ],
            [
              110.526721627,
              -7.344056298
            ],
            [
              110.526769571,
              -7.344046988
            ],
            [
              110.52680511,
              -7.344045657
            ],
            [
              110.526835956,
              -7.344048318
            ],
            [
              110.526873171,
              -7.34404466
            ],
            [
              110.526905358,
              -7.344045657
            ],
            [
              110.526935197,
              -7.344044992
            ],
            [
              110.526982136,
              -7.344046322
            ],
            [
              110.527012311,
              -7.344050645
            ],
            [
              110.527048185,
              -7.344053306
            ],
            [
              110.527081043,
              -7.344059956
            ],
            [
              110.527111888,
              -7.344071594
            ],
            [
              110.527145416,
              -7.344071262
            ]
          ]
        ]
      }
    }
  ]
}