{
  "type": "FeatureCollection",
  "features": [
    {
      "type": "Feature",
      "properties": {
        "id": "unknown",
        "name": "SL3_18_Inpari 32_Tingkir_3 Bulan 4 Hari",
        "source_file": "SL3_18_Inpari 32_Tingkir_3 Bulan 4 Hari_FEATURE_POINTS.csv"
      },
      "geometry": {
        "type": "Polygon",
        "coordinates": [
          [
            [
              110.523575731,
              -7.342219423
            ],
            [
              110.523589812,
              -7.342186835
            ],
            [
              110.523601547,
              -7.342153915
            ],
            [
              110.523621999,
              -7.342121327
            ],
            [
              110.523637421,
              -7.342083752
            ],
            [
              110.523650497,
              -7.342048504
            ],
            [
              110.523650162,
              -7.342010596
            ],
            [
              110.523636416,
              -7.341981666
            ],
            [
              110.523611605,
              -7.341955729
            ],
            [
              110.523589812,
              -7.341930124
            ],
            [
              110.523624346,
              -7.341912833
            ],
            [
              110.523664579,
              -7.341905184
            ],
            [
              110.523699448,
              -7.34190984
            ],
            [
              110.523725934,
              -7.341915825
            ],
            [
              110.523748398,
              -7.341930124
            ],
            [
              110.523781255,
              -7.341954731
            ],
            [
              110.523781255,
              -7.341995632
            ],
            [
              110.523778573,
              -7.342029882
            ],
            [
              110.523779579,
              -7.342064133
            ],
            [
              110.523777232,
              -7.342104368
            ],
            [
              110.523777232,
              -7.342142941
            ],
            [
              110.523767509,
              -7.342177524
            ],
            [
              110.523769185,
              -7.342205457
            ],
            [
              110.523764491,
              -7.342234054
            ],
            [
              110.523742028,
              -7.342259326
            ],
            [
              110.523709506,
              -7.342268637
            ],
            [
              110.523675978,
              -7.342259658
            ],
            [
              110.523645803,
              -7.342252343
            ],
            [
              110.523608252,
              -7.342241037
            ],
            [
              110.523575731,
              -7.342219423
            ]
          ]
        ]
      }
    }
  ]
}