{
  "type": "FeatureCollection",
  "features": [
    {
      "type": "Feature",
      "properties": {
        "id": "unknown",
        "name": "SL3_16_Inpari 32_Tingkir_2 Bulan",
        "source_file": "SL3_16_Inpari 32_Tingkir_2 Bulan_FEATURE_POINTS.csv"
      },
      "geometry": {
        "type": "Polygon",
        "coordinates": [
          [
            [
              110.526580475,
              -7.343919298
            ],
            [
              110.52659288,
              -7.343887043
            ],
            [
              110.526607968,
              -7.34385512
            ],
            [
              110.52662272,
              -7.34382087
            ],
            [
              110.526635796,
              -7.343792273
            ],
            [
              110.52665256,
              -7.343759685
            ],
            [
              110.526672341,
              -7.343734413
            ],
            [
              110.526685081,
              -7.343707146
            ],
            [
              110.526699498,
              -7.343673894
            ],
            [
              110.526708886,
              -7.343632993
            ],
            [
              110.526716262,
              -7.343596082
            ],
            [
              110.526709892,
              -7.34356416
            ],
            [
              110.526715592,
              -7.343529577
            ],
            [
              110.52671358,
              -7.343498652
            ],
            [
              110.526718274,
              -7.34346274
            ],
            [
              110.526723973,
              -7.343428822
            ],
            [
              110.526723303,
              -7.343390914
            ],
            [
              110.526724979,
              -7.343357329
            ],
            [
              110.526725985,
              -7.343320418
            ],
            [
              110.526726991,
              -7.343291156
            ],
            [
              110.526726991,
              -7.34324826
            ],
            [
              110.526684076,
              -7.343228641
            ],
            [
              110.526652895,
              -7.343218665
            ],
            [
              110.526618026,
              -7.343206029
            ],
            [
              110.526587516,
              -7.343201706
            ],
            [
              110.526546948,
              -7.343193061
            ],
            [
              110.526518784,
              -7.343184748
            ],
            [
              110.526491292,
              -7.343181755
            ],
            [
              110.526479892,
              -7.34321667
            ],
            [
              110.52648358,
              -7.343251585
            ],
            [
              110.526496992,
              -7.343279185
            ],
            [
              110.526507385,
              -7.343306785
            ],
            [
              110.526514761,
              -7.343339705
            ],
            [
              110.526520126,
              -7.343365642
            ],
            [
              110.526524484,
              -7.34340089
            ],
            [
              110.526533872,
              -7.343439795
            ],
            [
              110.526535213,
              -7.343471718
            ],
            [
              110.526538566,
              -7.343500648
            ],
            [
              110.526542924,
              -7.343537558
            ],
            [
              110.526539907,
              -7.343573471
            ],
            [
              110.526532866,
              -7.343606723
            ],
            [
              110.526529178,
              -7.343647624
            ],
            [
              110.526514426,
              -7.343678881
            ],
            [
              110.526501015,
              -7.343706481
            ],
            [
              110.526484251,
              -7.343739069
            ],
            [
              110.526474528,
              -7.343772654
            ],
            [
              110.526466146,
              -7.343807902
            ],
            [
              110.526462458,
              -7.343840822
            ],
            [
              110.526456758,
              -7.343868754
            ],
            [
              110.526442677,
              -7.343893361
            ],
            [
              110.526502021,
              -7.343909654
            ],
            [
              110.526529849,
              -7.343913977
            ],
            [
              110.526580475,
              -7.343919298
            ]
          ]
        ]
      }
    }
  ]
}