{
  "type": "FeatureCollection",
  "features": [
    {
      "type": "Feature",
      "properties": {
        "id": "unknown",
        "name": "SL3_19_Inpari 32_Tingkir_3 Bulan 4 Hari",
        "source_file": "SL3_19_Inpari 32_Tingkir_3 Bulan 4 Hari_FEATURE_POINTS.csv"
      },
      "geometry": {
        "type": "Polygon",
        "coordinates": [
          [
            [
              110.52340474,
              -7.341610565
            ],
            [
              110.523382276,
              -7.341626527
            ],
            [
              110.523360483,
              -7.341644151
            ],
            [
              110.52333802,
              -7.341672083
            ],
            [
              110.523326956,
              -7.341698685
            ],
            [
              110.523312874,
              -7.341721629
            ],
            [
              110.523295775,
              -7.341743576
            ],
            [
              110.523281023,
              -7.341769846
            ],
            [
              110.523255542,
              -7.341791793
            ],
            [
              110.52322939,
              -7.3418164
            ],
            [
              110.523196198,
              -7.341848322
            ],
            [
              110.52317407,
              -7.341876255
            ],
            [
              110.523147248,
              -7.341894876
            ],
            [
              110.523135513,
              -7.341923473
            ],
            [
              110.523129813,
              -7.341956394
            ],
            [
              110.52312512,
              -7.341993637
            ],
            [
              110.523131825,
              -7.342025892
            ],
            [
              110.523138866,
              -7.342061805
            ],
            [
              110.523160324,
              -7.342089072
            ],
            [
              110.523189828,
              -7.342116672
            ],
            [
              110.523221679,
              -7.342132633
            ],
            [
              110.523267612,
              -7.342139284
            ],
            [
              110.523311868,
              -7.342152585
            ],
            [
              110.523353778,
              -7.342164888
            ],
            [
              110.523389988,
              -7.342170874
            ],
            [
              110.523433238,
              -7.342186502
            ],
            [
              110.523470789,
              -7.342193818
            ],
            [
              110.52350264,
              -7.342204459
            ],
            [
              110.523540862,
              -7.342214767
            ],
            [
              110.523560643,
              -7.342186502
            ],
            [
              110.523583442,
              -7.342148927
            ],
            [
              110.523600206,
              -7.342109024
            ],
            [
              110.52362401,
              -7.342069785
            ],
            [
              110.523626357,
              -7.342040191
            ],
            [
              110.523624346,
              -7.342002282
            ],
            [
              110.523591489,
              -7.341970027
            ],
            [
              110.523565002,
              -7.341941762
            ],
            [
              110.523551255,
              -7.341912833
            ],
            [
              110.52356299,
              -7.341875257
            ],
            [
              110.52356936,
              -7.341846992
            ],
            [
              110.523573719,
              -7.341813074
            ],
            [
              110.523539856,
              -7.34179013
            ],
            [
              110.523505323,
              -7.341766853
            ],
            [
              110.523476489,
              -7.341743909
            ],
            [
              110.523446667,
              -7.3417
            ],
            [
              110.523415804,
              -7.341672083
            ],
            [
              110.52340474,
              -7.341610565
            ]
          ]
        ]
      }
    }
  ]
}