{
  "type": "FeatureCollection",
  "features": [
    {
      "type": "Feature",
      "properties": {
        "id": "unknown",
        "name": "SL3_20_Inpari 32_Tingkir_2 Bulan 15 Hari",
        "source_file": "SL3_20_Inpari 32_Tingkir_2 Bulan 15 Hari_FEATURE_POINTS.csv"
      },
      "geometry": {
        "type": "Polygon",
        "coordinates": [
          [
            [
              110.525356047,
              -7.335625695
            ],
            [
              110.525309779,
              -7.335624032
            ],
            [
              110.525277592,
              -7.335623367
            ],
            [
              110.525251441,
              -7.335641989
            ],
            [
              110.525224283,
              -7.335643652
            ],
            [
              110.525185727,
              -7.335649637
            ],
            [
              110.525148846,
              -7.335636004
            ],
            [
              110.525113642,
              -7.33562902
            ],
            [
              110.525079109,
              -7.335628023
            ],
            [
              110.525051281,
              -7.335630018
            ],
            [
              110.525015406,
              -7.335628688
            ],
            [
              110.524988919,
              -7.335608736
            ],
            [
              110.52499529,
              -7.335576148
            ],
            [
              110.524993278,
              -7.335539569
            ],
            [
              110.524994954,
              -7.335512634
            ],
            [
              110.524993278,
              -7.335482706
            ],
            [
              110.524989925,
              -7.335447458
            ],
            [
              110.524994284,
              -7.335419858
            ],
            [
              110.524998643,
              -7.33539126
            ],
            [
              110.524980873,
              -7.33536499
            ],
            [
              110.524956062,
              -7.335337722
            ],
            [
              110.524934269,
              -7.335299148
            ],
            [
              110.524920188,
              -7.335275539
            ],
            [
              110.524911135,
              -7.335245943
            ],
            [
              110.524879619,
              -7.335217013
            ],
            [
              110.524853468,
              -7.335190078
            ],
            [
              110.52483134,
              -7.335173784
            ],
            [
              110.524793789,
              -7.335166136
            ],
            [
              110.524762943,
              -7.335163475
            ],
            [
              110.524732098,
              -7.335174116
            ],
            [
              110.524689518,
              -7.335203712
            ],
            [
              110.524673089,
              -7.335227322
            ],
            [
              110.524695553,
              -7.335253924
            ],
            [
              110.524711311,
              -7.335285847
            ],
            [
              110.524727404,
              -7.335310122
            ],
            [
              110.524740145,
              -7.335347366
            ],
            [
              110.524749197,
              -7.335375298
            ],
            [
              110.524753556,
              -7.335410214
            ],
            [
              110.524757914,
              -7.335440142
            ],
            [
              110.524763949,
              -7.335469405
            ],
            [
              110.524775013,
              -7.335514962
            ],
            [
              110.524786413,
              -7.335556861
            ],
            [
              110.524806865,
              -7.335594437
            ],
            [
              110.524833016,
              -7.33562104
            ],
            [
              110.524855815,
              -7.335645979
            ],
            [
              110.524838045,
              -7.33567624
            ],
            [
              110.524824299,
              -7.335708828
            ],
            [
              110.524815582,
              -7.335733768
            ],
            [
              110.524805523,
              -7.335770346
            ],
            [
              110.524802841,
              -7.335800607
            ],
            [
              110.524811223,
              -7.33582987
            ],
            [
              110.524816588,
              -7.335865451
            ],
            [
              110.524816923,
              -7.335895711
            ],
            [
              110.5248072,
              -7.33593894
            ],
            [
              110.524825305,
              -7.335990815
            ],
            [
              110.524839386,
              -7.336047678
            ],
            [
              110.524865538,
              -7.336102878
            ],
            [
              110.524900742,
              -7.336121167
            ],
            [
              110.52492287,
              -7.336155086
            ],
            [
              110.524950363,
              -7.336208291
            ],
            [
              110.524974503,
              -7.336238884
            ],
            [
              110.525022112,
              -7.336284773
            ],
            [
              110.525050946,
              -7.33633033
            ],
            [
              110.525077097,
              -7.336373559
            ],
            [
              110.525111295,
              -7.336413463
            ],
            [
              110.525137782,
              -7.336435742
            ],
            [
              110.525152199,
              -7.33646168
            ],
            [
              110.525168628,
              -7.336492938
            ],
            [
              110.525181703,
              -7.336524196
            ],
            [
              110.525176004,
              -7.336559776
            ],
            [
              110.525167957,
              -7.336588042
            ],
            [
              110.525169633,
              -7.336626283
            ],
            [
              110.525188744,
              -7.33665488
            ],
            [
              110.525218919,
              -7.336669844
            ],
            [
              110.52525714,
              -7.336685473
            ],
            [
              110.525297709,
              -7.336698442
            ],
            [
              110.525325872,
              -7.336709083
            ],
            [
              110.525335595,
              -7.336664524
            ],
            [
              110.525320508,
              -7.336627613
            ],
            [
              110.525308438,
              -7.336590037
            ],
            [
              110.525273234,
              -7.336551796
            ],
            [
              110.525250435,
              -7.336517877
            ],
            [
              110.525228307,
              -7.336475313
            ],
            [
              110.525212213,
              -7.33643674
            ],
            [
              110.525194108,
              -7.336408475
            ],
            [
              110.525177345,
              -7.336368903
            ],
            [
              110.525156222,
              -7.336287433
            ],
            [
              110.525141135,
              -7.336265154
            ],
            [
              110.525108278,
              -7.336234228
            ],
            [
              110.525068045,
              -7.336203303
            ],
            [
              110.52504994,
              -7.336126155
            ],
            [
              110.52506201,
              -7.336081929
            ],
            [
              110.525097549,
              -7.336050671
            ],
            [
              110.525159575,
              -7.336020743
            ],
            [
              110.52521389,
              -7.336005779
            ],
            [
              110.525275581,
              -7.335988155
            ],
            [
              110.525289997,
              -7.335935282
            ],
            [
              110.52529972,
              -7.335865783
            ],
            [
              110.525317155,
              -7.335787306
            ],
            [
              110.525342301,
              -7.335692866
            ],
            [
              110.525356047,
              -7.335625695
            ]
          ]
        ]
      }
    }
  ]
}