{
  "type": "FeatureCollection",
  "features": [
    {
      "type": "Feature",
      "properties": {
        "id": "unknown",
        "name": "SL3_15_Inpari 32_Tingkir_2 Bulan",
        "source_file": "SL3_15_Inpari 32_Tingkir_2 Bulan_FEATURE_POINTS.csv"
      },
      "geometry": {
        "type": "Polygon",
        "coordinates": [
          [
            [
              110.527064614,
              -7.344325311
            ],
            [
              110.527072996,
              -7.344297379
            ],
            [
              110.527066626,
              -7.344264792
            ],
            [
              110.527082048,
              -7.344241848
            ],
            [
              110.527094118,
              -7.344217906
            ],
            [
              110.527104177,
              -7.344185983
            ],
            [
              110.527117252,
              -7.344152731
            ],
            [
              110.52712597,
              -7.344120143
            ],
            [
              110.52713234,
              -7.344076915
            ],
            [
              110.527097471,
              -7.344068269
            ],
            [
              110.527063943,
              -7.344059624
            ],
            [
              110.527017675,
              -7.344053306
            ],
            [
              110.526978113,
              -7.344048318
            ],
            [
              110.526942573,
              -7.344050645
            ],
            [
              110.526922122,
              -7.344071594
            ],
            [
              110.526907705,
              -7.344098862
            ],
            [
              110.526893288,
              -7.344157719
            ],
            [
              110.526892617,
              -7.344198619
            ],
            [
              110.526860431,
              -7.344217573
            ],
            [
              110.526764542,
              -7.344241182
            ],
            [
              110.526711568,
              -7.344257476
            ],
            [
              110.526710227,
              -7.344293389
            ],
            [
              110.526725985,
              -7.34434227
            ],
            [
              110.526764542,
              -7.344336617
            ],
            [
              110.526818857,
              -7.344335287
            ],
            [
              110.526867136,
              -7.344323981
            ],
            [
              110.526894629,
              -7.344326642
            ],
            [
              110.526945926,
              -7.344323316
            ],
            [
              110.526979119,
              -7.344322651
            ],
            [
              110.527017675,
              -7.344321986
            ],
            [
              110.527064614,
              -7.344325311
            ]
          ]
        ]
      }
    }
  ]
}