{
  "type": "FeatureCollection",
  "features": [
    {
      "type": "Feature",
      "properties": {
        "id": "unknown",
        "name": "SL3_14_Inpari 32_Tingkir",
        "source_file": "SL3_14_Inpari 32_Tingkir_FEATURE_POINTS.csv"
      },
      "geometry": {
        "type": "Polygon",
        "coordinates": [
          [
            [
              110.527421667,
              -7.344635
            ],
            [
              110.527433333,
              -7.34465
            ],
            [
              110.527428333,
              -7.344646667
            ],
            [
              110.527423333,
              -7.344645
            ],
            [
              110.527416667,
              -7.344641667
            ],
            [
              110.527411667,
              -7.34464
            ],
            [
              110.527408333,
              -7.344638333
            ],
            [
              110.527406667,
              -7.344635
            ],
            [
              110.527401667,
              -7.344633333
            ],
            [
              110.527398333,
              -7.344633333
            ],
            [
              110.527396667,
              -7.344631667
            ],
            [
              110.527391667,
              -7.34463
            ],
            [
              110.527388333,
              -7.34463
            ],
            [
              110.527386667,
              -7.34463
            ],
            [
              110.527385,
              -7.344628333
            ],
            [
              110.527383333,
              -7.34463
            ],
            [
              110.527381667,
              -7.34463
            ],
            [
              110.527376667,
              -7.344628333
            ],
            [
              110.527375,
              -7.344625
            ],
            [
              110.52737,
              -7.344623333
            ],
            [
              110.527365,
              -7.344621667
            ],
            [
              110.52736,
              -7.34462
            ],
            [
              110.527355,
              -7.34462
            ],
            [
              110.527351667,
              -7.344616667
            ],
            [
              110.527346667,
              -7.344613333
            ],
            [
              110.527343333,
              -7.344613333
            ],
            [
              110.52734,
              -7.344611667
            ],
            [
              110.527338333,
              -7.344611667
            ],
            [
              110.527333333,
              -7.344606667
            ],
            [
              110.527326667,
              -7.344603333
            ],
            [
              110.52732,
              -7.344598333
            ],
            [
              110.527311667,
              -7.344595
            ],
            [
              110.527306667,
              -7.344588333
            ],
            [
              110.527301667,
              -7.344583333
            ],
            [
              110.527295,
              -7.34458
            ],
            [
              110.527288333,
              -7.344575
            ],
            [
              110.527281667,
              -7.344571667
            ],
            [
              110.527276667,
              -7.344568333
            ],
            [
              110.527271667,
              -7.344566667
            ],
            [
              110.527266667,
              -7.344566667
            ],
            [
              110.527261667,
              -7.344566667
            ],
            [
              110.527258333,
              -7.344563333
            ],
            [
              110.527255,
              -7.34456
            ],
            [
              110.527251667,
              -7.344558333
            ],
            [
              110.527246667,
              -7.344556667
            ],
            [
              110.527241667,
              -7.344555
            ],
            [
              110.527238333,
              -7.344555
            ],
            [
              110.527235,
              -7.344551667
            ],
            [
              110.52723,
              -7.34455
            ],
            [
              110.527223333,
              -7.344548333
            ],
            [
              110.527218333,
              -7.344546667
            ],
            [
              110.527213333,
              -7.344545
            ],
            [
              110.527208333,
              -7.344541667
            ],
            [
              110.527201667,
              -7.344538333
            ],
            [
              110.527195,
              -7.344536667
            ],
            [
              110.52719,
              -7.344531667
            ],
            [
              110.527188333,
              -7.34453
            ],
            [
              110.527185,
              -7.344528333
            ],
            [
              110.527181667,
              -7.344526667
            ],
            [
              110.52718,
              -7.344526667
            ],
            [
              110.52718,
              -7.344528333
            ],
            [
              110.52718,
              -7.34453
            ],
            [
              110.527178333,
              -7.34453
            ],
            [
              110.527173333,
              -7.34453
            ],
            [
              110.527168333,
              -7.344531667
            ],
            [
              110.52716,
              -7.344531667
            ],
            [
              110.527155,
              -7.344531667
            ],
            [
              110.527151667,
              -7.34453
            ],
            [
              110.52715,
              -7.344528333
            ],
            [
              110.527125,
              -7.344526667
            ],
            [
              110.52712,
              -7.344526667
            ],
            [
              110.527116667,
              -7.344525
            ],
            [
              110.527115,
              -7.344521667
            ],
            [
              110.527113333,
              -7.34452
            ],
            [
              110.527096667,
              -7.344513333
            ],
            [
              110.527093333,
              -7.344511667
            ],
            [
              110.52709,
              -7.344511667
            ],
            [
              110.527088333,
              -7.344513333
            ],
            [
              110.52709,
              -7.344513333
            ],
            [
              110.527073333,
              -7.344511667
            ],
            [
              110.527071667,
              -7.344511667
            ],
            [
              110.527068333,
              -7.34451
            ],
            [
              110.527066667,
              -7.34451
            ],
            [
              110.527038333,
              -7.344513333
            ],
            [
              110.527033333,
              -7.34451
            ],
            [
              110.527028333,
              -7.34451
            ],
            [
              110.527025,
              -7.344508333
            ],
            [
              110.52702,
              -7.344506667
            ],
            [
              110.527016667,
              -7.344508333
            ],
            [
              110.527013333,
              -7.344506667
            ],
            [
              110.526966667,
              -7.34448
            ],
            [
              110.526961667,
              -7.344478333
            ],
            [
              110.526958333,
              -7.344476667
            ],
            [
              110.526953333,
              -7.344476667
            ],
            [
              110.526945,
              -7.344473333
            ],
            [
              110.526936667,
              -7.344471667
            ],
            [
              110.52693,
              -7.34447
            ],
            [
              110.526923333,
              -7.34447
            ],
            [
              110.526913333,
              -7.34447
            ],
            [
              110.526905,
              -7.34447
            ],
            [
              110.5269,
              -7.344471667
            ],
            [
              110.526896667,
              -7.34447
            ],
            [
              110.526891667,
              -7.344471667
            ],
            [
              110.52689,
              -7.344473333
            ],
            [
              110.526888333,
              -7.344476667
            ],
            [
              110.526885,
              -7.344476667
            ],
            [
              110.526878333,
              -7.344478333
            ],
            [
              110.526873333,
              -7.344476667
            ],
            [
              110.526866667,
              -7.344473333
            ],
            [
              110.526863333,
              -7.344476667
            ],
            [
              110.526861667,
              -7.344476667
            ],
            [
              110.526855,
              -7.344475
            ],
            [
              110.526848333,
              -7.34447
            ],
            [
              110.526841667,
              -7.34447
            ],
            [
              110.526835,
              -7.34447
            ],
            [
              110.52683,
              -7.34447
            ],
            [
              110.526825,
              -7.34447
            ],
            [
              110.526823333,
              -7.344468333
            ],
            [
              110.52682,
              -7.34447
            ],
            [
              110.526815,
              -7.344471667
            ],
            [
              110.526811667,
              -7.344471667
            ],
            [
              110.526806667,
              -7.344471667
            ],
            [
              110.5268,
              -7.344468333
            ],
            [
              110.526796667,
              -7.344468333
            ],
            [
              110.526791667,
              -7.344466667
            ],
            [
              110.526786667,
              -7.344465
            ],
            [
              110.526781667,
              -7.344465
            ],
            [
              110.526776667,
              -7.344465
            ],
            [
              110.52677,
              -7.344463333
            ],
            [
              110.526761667,
              -7.344463333
            ],
            [
              110.526751667,
              -7.344463333
            ],
            [
              110.526745,
              -7.344463333
            ],
            [
              110.526738333,
              -7.344463333
            ],
            [
              110.526731667,
              -7.344465
            ],
            [
              110.526723333,
              -7.344463333
            ],
            [
              110.526716667,
              -7.344461667
            ],
            [
              110.526708333,
              -7.344463333
            ],
            [
              110.526701667,
              -7.344463333
            ],
            [
              110.526695,
              -7.344463333
            ],
            [
              110.526688333,
              -7.344461667
            ],
            [
              110.526685,
              -7.34446
            ],
            [
              110.526681667,
              -7.34446
            ],
            [
              110.526678333,
              -7.34446
            ],
            [
              110.526675,
              -7.34446
            ],
            [
              110.526675,
              -7.344461667
            ],
            [
              110.526676667,
              -7.344461667
            ],
            [
              110.526676667,
              -7.344463333
            ],
            [
              110.526676667,
              -7.344461667
            ],
            [
              110.526663333,
              -7.34448
            ],
            [
              110.52666,
              -7.34448
            ],
            [
              110.526655,
              -7.344478333
            ],
            [
              110.526651667,
              -7.344478333
            ],
            [
              110.526633333,
              -7.344481667
            ],
            [
              110.526625,
              -7.344483333
            ],
            [
              110.526618333,
              -7.344485
            ],
            [
              110.526611667,
              -7.344486667
            ],
            [
              110.526606667,
              -7.34449
            ],
            [
              110.5266,
              -7.344491667
            ],
            [
              110.526596667,
              -7.34449
            ],
            [
              110.526596667,
              -7.344488333
            ],
            [
              110.526598333,
              -7.344488333
            ],
            [
              110.526601667,
              -7.344493333
            ],
            [
              110.5266,
              -7.344498333
            ],
            [
              110.526598333,
              -7.344503333
            ],
            [
              110.526598333,
              -7.344506667
            ],
            [
              110.526596667,
              -7.344513333
            ],
            [
              110.526596667,
              -7.344518333
            ],
            [
              110.526598333,
              -7.344525
            ],
            [
              110.526596667,
              -7.344531667
            ],
            [
              110.526598333,
              -7.344536667
            ],
            [
              110.526596667,
              -7.34454
            ],
            [
              110.526596667,
              -7.344543333
            ],
            [
              110.526596667,
              -7.344546667
            ],
            [
              110.526596667,
              -7.34455
            ],
            [
              110.526598333,
              -7.344555
            ],
            [
              110.5266,
              -7.344561667
            ],
            [
              110.526598333,
              -7.34457
            ],
            [
              110.5266,
              -7.344576667
            ],
            [
              110.5266,
              -7.344581667
            ],
            [
              110.526605,
              -7.344586667
            ],
            [
              110.526608333,
              -7.344591667
            ],
            [
              110.52661,
              -7.344598333
            ],
            [
              110.526606667,
              -7.344605
            ],
            [
              110.526603333,
              -7.344615
            ],
            [
              110.526603333,
              -7.34462
            ],
            [
              110.526603333,
              -7.344625
            ],
            [
              110.526601667,
              -7.34463
            ],
            [
              110.5266,
              -7.344633333
            ],
            [
              110.526598333,
              -7.344636667
            ],
            [
              110.526596667,
              -7.344635
            ],
            [
              110.526593333,
              -7.344641667
            ],
            [
              110.526595,
              -7.34464
            ],
            [
              110.526596667,
              -7.344643333
            ],
            [
              110.526595,
              -7.344645
            ],
            [
              110.526535,
              -7.344675
            ],
            [
              110.526513333,
              -7.344686667
            ],
            [
              110.526511667,
              -7.344675
            ],
            [
              110.526516667,
              -7.344676667
            ],
            [
              110.52653,
              -7.344665
            ],
            [
              110.52654,
              -7.344653333
            ],
            [
              110.526548333,
              -7.344646667
            ],
            [
              110.526545,
              -7.34465
            ],
            [
              110.526548333,
              -7.344651667
            ],
            [
              110.526551667,
              -7.344653333
            ],
            [
              110.526553333,
              -7.344653333
            ],
            [
              110.526556667,
              -7.344655
            ],
            [
              110.526558333,
              -7.344655
            ],
            [
              110.52656,
              -7.344656667
            ],
            [
              110.526563333,
              -7.344658333
            ],
            [
              110.526565,
              -7.34466
            ],
            [
              110.526566667,
              -7.344661667
            ],
            [
              110.526568333,
              -7.344663333
            ],
            [
              110.526575,
              -7.344661667
            ],
            [
              110.526578333,
              -7.344665
            ],
            [
              110.526581667,
              -7.344665
            ],
            [
              110.526588333,
              -7.344668333
            ],
            [
              110.526595,
              -7.344666667
            ],
            [
              110.526601667,
              -7.344665
            ],
            [
              110.526608333,
              -7.344665
            ],
            [
              110.526615,
              -7.344665
            ],
            [
              110.526621667,
              -7.344658333
            ],
            [
              110.526628333,
              -7.344658333
            ],
            [
              110.526635,
              -7.344656667
            ],
            [
              110.526643333,
              -7.344653333
            ],
            [
              110.526648333,
              -7.344651667
            ],
            [
              110.52665,
              -7.34465
            ],
            [
              110.526656667,
              -7.344648333
            ],
            [
              110.526663333,
              -7.344646667
            ],
            [
              110.526668333,
              -7.344645
            ],
            [
              110.526673333,
              -7.344645
            ],
            [
              110.526676667,
              -7.344643333
            ],
            [
              110.526681667,
              -7.344643333
            ],
            [
              110.526685,
              -7.344645
            ],
            [
              110.526693333,
              -7.344645
            ],
            [
              110.526701667,
              -7.344645
            ],
            [
              110.526711667,
              -7.344646667
            ],
            [
              110.526716667,
              -7.344648333
            ],
            [
              110.526725,
              -7.344648333
            ],
            [
              110.52673,
              -7.344648333
            ],
            [
              110.526733333,
              -7.344646667
            ],
            [
              110.526741667,
              -7.344648333
            ],
            [
              110.52675,
              -7.344651667
            ],
            [
              110.526758333,
              -7.344651667
            ],
            [
              110.526765,
              -7.344653333
            ],
            [
              110.526771667,
              -7.344653333
            ],
            [
              110.526776667,
              -7.344653333
            ],
            [
              110.526783333,
              -7.344653333
            ],
            [
              110.526788333,
              -7.344656667
            ],
            [
              110.526796667,
              -7.34466
            ],
            [
              110.526805,
              -7.344661667
            ],
            [
              110.526813333,
              -7.344663333
            ],
            [
              110.52682,
              -7.344668333
            ],
            [
              110.526828333,
              -7.34467
            ],
            [
              110.52684,
              -7.344671667
            ],
            [
              110.526848333,
              -7.344671667
            ],
            [
              110.526853333,
              -7.344671667
            ],
            [
              110.526858333,
              -7.34467
            ],
            [
              110.526858333,
              -7.344671667
            ],
            [
              110.526858333,
              -7.344673333
            ],
            [
              110.526858333,
              -7.344675
            ],
            [
              110.526858333,
              -7.34468
            ],
            [
              110.52686,
              -7.344683333
            ],
            [
              110.526863333,
              -7.344685
            ],
            [
              110.52688,
              -7.344685
            ],
            [
              110.526885,
              -7.344681667
            ],
            [
              110.52689,
              -7.34468
            ],
            [
              110.526898333,
              -7.344681667
            ],
            [
              110.526906667,
              -7.34468
            ],
            [
              110.526911667,
              -7.344683333
            ],
            [
              110.526918333,
              -7.344683333
            ],
            [
              110.526925,
              -7.344685
            ],
            [
              110.526926667,
              -7.344686667
            ],
            [
              110.526931667,
              -7.344688333
            ],
            [
              110.526938333,
              -7.344688333
            ],
            [
              110.526946667,
              -7.34469
            ],
            [
              110.526951667,
              -7.344686667
            ],
            [
              110.526953333,
              -7.344685
            ],
            [
              110.526953333,
              -7.344683333
            ],
            [
              110.526951667,
              -7.344683333
            ],
            [
              110.526953333,
              -7.344685
            ],
            [
              110.526948333,
              -7.344683333
            ],
            [
              110.526946667,
              -7.344681667
            ],
            [
              110.526945,
              -7.344678333
            ],
            [
              110.52695,
              -7.344681667
            ],
            [
              110.526961667,
              -7.344685
            ],
            [
              110.526973333,
              -7.34469
            ],
            [
              110.526978333,
              -7.344693333
            ],
            [
              110.526988333,
              -7.344703333
            ],
            [
              110.526996667,
              -7.344708333
            ],
            [
              110.527006667,
              -7.344708333
            ],
            [
              110.527013333,
              -7.34471
            ],
            [
              110.527016667,
              -7.344716667
            ],
            [
              110.527015,
              -7.344715
            ],
            [
              110.527016667,
              -7.344718333
            ],
            [
              110.52702,
              -7.344716667
            ],
            [
              110.527025,
              -7.344718333
            ],
            [
              110.527031667,
              -7.344721667
            ],
            [
              110.527038333,
              -7.344723333
            ],
            [
              110.527046667,
              -7.34473
            ],
            [
              110.527051667,
              -7.344731667
            ],
            [
              110.527058333,
              -7.344731667
            ],
            [
              110.527066667,
              -7.344736667
            ],
            [
              110.527073333,
              -7.344741667
            ],
            [
              110.52708,
              -7.344745
            ],
            [
              110.527083333,
              -7.344748333
            ],
            [
              110.52709,
              -7.344751667
            ],
            [
              110.527096667,
              -7.344753333
            ],
            [
              110.527103333,
              -7.344755
            ],
            [
              110.527108333,
              -7.344755
            ],
            [
              110.527115,
              -7.344756667
            ],
            [
              110.52712,
              -7.344761667
            ],
            [
              110.527126667,
              -7.344763333
            ],
            [
              110.527131667,
              -7.344768333
            ],
            [
              110.527138333,
              -7.34477
            ],
            [
              110.527143333,
              -7.344771667
            ],
            [
              110.527146667,
              -7.344773333
            ],
            [
              110.527151667,
              -7.344775
            ],
            [
              110.52716,
              -7.34478
            ],
            [
              110.527166667,
              -7.344783333
            ],
            [
              110.527171667,
              -7.344785
            ],
            [
              110.527176667,
              -7.344786667
            ],
            [
              110.527181667,
              -7.344788333
            ],
            [
              110.527188333,
              -7.344788333
            ],
            [
              110.527193333,
              -7.344791667
            ],
            [
              110.527198333,
              -7.344796667
            ],
            [
              110.527206667,
              -7.344796667
            ],
            [
              110.527213333,
              -7.344801667
            ],
            [
              110.527216667,
              -7.344803333
            ],
            [
              110.527223333,
              -7.344806667
            ],
            [
              110.527226667,
              -7.344808333
            ],
            [
              110.527231667,
              -7.34481
            ],
            [
              110.52724,
              -7.344816667
            ],
            [
              110.527245,
              -7.344821667
            ],
            [
              110.527251667,
              -7.344825
            ],
            [
              110.527256667,
              -7.344828333
            ],
            [
              110.527261667,
              -7.344831667
            ],
            [
              110.527266667,
              -7.344833333
            ],
            [
              110.527273333,
              -7.344835
            ],
            [
              110.52728,
              -7.344835
            ],
            [
              110.527283333,
              -7.344835
            ],
            [
              110.527286667,
              -7.344838333
            ],
            [
              110.527291667,
              -7.344843333
            ],
            [
              110.527295,
              -7.344845
            ],
            [
              110.527298333,
              -7.344843333
            ],
            [
              110.527298333,
              -7.34484
            ],
            [
              110.5273,
              -7.344831667
            ],
            [
              110.527305,
              -7.344828333
            ],
            [
              110.527305,
              -7.344823333
            ],
            [
              110.527308333,
              -7.344816667
            ],
            [
              110.527313333,
              -7.344811667
            ],
            [
              110.527316667,
              -7.344806667
            ],
            [
              110.527323333,
              -7.3448
            ],
            [
              110.52733,
              -7.34479
            ],
            [
              110.527335,
              -7.344781667
            ],
            [
              110.527338333,
              -7.344775
            ],
            [
              110.527345,
              -7.344766667
            ],
            [
              110.527346667,
              -7.344761667
            ],
            [
              110.527351667,
              -7.344758333
            ],
            [
              110.527356667,
              -7.344753333
            ],
            [
              110.52736,
              -7.34475
            ],
            [
              110.527365,
              -7.344743333
            ],
            [
              110.527366667,
              -7.344738333
            ],
            [
              110.52737,
              -7.344733333
            ],
            [
              110.527371667,
              -7.34473
            ],
            [
              110.527375,
              -7.344723333
            ],
            [
              110.527378333,
              -7.34472
            ],
            [
              110.527381667,
              -7.344715
            ],
            [
              110.527386667,
              -7.34471
            ],
            [
              110.527391667,
              -7.344706667
            ],
            [
              110.527393333,
              -7.344701667
            ],
            [
              110.5274,
              -7.344698333
            ],
            [
              110.527405,
              -7.344695
            ],
            [
              110.52741,
              -7.34469
            ],
            [
              110.527415,
              -7.344686667
            ],
            [
              110.52742,
              -7.34468
            ],
            [
              110.527423333,
              -7.344675
            ],
            [
              110.527428333,
              -7.34467
            ],
            [
              110.527431667,
              -7.344666667
            ],
            [
              110.527433333,
              -7.344666667
            ],
            [
              110.527435,
              -7.344666667
            ],
            [
              110.527435,
              -7.344668333
            ],
            [
              110.527436667,
              -7.344665
            ],
            [
              110.527421667,
              -7.344635
            ]
          ]
        ]
      }
    }
  ]
}