{"type":"FeatureCollection","features":[{"type":"Feature","geometry":{"type":"Polygon","coordinates":[[[110.6895289634745,-7.612838728846112],[110.68931438675331,-7.613593761408449],[110.68906762352394,-7.6139446915833044],[110.68901397934364,-7.61422118182172],[110.6891319965403,-7.614529574569538],[110.68945386162208,-7.6147741617634646],[110.68979718437599,-7.615018748817803],[110.68994738808084,-7.615369677825849],[110.69029071083473,-7.615688703947428],[110.69078423729347,-7.6159120220912175],[110.69123484840797,-7.616145974307504],[110.69180347671913,-7.616656415063268],[110.6923621949318,-7.616767086609467],[110.69335997668534,-7.6170223066933955],[110.69580615130691,-7.617915575789846],[110.69530684182092,-7.6192687412628635],[110.69912648217571,-7.6207257851979495],[110.70579370040556,-7.622940714043794],[110.70736011047025,-7.621058488359141],[110.70669492263457,-7.6205374187694455],[110.70609410781522,-7.621260535580479],[110.70532163161893,-7.6210903905583285],[110.70481862804711,-7.620771368459579],[110.70421781322776,-7.620707564011305],[110.70396032116234,-7.620346005291542],[110.70369210026084,-7.620122689459203],[110.70364918491661,-7.61970795974732],[110.7038637616378,-7.6190911814843885],[110.70396460378011,-7.618876310429127],[110.70261277043662,-7.6180893847542785],[110.70175223631664,-7.61781490271782],[110.70122652334972,-7.617666024629444],[110.70129089636607,-7.617346999980118],[110.70092611594006,-7.617091780089617],[110.70055060667796,-7.616815291703323],[110.70077591223522,-7.616080214616062],[110.70088580089202,-7.615952604312522],[110.70083867194055,-7.61519150433771],[110.69962631346581,-7.615127699058367],[110.6986178028762,-7.614712964511073],[110.69731257475395,-7.614285781893002],[110.69709799803276,-7.614200708005306],[110.69733403242606,-7.6133074311650315],[110.69688342131157,-7.6130841116640875],[110.69603584326286,-7.61415817105513],[110.69444797552605,-7.613700898574084],[110.6942635998725,-7.61377822708396],[110.69351258134832,-7.613554907828298],[110.69281520700446,-7.613948375010182],[110.69232168054572,-7.613735690091852],[110.69215001916876,-7.614597063359237],[110.69152188194779,-7.614332814669506],[110.69116783035783,-7.614003153296806],[110.69086742294817,-7.613726662917743],[110.69036316765336,-7.613450172360315],[110.6895289634745,-7.612838728846112]]]},"id":"0","properties":{"kelas":1}},{"type":"Feature","geometry":{"type":"Polygon","coordinates":[[[110.69104817957486,-7.646963594947064],[110.68986800760833,-7.64867557251648],[110.6900289401492,-7.649940942826593],[110.6905653819522,-7.6506746432200385],[110.69095162005034,-7.650887309764822],[110.69161250034931,-7.652412062345871],[110.69232060352923,-7.65189103098554],[110.69268538395525,-7.6511785993196995],[110.69386555592182,-7.6514975987201925],[110.69657995144487,-7.652582194897089],[110.69666578213335,-7.651827231183381],[110.69703056255939,-7.65189103098554],[110.69711639324787,-7.6512849324797],[110.6963331882155,-7.650412999785072],[110.69559289852741,-7.650125899605307],[110.69554998318317,-7.649658032231656],[110.69523884693743,-7.6493602981812465],[110.69494916836382,-7.649158264242988],[110.69501354138018,-7.648786096211541],[110.6948526088393,-7.648573428619236],[110.69469167629839,-7.648605328764829],[110.69435908238054,-7.648530895088045],[110.69406940380695,-7.648573428619236],[110.69375826756121,-7.648477728168102],[110.69311453739763,-7.648956230209062],[110.69277441010651,-7.648380895411561],[110.6928816984671,-7.648093793864235],[110.69104817957486,-7.646963594947064]]]},"id":"1","properties":{"kelas":1}},{"type":"Feature","geometry":{"type":"MultiPolygon","coordinates":[[[[110.68122810640708,-7.641609018268338],[110.6811376808885,-7.641443561345028],[110.6807407139543,-7.6413903935423155],[110.68122810640708,-7.641609018268338]]],[[[110.68122810640708,-7.641609018268338],[110.68127715575727,-7.6416987667058915],[110.68139517295391,-7.641868903528388],[110.6816419361833,-7.641922071271535],[110.68186724174053,-7.642049673828046],[110.68210327613384,-7.642134742177855],[110.68212473380598,-7.642326145903002],[110.68194234359295,-7.642538816608093],[110.68227493751081,-7.6427727542613315],[110.682489514232,-7.642921623610307],[110.68241441237957,-7.643315063782727],[110.6826182602647,-7.6435809015318155],[110.68294012534649,-7.64387863961429],[110.68361604201826,-7.644123210026693],[110.68398082244428,-7.644133843519706],[110.68414980161221,-7.644189669353681],[110.68455481517346,-7.64433056309267],[110.68491154897244,-7.644508673979189],[110.6853514312509,-7.644716026857932],[110.68539166438612,-7.644918062899327],[110.68563306319746,-7.645234408614148],[110.68591469514402,-7.64530352613407],[110.68623924243481,-7.645250358812041],[110.68652355659039,-7.645292892670193],[110.68680518853695,-7.645314159597679],[110.68707340943845,-7.6453646685462155],[110.68737113463911,-7.64535137671824],[110.687711775184,-7.645473661520066],[110.68820335914724,-7.644737752766861],[110.68122810640708,-7.641609018268338]]]]},"id":"2","properties":{"kelas":1}},{"type":"Feature","geometry":{"type":"Polygon","coordinates":[[[110.68820529393051,-7.6447214649403525],[110.68868760700367,-7.643847580824683],[110.68897728557727,-7.64325476278748],[110.68922136659764,-7.642688527750201],[110.68958601409982,-7.641894000085001],[110.68990261416333,-7.641096305859675],[110.69014078204427,-7.640603476185752],[110.69025879924092,-7.640327002995565],[110.68967407767568,-7.640082430408907],[110.68948364083563,-7.640345611773599],[110.68955606047902,-7.640422705273951],[110.68949705188069,-7.640529041113682],[110.68928247515952,-7.640933117063225],[110.68920200888907,-7.640962359386848],[110.68890428368842,-7.640826781324101],[110.68849122350011,-7.640473214801135],[110.68832473546753,-7.639483341080649],[110.68805383235703,-7.639188258337797],[110.68725185186156,-7.638547582491696],[110.68665764972579,-7.638017199095999],[110.68644307300458,-7.638219238306572],[110.68623386070142,-7.638086317784049],[110.68602196618924,-7.637823135027449],[110.68614838549404,-7.637602839060303],[110.68583509846081,-7.637395871990185],[110.685507868961,-7.637773366776125],[110.68456373138775,-7.638916482755694],[110.6849319165377,-7.639200215968212],[110.68517867976709,-7.639689362011752],[110.68555418902916,-7.640146606719838],[110.68559173995538,-7.640380545683527],[110.68531815463585,-7.640896274309968],[110.68557564670128,-7.641257815656167],[110.6855434601931,-7.641619356696277],[110.68478478152282,-7.642490541261472],[110.6854660626126,-7.641666441596105],[110.68481696803101,-7.641772777126164],[110.6838781948758,-7.641389969094026],[110.68329883772857,-7.641847211981447],[110.68231714922914,-7.641331484503351],[110.6816626902295,-7.641379335532683],[110.6807829256726,-7.641395285874606],[110.68820529393051,-7.6447214649403525]]]},"id":"3","properties":{"kelas":1}}]}