{"type":"FeatureCollection","features":[{"type":"Feature","geometry":{"type":"MultiPolygon","coordinates":[[[[110.68164154244988,-7.629529713577369],[110.68115338040917,-7.630305984382929],[110.68142964793769,-7.630484101115612],[110.68160399152366,-7.630574488682928],[110.6816844577941,-7.630619682459419],[110.68177833510963,-7.630670193145147],[110.68190976335136,-7.630747288390801],[110.6819499964866,-7.630702094627799],[110.68232282353966,-7.63008533220824],[110.68221821738808,-7.629981652231411],[110.68217798425285,-7.629963043002147],[110.68203046275703,-7.629875313767535],[110.68187757684319,-7.629768975277229],[110.68178101731864,-7.629617442882861],[110.68164154244988,-7.629529713577369]]],[[[110.67726267548909,-7.627418022524627],[110.67700518342367,-7.627852683325749],[110.67709235521664,-7.6279111697606865],[110.67733509513249,-7.627497776833137],[110.67726267548909,-7.627418022524627]]],[[[110.67190277167204,-7.619597916978029],[110.67184510417822,-7.620049866119503],[110.67201006003262,-7.620101707314067],[110.67207443304899,-7.619651087490028],[110.67190277167204,-7.619597916978029]]],[[[110.67083943358617,-7.616999396219559],[110.67080322376445,-7.617079152468869],[110.67074803218419,-7.617197662019744],[110.67067293033178,-7.617374015647216],[110.67061794504697,-7.617510930413015],[110.67055376193399,-7.6176541150248696],[110.67049176970089,-7.617797817364707],[110.67042739668452,-7.617957329551212],[110.67048908749187,-7.6179812563740565],[110.67052797952257,-7.617888207611016],[110.67058296480738,-7.617761927114564],[110.67063526788317,-7.617644951463576],[110.67067982194177,-7.61753875927039],[110.67076325023447,-7.6173457378385825],[110.67084613488883,-7.6171548459285185],[110.67089977906913,-7.617041857924235],[110.67091855453225,-7.616987357817392],[110.67086088703843,-7.6169434918727115],[110.67083943358617,-7.616999396219559]]],[[[110.67041788481416,-7.617985565743206],[110.67027840994538,-7.6183125655182975],[110.67033071302119,-7.6183391508549],[110.67047287009898,-7.618012151100098],[110.67041788481416,-7.617985565743206]]]]},"id":"0","properties":{"variety":"Srinuk"}},{"type":"Feature","geometry":{"type":"MultiPolygon","coordinates":[[[[110.68418479374249,-7.632080995773609],[110.68458980730374,-7.631371189510867],[110.684458379062,-7.631291435924572],[110.68405604770977,-7.632003900768392],[110.68418479374249,-7.632080995773609]]],[[[110.68419015816052,-7.632096946462607],[110.68431756308871,-7.632176699898665],[110.6844469112642,-7.631974359427401],[110.68457565729693,-7.631736428186566],[110.6846950155981,-7.631526410556697],[110.68473658983783,-7.631455961581816],[110.68459711496905,-7.631371283714622],[110.68453140084817,-7.631497560195804],[110.68442629318713,-7.631673515048692],[110.68433375697612,-7.6318449850876275],[110.68423585634706,-7.632011138160542],[110.68419015816052,-7.632096946462607]]]]},"id":"1","properties":{"variety":"inpari32"}}]}